TYPES_DE_PRODUITS,STATUT,AOC,RAISON_SOCIALE,ADRESSE,ADRESSE_SUITE,CODE_POSTAL,COMMUNE,TELEPHONE,SITE_WEB,MARQUES_ET_LABELS,TOURISME_ET_HANDICAP,LONGITUDE,LATITUDE
Vins,Producteur,Blaye Côtes de Bordeaux;Bordeaux Rosé;Bordeaux Clairet;Crémant de Bordeaux,Château Crusquet Sabourin,49 Le Bourg,,33390,CARS,+33 5 57 42 15 27,www.sabourin-freres.com,Vignobles et Chais en Bordelais,,-0.587792,45.104763
Vins,Producteur,Blaye Côtes de Bordeaux;Bordeaux Rosé;Bordeaux Clairet,Château du Grand Barrail,Bracaille,,33390,CARS,+33 5 57 42 33 04,www.denislafon.com,Vignobles et Chais en Bordelais,,-0.625529,45.13521
Vins,Producteur,Blaye Côtes de Bordeaux;Blaye;Bordeaux Rosé,Château Petit Boyer,La Pistolette,,33390,CARS,+33 5 57 42 19 40,www.petit-boyer.com,Vignobles et Chais en Bordelais,,-0.597639,45.138218
Vins,Producteur,Blaye Côtes de Bordeaux,Château Peybonhomme-Les-Tours,,,33390,CARS,+33 5 57 42 11 95,www.vignobles-hubert.com,Vignobles et Chais en Bordelais,,-0.619715,45.128937
Vins,Producteur,Blaye Côtes de Bordeaux;Bordeaux Rosé,Château Peymelon,Les Petits,,33390,CARS,+33 5 57 42 19 09,http://vignoblesmichelchapard.com,Vignobles et Chais en Bordelais,,-0.619537,45.13497
Vins,Coopérative,Blaye Côtes de Bordeaux;Bordeaux Rosé,Châteaux Solidaires (Cave du Blayais),9 Le Piquet,BP 94,33390,CARS,+33 5 57 42 13 15;+33 5 57 42 97 94,www.chateaux-solidaires.com,Vignobles et Chais en Bordelais,,-0.631558,45.129612
Vins,Producteur,Blaye Côtes de Bordeaux;Blaye,Château Chasserat,21 rue du Moulin de Chasserat,,33390,CARTELEGUE,+33 5 57 64 63 14,www.chateau-chasserat.com,Vignobles et Chais en Bordelais,,-0.582435,45.181545
Vins,Producteur,Graves,Château de Castres,Route de Pommarède,,33640,CASTRES-GIRONDE,+33 5 56 67 51 51,www.chateaudecastres.fr,Vignobles et Chais en Bordelais,,-0.46665,44.68326
Vins,Producteur,Graves,Château du Grand Bos,Le Grand Bos,,33640,CASTRES-GIRONDE,+33 5 56 67 39 20,www.vin-grand-bos.com,Vignobles et Chais en Bordelais,,-0.464432,44.677597
Vins,Producteur,Graves,Château Saint Hilaire,SARL Guérin H.G,,33640,CASTRES-GIRONDE,+33 5 56 67 12 12,,Vignobles et Chais en Bordelais,,-0.438963,44.695847
Vins,Producteur,Bordeaux Supérieur;Côtes de Bordeaux Saint-Macaire;Bordeaux Rosé;Bordeaux,Château Gayon,6 Château Gayon,,33490,CAUDROT,+33 5 56 62 81 19,www.chateau-gayon.com;http://chateaugayon.canalblog.com,Vignobles et Chais en Bordelais,,-0.149803,44.584972
Vins,Producteur,Graves;Cérons,Château de Cérons,1 Latour,,33720,CERONS,+33 5 56 27 01 13,www.chateaudecerons.com,Vignobles et Chais en Bordelais,,-0.3335863,44.63514
Vins,Producteur,Graves;Graves Supérieures;Sainte-Croix-du-Mont;Loupiac;Bordeaux;Crémant de Bordeaux,Château de l'Emigré,,,33720,CERONS,+33 5 56 27 25 38,,Vignobles et Chais en Bordelais,,-0.337996,44.631405
Vins,Producteur,Graves;Cérons,Château Huradin,Huradin,,33720,CERONS,+33 5 56 27 09 97,,Vignobles et Chais en Bordelais,,-0.353788,44.630264
Vins,Producteur,Graves;Cérons,Vignobles Uteau,Clos du Barrail,,33720,CERONS,+33 5 56 27 14 38,www.vignoblesuteau.com,Vignobles et Chais en Bordelais,,-0.333548,44.63516
Vins,Producteur,Blaye Côtes de Bordeaux;Côtes de Bourg;Bordeaux Supérieur;Bordeaux;Bordeaux Clairet;Crémant de Bordeaux,Château La Baronnerie,1 La Baronnerie,,33620,CEZAC,+33 5 57 68 12 22,www.labaronnerie.net,Vignobles et Chais en Bordelais,,-0.415906,45.095444
Vins,Producteur,Blaye Côtes de Bordeaux;Bordeaux;Bordeaux Supérieur;Bordeaux Rosé;Crémant de Bordeaux,Château Tayat,Tayat,,33620,CEZAC,+33 5 57 68 62 10,www.chateautayat.com,Vignobles et Chais en Bordelais,,-0.418832,45.090683
Vins,Producteur,Haut-Médoc,Château d'Osmond,36 route des Gûnes,,33250,CISSAC-MEDOC,+33 5 56 59 59 17,www.chateaudosmond.com,Vignobles et Chais en Bordelais,,-0.8389091,45.227028
Vins,Producteur,Haut-Médoc,Château Lamothe-Cissac,Lamothe,,33250,CISSAC-MEDOC,+33 5 56 59 58 16,www.domaines-fabre.fr,Vignobles et Chais en Bordelais,,-0.829983,45.226135
Vins,Producteur,Haut-Médoc,Château Puy Castéra,8 route de castéra,,33250,CISSAC-MEDOC,+33 5 56 59 58 80,www.puycastera.com,Vignobles et Chais en Bordelais,,-0.8016157,45.227543
Vins,Producteur,Médoc,Château Pierre de Montignac,1 route de Montignac,,33340,CIVRAC-EN-MEDOC,+33 5 56 73 59 08;+33 5 56 41 58 93,www.pierre-de-montignac.com,Vignobles et Chais en Bordelais;Bienvenue à la Ferme,,-0.8986473,45.34418
Vins,Producteur,Blaye Côtes de Bordeaux;Bordeaux Clairet,Château Bertinerie,,,33620,CUBNEZAIS,+33 5 57 68 70 74,www.chateaubertinerie.com,Vignobles et Chais en Bordelais,,-0.4131674,45.074505
Vins,Producteur,Bordeaux Supérieur;Bordeaux;Bordeaux Rosé,Château de Terrefort-Quancard,3 Terrefort,BP 50,33240,CUBZAC-LES-PONTS,+33 5 57 43 00 53,www.chateau-terrefort-quancard.com,Vignobles et Chais en Bordelais,,-0.4448604,44.97582
Vins,Producteur,Bordeaux Supérieur;Bordeaux;Bordeaux Clairet,Château Lagrange Les Tours,30 rue de Bernescut,,33240,CUBZAC-LES-PONTS,+33 5 57 43 04 96,www.chateau-lagrange-les-tours.fr,Vignobles et Chais en Bordelais,,-0.425291,44.969524
Vins,Producteur,Haut-Médoc,Château Beaumont,,,33460,CUSSAC-FORT-MEDOC,+33 5 56 58 92 29,www.chateau-beaumont.com,Vignobles et Chais en Bordelais,,-0.7446455,45.108635
Vins,Producteur,Haut-Médoc,Château de Lauga,,,33460,CUSSAC-FORT-MEDOC,+33 5 56 58 92 83,www.lauga.com,Vignobles et Chais en Bordelais,,-0.71365,45.10691
Vins,Producteur,Haut-Médoc,Château du Moulin Rouge,16 rue de Costes,,33460,CUSSAC-FORT-MEDOC,+33 5 56 58 91 13,www.chateaudumoulinrouge.com,Vignobles et Chais en Bordelais,,-0.730296,45.112183
Vins,Producteur,Haut-Médoc,Château Lanessan,,,33460,CUSSAC-FORT-MEDOC,+33 5 56 58 94 80,www.lanessan.com,Vignobles et Chais en Bordelais,Handicap auditif;Handicap mental;Handicap visuel,-0.7527351,45.1361
Vins,Producteur,Haut-Médoc,Château Micalet,10 rue Jeanne d'Arc,,33460,CUSSAC-FORT-MEDOC,+33 5 56 58 95 48,www.chateaumicalet.fr,Vignobles et Chais en Bordelais,,-0.730296,45.112183
Vins,Producteur,Haut-Médoc,Château Tour du Haut Moulin,,,33460,CUSSAC-FORT-MEDOC,+33 5 56 58 91 10,,Vignobles et Chais en Bordelais,,-0.730296,45.112183
Vins,Coopérative,Haut-Médoc,Les Viticulteurs du Fort-Médoc,105 avenue du Haut-Médoc,,33460,CUSSAC-FORT-MEDOC,+33 5 56 58 92 85,www.cave-fort-medoc.fr,Vignobles et Chais en Bordelais,,-0.730296,45.112183
Vins,Producteur,Bordeaux;Côtes de Duras,Château Faurie,Vignoble de Faurie,Faurie 3,33580,DIEULIVOL,+33 5 56 61 67 19,www.chateaufaurie.com,Vignobles et Chais en Bordelais,,0.103294,44.695545
Vins,Coopérative,Bordeaux Supérieur;Bordeaux;Crémant de Bordeaux;Bordeaux Rosé;Entre-deux-Mers,Union de Producteurs Baron d'Espiet,Lieu dit Fourcade,,33420,ESPIET,+33 5 57 24 24 08,www.baron-espiet.com,Vignobles et Chais en Bordelais,,-0.265206,44.786465
Vins,Producteur,Bordeaux Supérieur,Château Picon,Chateau Picon,,33220,EYNESSE,+33 5 57 41 00 19,www.chateau-picon.com,Vignobles et Chais en Bordelais,,0.176919,44.822372
Vins,Producteur,Entre-deux-Mers;Bordeaux;Bordeaux Rosé;Crémant de Bordeaux,Château Chantelouve,,,33760,FALEYRAS,+33 5 57 24 11 87;+33 5 56 23 90 87,www.chateau-chantelouve.com,Vignobles et Chais en Bordelais,,-0.2181816,44.751976
Vins,Producteur,Sauternes,Domaine de Fillau,13 place du Bourg,,33210,FARGUES,+33 5 56 76 89 31,www.domainedefillau.com,Vignobles et Chais en Bordelais,,-0.2973711,44.53539
Vins,Producteur,Blaye Côtes de Bordeaux,Château L'Haur du Chay,25 chemin du Chay,,33390,FOURS,+33 5 57 32 94 43,www.chateau-haur-du-chay.com,Vignobles et Chais en Bordelais,,-0.63244,45.167767
Vins,Producteur,Francs Côtes de Bordeaux,Château Godard-Bellevue - Vignobles Arbo,,,33570,FRANCS,+33 5 57 40 65 77,www.godardbellevue.com,Vignobles et Chais en Bordelais,,-0.0106859,44.93661
Vins,Producteur,Canon-Fronsac;Fronsac;Bordeaux Rosé,Château Barrabaque,Lieu dit Barrabaque,,33126,FRONSAC,+33 5 57 55 09 09,www.chateaubarrabaque.com,Vignobles et Chais en Bordelais,,-0.2843248,44.929844
Vins,Producteur,Canon-Fronsac;Fronsac;Bordeaux Supérieur,Château Belloy - Vignobles Travers,Lieu dit Naudin,BP 1,33126,FRONSAC,+33 5 57 74 92 28,www.vignobles-travers.com,Vignobles et Chais en Bordelais,,-0.3051334,44.93077
Vins,Producteur,Canon-Fronsac;Fronsac;Bordeaux Supérieur;Bordeaux;Bordeaux Rosé,Château Canon Saint Michel,Lamarche,,33126,FRONSAC,+33 6 08 33 81 11,www.vins-millaire.fr,Vignobles et Chais en Bordelais;Bienvenue à la Ferme,,-0.287522,44.923157
Vins,Producteur,Canon-Fronsac;Fronsac,Château Coustolle,,,33126,FRONSAC,+33 5 57 51 31 25,www.chateau-coustolle.com,Vignobles et Chais en Bordelais,,-0.2793252,44.94044
Vins,Producteur,Fronsac,Château de la Dauphine,10 rue Poitevine,,33126,FRONSAC,+33 5 57 74 06 61,www.chateau-dauphine.com,Vignobles et Chais en Bordelais,,-0.2736349,44.92332
Vins,Producteur,Canon-Fronsac,Château Gaby,,,33126,FRONSAC,+33 5 57 51 24 97,www.chateau-dugaby.com,Vignobles et Chais en Bordelais,,-0.2796363,44.93245
Vins,Producteur,Canon-Fronsac;Fronsac;Bordeaux Supérieur,Château Lamarche Canon,,,33126,FRONSAC,+33 5 57 51 28 13,,Vignobles et Chais en Bordelais,,-0.2888202,44.922638
Vins,Producteur,Canon-Fronsac;Fronsac;Bordeaux Rosé,Château Pey Labrie,10-12 lieu dit Pey Labie,,33126,FRONSAC,+33 5 57 25 35 97,www.pey-labrie.fr,Vignobles et Chais en Bordelais,,-0.2845501,44.93312
Vins,Producteur,Fronsac,Château Richelieu,1 chemin du Tertre,,33126,FRONSAC,+33 5 57 51 13 94,www.chateau-richelieu.com,Vignobles et Chais en Bordelais,,-0.270667,44.92376
Vins,Groupements de producteur,Canon-Fronsac;Fronsac,Maison des Vins de Fronsac,Rue du Tertre,,33126,FRONSAC,+33 5 57 51 80 51,www.vins-fronsac.com,Vignobles et Chais en Bordelais,,-0.2705812,44.923405
Vins,Producteur,Médoc;Bordeaux Rosé,Château Gadet-Terrefort,Coudessan,7 route de Vendays,33340,GAILLAN-EN-MEDOC,+33 5 56 41 78 35,www.gadet-terrefort.com,Vignobles et Chais en Bordelais;Bienvenue à la Ferme,,-0.955184,45.324932
Vins,Coopérative,Médoc,Les Vignerons d'Uni-Médoc,14 route de Soulac,,33340,GAILLAN-EN-MEDOC,+33 5 56 41 03 12,www.unimedoc.com,Vignobles et Chais en Bordelais,,-0.955184,45.324932
Vins,Producteur,Fronsac;Bordeaux Supérieur;Bordeaux;Bordeaux Rosé;Crémant de Bordeaux,Château La Croix de Roche,17 route de Marze,,33133,GALGON,+33 5 57 84 38 52,www.vins-maurin-delmas.com,Vignobles et Chais en Bordelais,,-0.2549815,44.976913
Vins,Producteur,Bordeaux Supérieur;Bordeaux Rosé;Crémant de Bordeaux,Château Recougne,,,33133,GALGON,+33 5 57 74 10 84,www.chateau-recougne.fr,Vignobles et Chais en Bordelais,,-0.278182,44.990913
Vins,Producteur,Blaye Côtes de Bordeaux;Bordeaux Clairet;Bordeaux,Château Anglade-Bellevue,Aux Lamberts,,33920,GENERAC,+33 5 57 64 73 28,www.mege-freres.fr,Vignobles et Chais en Bordelais,,-0.50517,45.165665
Vins,Producteur,Bordeaux Supérieur,Château Lecourt Caillet,70 chemin du Moulin de Trillade,,33420,GENISSAC,+33 5 57 24 46 04,www.chateaulecourtcaillet.fr,Vignobles et Chais en Bordelais;Bienvenue à la Ferme,,-0.258297,44.857677
Vins,Producteur,Bordeaux;Bordeaux Supérieur,Château Penin,,,33420,GENISSAC,+33 5 57 24 46 98,www.chateaupenin.com,Vignobles et Chais en Bordelais,,-0.236549,44.871807
Vins,Coopérative,Bordeaux Supérieur;Bordeaux Clairet,S.C.E.A Vignerons de Saint Pey Génissac,180 rue de la Cave Coopérative,,33420,GENISSAC,+33 5 57 55 55 65,,Vignobles et Chais en Bordelais,,-0.258409,44.856316
Vins,Producteur,Sainte-Foy Bordeaux;Bordeaux Supérieur;Bordeaux,Château Tour de Goupin,,,33890,GENSAC,+33 5 57 47 40 76,,Vignobles et Chais en Bordelais,,0.071972,44.801697
Vins,Producteur,Côtes de Bordeaux Saint-Macaire;Bordeaux Rosé;Bordeaux,Château de Bouillerot,,,33190,GIRONDE-SUR-DROPT,+33 5 56 71 46 04,www.bouillerot.com,Vignobles et Chais en Bordelais,,-0.011378,44.57648
Vins,Producteur,Bordeaux,Château Tire Pé,,,33190,GIRONDE-SUR-DROPT,+33 5 56 71 10 09,www.tirepe.com,Vignobles et Chais en Bordelais,,-0.011378,44.57648
Vins,Producteur,Bordeaux Supérieur,Château Féret-Lambert,,,33420,GREZILLAC,+33 5 57 74 93 18,www.feret-labonnelle.com,Vignobles et Chais en Bordelais,,-0.2132463,44.81533
Vins,Producteur,Premières Côtes de Bordeaux;Cadillac;Bordeaux Rosé;Bordeaux,Château Anniche,Anniche 1152,RD 239N,33550,HAUX,+33 5 56 23 05 15,www.anniche-vin.com,Vignobles et Chais en Bordelais,,-0.353177,44.742702
Vins,Producteur,Premières Côtes de Bordeaux;Bordeaux;Bordeaux Clairet;Cadillac,Château Lamothe,159 Lamothe,BP 6,33550,HAUX,+33 5 57 34 53 00,www.chateau-lamothe.com,Vignobles et Chais en Bordelais,,-0.393764,44.728104
Vins,Producteur,Premières Côtes de Bordeaux;Bordeaux Rosé;Crémant de Bordeaux;Bordeaux;Cadillac,Chateau Peneau,Les Faures,,33550,HAUX,+33 5 56 23 05 10;+33 5 56 23 20 20,http://chateaupeneau.free.fr,Vignobles et Chais en Bordelais,,-0.363156,44.727367
Vins,Producteur,Graves;Sauternes,Château d'Archambeau,Archambeau,,33720,ILLATS,+33 6 81 56 42 57,,Vignobles et Chais en Bordelais,,-0.387559,44.583733
Vins,Producteur,Graves,Château Jouvente,Le Bourg,,33720,ILLATS,+33 5 56 62 49 69,http://chateau-jouvente.com,Vignobles et Chais en Bordelais,,-0.373916,44.596615
Vins,Producteur,Médoc,Château Haut-Gravat,5 chemin du clou,,33590,JAU-DIGNAC-ET-LOIRAC,+33 5 56 09 41 20,www.chateau-haut-gravat.fr,Vignobles et Chais en Bordelais,,-0.9567,45.4089
Vins,Producteur,Médoc,Château Listran,,,33340,JAU-DIGNAC-ET-LOIRAC,+33 5 56 09 48 59,www.listran.fr,Vignobles et Chais en Bordelais,,-0.9704446,45.42591
Vins,Producteur,Médoc,Château Noaillac,6 chemin des Sables des Pins,,33590,JAU-DIGNAC-ET-LOIRAC,+33 5 56 09 52 20,www.noaillac.com,Vignobles et Chais en Bordelais,,-0.970626,45.426632
Vins,Producteur,Bordeaux,Château Font-Vidal,La Grange de Font Vidal,,33890,JUILLAC,+33 5 57 40 55 58,http://font-vidal.com,Vignobles et Chais en Bordelais,,0.036687,44.81606
Vins,Producteur,Graves,Château Bichon Cassignols,50 avenue Edouard de Capdeville,,33650,LA BREDE,+33 5 56 20 28 20,www.bichonvins.com,Vignobles et Chais en Bordelais,Handicap mental;Handicap moteur,-0.5320695,44.685474
Vins,Producteur,Graves,Château Haut Reys,18 allée de la Perrucade,,33650,LA BREDE,+33 5 56 20 38 29,www.haut-reys.com,Vignobles et Chais en Bordelais,,-0.5141915,44.684944
Vins,Producteur,Graves,Château Lassalle,2 allée Lassalle,,33650,LA BREDE,+33 5 56 78 49 65,www.chateaulassalle.com,Vignobles et Chais en Bordelais,,-0.5043043,44.670574
Vins,Producteur,Graves,Château Magneau,12 chemin Maxime Ardurats,,33650,LA BREDE,+33 5 56 20 20 57,www.chateau-magneau.com,Vignobles et Chais en Bordelais;Bienvenue à la Ferme,,-0.531273,44.665546
Vins,Producteur,Graves,Château Méric Chante l'Oiseau,16 avenue Georges Hébert,,33650,LA BREDE,+33 5 56 78 45 05,www.chateauxmeric-chanteloiseau.fr,Vignobles et Chais en Bordelais,,-0.521485,44.666866
Vins,Producteur,Bordeaux Supérieur;Bordeaux;Bordeaux Rosé;Crémant de Bordeaux,Château Lagarenne,,,33240,LA LANDE-DE-FRONSAC,+33 5 57 58 14 00,www.merveillaut.fr,Vignobles et Chais en Bordelais,,-0.389451,44.99821
Vins,Producteur,Fronsac;Bordeaux Supérieur;Bordeaux,Château Loiseau,680 chemin du Château Loiseau,,33240,LA LANDE-DE-FRONSAC,+33 5 57 58 14 02,,Vignobles et Chais en Bordelais,,-0.3678596,44.976215
Vins,Producteur,Bordeaux;Bordeaux Rosé;Bordeaux Supérieur,Château Le Bosquet des Fleurs,7 Saint-Aignan Nord,,33190,LA REOLE,+33 5 56 61 41 55,http://chateaulebosquetdesfleurs.perso.sfr.fr/chateau,Vignobles et Chais en Bordelais;Bienvenue à la Ferme,Handicap mental;Handicap moteur;Handicap visuel,-0.0466522,44.600426
Vins,Producteur,Fronsac;Bordeaux Rosé;Bordeaux Clairet;Bordeaux,Château de la Rivière,,,33126,LA RIVIERE,+33 5 57 55 56 56,www.vignobles-gregoire.com,Vignobles et Chais en Bordelais,,-0.3127348,44.947063
Vins,Producteur,Fronsac;Bordeaux,Château Maroy,,,33126,LA RIVIERE,+33 5 57 24 95 26,,Vignobles et Chais en Bordelais,,-0.3145265,44.94284
Vins,Producteur,Fronsac;Bordeaux Supérieur,Château Pipeau Richotey,Domaine Richotey,,33126,LA RIVIERE,+33 5 57 24 95 58,www.pipeau-richotey.com,Vignobles et Chais en Bordelais,,-0.3135716,44.93801
Vins,Producteur,Fronsac;Bordeaux Supérieur,Château Renard Mondésir,,,33126,LA RIVIERE,+33 5 57 24 96 37,www.vignobles-chassagnoux.com,Vignobles et Chais en Bordelais,,-0.3148162,44.940228
Vins,Producteur,Fronsac;Bordeaux Supérieur;Bordeaux Rosé,Château Roumagnac la Maréchale,1 Le Sable,,33126,LA RIVIERE,+33 5 57 24 94 55,,Vignobles et Chais en Bordelais,,-0.3109323,44.93737
Vins,Groupements de producteur,Entre-deux-Mers;Entre-deux-Mers-Haut-Benauge,Maison des Vins de l'Entre-deux-Mers,16 rue de l'Abbaye,,33670,LA SAUVE,+33 5 57 34 32 12,www.vins-entre-deux-mers.com,Vignobles et Chais en Bordelais;Accueil Vélo,,-0.312766,44.7676
Vins,Producteur,Premières Côtes de Bordeaux;Bordeaux Rosé;Bordeaux;Bordeaux Supérieur,Vignobles Latorse,Gabaron,,33670,LA SAUVE,+33 5 56 23 92 76,www.latorse.fr,Vignobles et Chais en Bordelais,,-0.266178,44.733517
Vins,Producteur,Margaux,Château Giscours,,,33460,LABARDE,+33 5 57 97 09 20,www.chateau-giscours.fr,Vignobles et Chais en Bordelais,,-0.644127,45.010433
Vins,Producteur,Margaux;Haut-Médoc;Bordeaux Supérieur,Château Siran,,,33460,LABARDE,+33 5 57 88 34 04,www.chateausiran.com,Vignobles et Chais en Bordelais,,-0.639509,45.015125
Vins,Producteur,Entre-deux-Mers-Haut-Benauge;Bordeaux Haut-Benauge;Bordeaux Rosé;Bordeaux,Château de la Serizière,5 chemin du Bos,,33760,LADAUX,+33 5 56 23 91 75,www.chateaulaseriziere.com,Vignobles et Chais en Bordelais,,-0.243737,44.696712
Vins,Producteur,Lalande-de-Pomerol,Château Bourseau,,,33500,LALANDE-DE-POMEROL,+33 5 57 51 52 39,www.vignoblesgaboriaud.com,Vignobles et Chais en Bordelais,,-0.210543,44.955444
Vins,Producteur,Lalande-de-Pomerol;Bordeaux,Château Castel Viaud,,,33500,LALANDE-DE-POMEROL,+33 5 57 51 47 31,www.chateaucastelviaud.com,Vignobles et Chais en Bordelais,,-0.210858,44.955822
Vins,Producteur,Lalande-de-Pomerol,Château de l'Evêché,Goujon RN 89,,33500,LALANDE-DE-POMEROL,+33 5 57 25 50 12,www.vignobles-chaumet.com,Vignobles et Chais en Bordelais;Bienvenue à la Ferme,,-0.210858,44.955822
Vins,Producteur,Lalande-de-Pomerol,Château des Moines,Musset,,33500,LALANDE-DE-POMEROL,+33 5 57 51 40 41,www.chateaudesmoines.com,Vignobles et Chais en Bordelais,,-0.199103,44.959324
Vins,Producteur,Lalande-de-Pomerol,Château l'Etoile de Salles,3 Pont de Guîtres,,33500,LALANDE-DE-POMEROL,+33 5 57 51 13 53,www.chateau-etoiledesalles.com,Vignobles et Chais en Bordelais,,-0.2306212,44.949
Vins,Producteur,Haut-Médoc,Château Haut-Bellevue,10 chemin des Calinottes,,33460,LAMARQUE,+33 5 56 58 91 64,www.chateauhautbellevue.fr,Vignobles et Chais en Bordelais,,-0.715935,45.096092
Vins,Coopérative,Sainte-Foy Bordeaux;Entre-deux-Mers;Bordeaux;Bordeaux Rosé;Côtes de Duras;Crémant de Bordeaux,Les Vignerons de Landerrouat - Duras - Cazaugitat,4 route des Vignerons,,33790,LANDERROUAT,+33 5 56 61 47 01;+33 5 56 61 31 21,www.berticot.com,Vignobles et Chais en Bordelais,,0.156046,44.7413
Vins,Producteur,Graves;Graves Supérieures;Bordeaux Rosé;Cérons,Château d'Arricaud,,,33720,LANDIRAS,+33 5 56 62 51 29,www.chateau-darricaud.fr,Vignobles et Chais en Bordelais,,-0.393877,44.575764
Vins,Producteur,Graves,Château Saint-Agrèves,17 rue Joachim de Chalup,Lieu dit Artigues,33720,LANDIRAS,+33 5 56 62 50 85,www.chateau-saint-agreves.com,Vignobles et Chais en Bordelais,,-0.39801,44.58027
Vins,Producteur,Graves;Sauternes;Bordeaux;Bordeaux Supérieur,Château Brondelle,,,33210,LANGON,+33 5 56 62 38 14,www.chateaubrondelle.com,Vignobles et Chais en Bordelais,,-0.244681,44.528046
Vins,Producteur,Graves,Château La Croix,route d'Auros,,33210,LANGON,+33 5 56 63 29 36,,Vignobles et Chais en Bordelais,,-0.2308094,44.53952
Vins,Producteur,Graves;Graves Supérieures;Bordeaux Rosé,Château Le Maine Périn,Au Maine,Route d'Auros,33210,LANGON,+33 5 56 62 29 32,www.chateaulemaineperin.com,Bienvenue à la Ferme;Vignobles et Chais en Bordelais,,-0.216077,44.52646
Vins,Producteur,Graves,Château Léhoul,Route d'Auros,,33210,LANGON,+33 5 56 63 54 74,http://chateaulehoul.com,Vignobles et Chais en Bordelais,,-0.228023,44.537655
Vins,Producteur,Graves;Graves Supérieures,Château Les Guillemins,,,33210,LANGON,+33 5 56 63 37 42,www.chateau-guillemins.com,Vignobles et Chais en Bordelais,,-0.2464413,44.537968
Vins,Producteur,Graves,Château Pont de Brion,Ludeman,,33210,LANGON,+33 5 56 63 09 52,www.chateaupontdebrion.com,Vignobles et Chais en Bordelais,,-0.22997,44.550312
Vins,Producteur,Côtes de Bourg,Château Bégot,5 Bégot,,33710,LANSAC,+33 5 57 68 42 14,,Vignobles et Chais en Bordelais,,-0.552223,45.065765
Vins,Producteur,Côtes de Bourg,Château de Taste,La Sablière,,33710,LANSAC,+33 5 57 68 40 34,http://chateaudetaste.free.fr/,Vignobles et Chais en Bordelais,,-0.524867,45.06724
Vins,Producteur,Côtes de Bourg,Château Fougas,,,33710,LANSAC,+33 5 57 68 42 15,www.fougas.com,Vignobles et Chais en Bordelais,,-0.568206,45.060852
Vins,Producteur,Côtes de Bourg;Bordeaux Rosé,Château Guionne,1 Guionne,,33710,LANSAC,+33 5 57 68 42 17,www.chateauguionne.com,Vignobles et Chais en Bordelais,,-0.568206,45.060852
Vins,Producteur,Côtes de Bourg,Château Lamothe,,,33710,LANSAC,+33 5 57 68 41 07,www.chateaulamothe.com,Vignobles et Chais en Bordelais,,-0.529371,45.06526
Vins,Producteur,Côtes de Bourg;Blaye Côtes de Bordeaux;Bordeaux Rosé;Bordeaux,Château Martinat,,,33710,LANSAC,+33 5 57 68 34 98,www.chateau-martinat.com,Vignobles et Chais en Bordelais,,-0.550508,45.063313
Vins,Producteur,Bordeaux,Château La Raballe,1 lieu dit la Raballe,,33620,LAPOUYADE,+33 5 57 49 40 58,http://laraballe.jimdo.com,Vignobles et Chais en Bordelais,,-0.2883052,45.076065
Vins,Producteur,Cadillac Côtes de Bordeaux,Château Pascot,16 chemin du Moulin de Rambal,,33360,LATRESNE,+33 5 56 20 78 19,www.chateaupascot.com,Vignobles et Chais en Bordelais,,-0.490275,44.795692
Vins,Producteur,Haut-Médoc;Margaux,Château de Malleret,Chemin de Malleret,,33290,LE PIAN-MEDOC,+33 5 56 35 05 36,www.chateau-malleret.fr,Vignobles et Chais en Bordelais,,-0.6450605,44.966984
Vins,Producteur,Bordeaux Rosé;Bordeaux;Crémant de Bordeaux,Château La Piolette,EARL La Piolette,,33490,LE PIAN-SUR-GARONNE,+33 5 56 76 41 67,http://lapiolette.fr,Bienvenue à la Ferme;Vignobles et Chais en Bordelais,Handicap mental;Handicap moteur;Handicap visuel,-0.221473,44.597816
Vins,Producteur,Pomerol;Lalande-de-Pomerol;Lussac-Saint-Emilion;Bordeaux Supérieur,Vignobles Rousseau,1 Petit Sorillon,,33230,ABZAC,+33 5 57 49 06 10,www.vignoblesrousseau.com,Vignobles et Chais en Bordelais,,-0.120458,45.003727
Vins,Producteur,Margaux,Château d'Arsac,1 allée du Conte,,33460,ARSAC,+33 5 56 58 83 90,www.chateau-arsac.com,Vignobles et Chais en Bordelais,,-0.701385,44.990467
Vins,Producteur,Margaux,Château du Tertre,14 allée du Tertre,,33460,ARSAC,+33 5 57 88 52 52,www.chateaudutertre.fr,Vignobles et Chais en Bordelais,,-0.6845855,45.0045
Vins,Négociant,Bordeaux;Bordeaux Supérieur;Côtes de Bourg;Castillon Côtes de Bordeaux;Pessac-Léognan;Graves;Haut-Médoc;Médoc;Moulis ou Moulis-en-Médoc;Margaux;Saint-Julien;Pauillac;Saint-Estèphe;Saint-Emilion Grand Cru;Pomerol;Sauternes,La Winery Philippe Raoux,Rond-point des Vendangeurs,Départementale 1,33460,ARSAC,+33 5 56 39 04 90,www.winery.fr,Vignobles et Chais en Bordelais,,-0.727274,44.98532
Vins,Producteur,Bordeaux;Bordeaux Supérieur,Château La Capelle,1 La Capelle,,33500,ARVEYRES,+33 5 57 51 09 35,,Vignobles et Chais en Bordelais,,-0.269441,44.915585
Vins,Coopérative,Bordeaux Supérieur;Bordeaux;Bordeaux Rosé;Bordeaux Clairet,Alliance Bourg (Cave d'Aubie-Espessas),4 rue du Puyfaure,,33240,AUBIE-ET-ESPESSAS,+33 5 57 43 16 07,www.alliancebourg.com,Vignobles et Chais en Bordelais,,-0.3946387,45.015846
Vins,Producteur,Haut-Médoc,Château de Villegeorge,Chemin de la Tuilerie,,33480,AVENSAN,+33 5 57 88 84 23,www.marielaurelurton.com,Vignobles et Chais en Bordelais,,-0.7516202,45.03757
Vins,Producteur,Graves,Château Lusseau,6 route de Lusseau,,33640,AYGUEMORTE-LES-GRAVES,+33 5 56 67 01 67,www.chateaulusseau.com,Vignobles et Chais en Bordelais,,-0.4842352,44.691822
Vins,Producteur,Sauternes,Château Caillou,,,33720,BARSAC,+33 5 56 27 16 38,www.chateaucaillou.com,Vignobles et Chais en Bordelais,,-0.339137,44.59305
Vins,Producteur,Sauternes,Château Closiot,,,33720,BARSAC,+33 5 56 27 05 92,www.closiot.com,Vignobles et Chais en Bordelais,,-0.3216558,44.590523
Vins,Producteur,Barsac;Sauternes,Château Coutet,,,33720,BARSAC,+33 5 56 27 15 46,www.chateaucoutet.com,Vignobles et Chais en Bordelais,,-0.3261566,44.594868
Vins,Producteur,Barsac,Château de Rolland,3 château de Rolland,,33720,BARSAC,+33 5 56 27 15 02,www.chateauderolland.com,Vignobles et Chais en Bordelais,,-0.3084862,44.597435
Vins,Producteur,Sauternes;Barsac,Château Dudon,Dudon,,33720,BARSAC,+33 5 56 27 29 38,www.chateau-dudon.fr,Vignobles et Chais en Bordelais;Bienvenue à la Ferme,,-0.324011,44.59954
Vins,Producteur,Sauternes;Barsac,Château Gravas,,,33720,BARSAC,+33 5 56 27 06 91,www.chateau-gravas.fr,Vignobles et Chais en Bordelais,,-0.331693,44.59305
Vins,Producteur,Barsac;Sauternes;Graves,Château Jany,27 rue de la Gare,,33720,BARSAC,+33 5 56 27 03 26,www.chateaujany.fr,Vignobles et Chais en Bordelais,,-0.3191238,44.603508
Vins,Producteur,Sauternes;Barsac,Château Liot,,,33720,BARSAC,+33 5 56 27 15 31,www.chateauliot.com,Vignobles et Chais en Bordelais,,-0.335021,44.588326
Vins,Producteur,Barsac;Sauternes;Cérons;Graves,Château Piada,1 Château Piada,,33720,BARSAC,+33 5 56 27 16 13,www.chateau-piada.com,Vignobles et Chais en Bordelais,,-0.319458,44.59059
Vins,Producteur,Sauternes;Graves,Château Simon,7 Simon,,33720,BARSAC,+33 5 56 27 15 35,www.chateausimon.fr,Vignobles et Chais en Bordelais,,-0.320933,44.598476
Vins,Producteur,Premières Côtes de Bordeaux;Cadillac;Bordeaux;Bordeaux Clairet;Crémant de Bordeaux,Château Melin-Constantin,595 Constantin,,33880,BAURECH,+33 5 56 21 34 71,www.vignobles-modet.com,Vignobles et Chais en Bordelais,,-0.425787,44.730747
Vins,Producteur,Côtes de Bourg;Bordeaux Rosé,Château Falfas,,,33710,BAYON-SUR-GIRONDE,+33 5 57 64 80 41,www.chateaufalfas.com,Vignobles et Chais en Bordelais,,-0.568206,45.060852
Vins,Producteur,Côtes de Bourg;Bordeaux Clairet,Château Lamblin,25 bis Plisseau,,33710,BAYON-SUR-GIRONDE,+33 5 57 64 96 05,http://chateau-lamblin.com,Vignobles et Chais en Bordelais,,-0.61134,45.05766
Vins,Producteur,Graves,Château Couloumey,12 route des Landes,,33640,BEAUTIRAN,+33 5 56 67 66 65,www.chateau-couloumey.fr,Vignobles et Chais en Bordelais,,-0.461694,44.698105
Vins,Producteur,Graves,Château Le Tuquet,,,33640,BEAUTIRAN,+33 5 56 20 21 23,,Vignobles et Chais en Bordelais,,-0.4737,44.69212
Vins,Producteur,Médoc,Château Garance Haut Grenat,14 route de la Reille,,33340,BEGADAN,+33 5 56 41 37 61,http://garance-haut-grenat.over-blog.com,Vignobles et Chais en Bordelais,,-0.893274,45.356377
Vins,Producteur,Médoc,Château La Tour de By,5 route de la Tour de By,,33340,BEGADAN,+33 5 56 41 50 03,www.latourdeby.com,Vignobles et Chais en Bordelais,,-0.893274,45.356377
Vins,Producteur,Médoc,Château Rollan de By,,,33340,BEGADAN,+33 5 56 41 58 59,www.rollandeby.com,Vignobles et Chais en Bordelais,,-0.893274,45.356377
Vins,Producteur,Médoc,Château Vieux Robin,3 route des Anguilleys,,33340,BEGADAN,+33 5 56 41 50 64,www.chateau-vieux-robin.com,Vignobles et Chais en Bordelais;Bienvenue à la Ferme,Handicap auditif;Handicap mental;Handicap visuel,-0.893274,45.356377
Vins,Coopérative,Médoc,Les Vignerons d'Uni-Médoc / Cave Saint-Jean,2 route de Canissac,,33340,BEGADAN,+33 5 56 41 50 13,www.unimedoc.com,Vignobles et Chais en Bordelais,,-0.893274,45.356377
Vins,Producteur,Bordeaux Rosé;Bordeaux;Graves;Premières Côtes de Bordeaux;Bordeaux Clairet,Château Les Hauts de Palette,4 bis chemin de Palette,,33410,BEGUEY,+33 5 56 62 94 85,www.zebordeaux.com,Vignobles et Chais en Bordelais,,-0.3197939,44.645393
Vins,Producteur,Castillon Côtes de Bordeaux,Château de Castegens,,,33350,BELVES-DE-CASTILLON,+33 5 57 47 96 71,www.castegens.com,Vignobles et Chais en Bordelais,,-0.047323,44.84318
Vins,Producteur,Blaye Côtes de Bordeaux;Bordeaux Rosé,Château Loumède-David,Loumède,,33390,BERSON,+33 5 57 64 31 94,,Vignobles et Chais en Bordelais,,-0.631634,45.15598
Vins,Producteur,Blaye Côtes de Bordeaux;Bordeaux Clairet;Crémant de Bordeaux;Bordeaux Rosé,Château Pinet La Roquette,4 Pinet,,33390,BERSON,+33 5 57 42 64 05,www.pinetlaroquette.fr,Vignobles et Chais en Bordelais,,-0.590931,45.114117
Vins,Producteur,Blaye Côtes de Bordeaux;Bordeaux;Côtes de Bourg;Bordeaux Supérieur;Bordeaux Rosé;Crémant de Bordeaux,Domaine Florimond-la-Brède,,,33390,BERSON,+33 5 57 64 39 07,www.vignobleslouismarinier.com,Vignobles et Chais en Bordelais,,-0.586374,45.108673
Vins,Producteur,Bordeaux Supérieur;Bordeaux Clairet;Bordeaux;Bordeaux Rosé,Château La France,,,33750,BEYCHAC-ET-CAILLAU,+33 5 57 55 24 10,www.chateaulafrance.com,Vignobles et Chais en Bordelais,,-0.371618,44.8706
Vins,Groupements de producteur,Bordeaux;Bordeaux Supérieur;Bordeaux Clairet;Bordeaux Rosé;Crémant de Bordeaux,Planète Bordeaux,1 route de Pasquina,RN 89 - Sortie n°5,33750,BEYCHAC-ET-CAILLAU,+33 5 57 97 19 20;+33 5 56 97 19 38,www.planete-bordeaux.fr,Vignobles et Chais en Bordelais,Handicap mental;Handicap moteur,-0.3998637,44.87473
Vins,Producteur,Bordeaux Supérieur;Bordeaux;Bordeaux Rosé,SCEA Roche,Domaine de la Grave,11 route de Perriche,33750,BEYCHAC-ET-CAILLAU,+33 5 56 72 41 28,www.vignobleroche.com,Bienvenue à la Ferme;Vignobles et Chais en Bordelais,,-0.402981,44.87019
Vins,Producteur,Médoc,Château Tour Haut Caussan,27 bis rue de Verdun,,33340,BLAIGNAN,+33 5 56 09 00 77,www.tourhautcaussan.com,Vignobles et Chais en Bordelais,,-0.880461,45.322388
Vins,Producteur,Haut-Médoc,Château Dillon,Rue Arlot de Saint Saud,,33290,BLANQUEFORT,+33 5 56 95 39 94,www.chateau-dillon.com,Vignobles et Chais en Bordelais,,-0.63761,44.920006
Vins,Producteur,Haut-Médoc,Château Saint Ahon,57 rue Saint Ahon,Caychac,33290,BLANQUEFORT,+33 5 56 35 06 45,www.saintahon.com,Vignobles et Chais en Bordelais;Bienvenue à la Ferme,,-0.630238,44.92436
Vins,Producteur,Bordeaux;Bordeaux Rosé;Bordeaux Supérieur;Entre-deux-Mers;Saint-Emilion,Domaine de Grand Homme,Vignobles Bertrand Benoit,,33540,BLASIMON,+33 5 56 71 84 21,www.domainedegrandhomme.com,Vignobles et Chais en Bordelais,,-0.105477,44.744
Vins,Groupements de producteur,Blaye Côtes de Bordeaux;Côtes de Blaye;Blaye,Maison du Vin de Blaye,11 cours Vauban,,33390,BLAYE,+33 5 57 42 91 19,www.vin-blaye.com,Vignobles et Chais en Bordelais,,-0.663386,45.12678
Vins,Producteur,Sauternes,Château La Tour Blanche,,,33210,BOMMES,+33 5 57 98 02 73,www.tour-blanche.com,Vignobles et Chais en Bordelais,,-0.34803,44.54301
Vins,Producteur,Sauternes,Château Lamourette,,,33210,BOMMES,+33 5 56 76 63 58,,Vignobles et Chais en Bordelais,,-0.259755,44.53664
Vins,Producteur,Sauternes,Clos Haut Peyraguey,,,33210,BOMMES,+33 5 56 76 61 53,www.closhautpeyraguey.com,Vignobles et Chais en Bordelais,,-0.339208,44.545807
Vins,Producteur,Sauternes,Domaine de Carbonnieu,6 Les Chons,,33210,BOMMES,+33 5 56 76 64 48,www.domainedecarbonnieu.com,Vignobles et Chais en Bordelais,,-0.345927,44.56358
Vins,Négociant,Margaux;Saint-Julien;Pauillac;Saint-Estèphe;Haut-Médoc;Médoc;Moulis ou Moulis-en-Médoc;Listrac-Médoc;Pomerol;Lalande-de-Pomerol;Saint-Emilion Grand Cru;Saint-Georges-Saint-Emilion;Graves;Pessac-Léognan;Sauternes,"Millésima, la Cave et l'Ecole du Vin",87 quai de Paludate,,33000,BORDEAUX,+33 5 57 80 88 50,www.millesima.com,Vignobles et Chais en Bordelais,,-0.549454
Vins,Producteur,Côtes de Bourg;Bordeaux Supérieur;Bordeaux Rosé,Château de Croûte,3 route de Croûte,,33710,BOURG,+33 5 57 68 82 86,www.chateau-de-croute.fr,Vignobles et Chais en Bordelais,,-0.545632,45.036343
Vins,Producteur,Côtes de Bourg;Bordeaux Rosé,Château de La Grave,1 La Grave,,33710,BOURG,+33 5 57 68 41 49,www.chateaudelagrave.com,Vignobles et Chais en Bordelais,,-0.560088,45.039734
Vins,Producteur,Côtes de Bourg,Château du Bousquet,,,33710,BOURG,+33 5 57 68 40 53,www.castel-freres.com,Vignobles et Chais en Bordelais,,-0.568206,45.060852
Vins,Producteur,Côtes de Bourg,Château La Croix Davids,57 rue Valentin Bernard,,33710,BOURG,+33 5 57 94 03 94,www.chateau-la-croix-davids.com,Vignobles et Chais en Bordelais,,-0.557992,45.03994
Vins,Groupements de producteur,Côtes de Bourg,Maison des Vins des Côtes de Bourg,1 place de l'Éperon,,33710,BOURG,+33 5 57 94 80 20;+33 5 57 68 22 28,www.cotes-de-bourg.com;www.achat-vins-bordeaux.com,Vignobles et Chais en Bordelais,,-0.5557,45.040703
Vins,Producteur,Graves,Château de Budos,Les Marots,,33720,BUDOS,+33 5 56 62 51 64,www.chateau-de-budos.fr,Vignobles et Chais en Bordelais,,-0.389707,44.537807
Vins,Producteur,Pessac-Léognan,Château Bardins,124 avenue de Toulouse,,33140,CADAUJAC,+33 5 56 30 78 01,http://chateaubardins.fr.gd,Vignobles et Chais en Bordelais,,-0.549467,44.754158
Vins,Producteur,Pessac-Léognan,Château Baulos-Charmes,655 rue Laroche,,33140,CADAUJAC,+33 5 56 30 98 44,www.baulos-charmes.com,Vignobles et Chais en Bordelais,,-0.540568,44.735264
Vins,Producteur,Pessac-Léognan,Château Bouscaut,1477 avenue de Toulouse,,33140,CADAUJAC,+33 5 57 83 12 27,www.chateau-bouscaut.com,Vignobles et Chais en Bordelais,,-0.55068,44.745983
Vins,Groupements de producteur,Premières Côtes de Bordeaux;Cadillac;Cadillac Côtes de Bordeaux,Musée de la vigne et du vin - La Closière,104-106 rue Cazeaux-Cazalet,,33410,CADILLAC,+33 5 57 98 19 20,www.cadillaccotesdebordeaux.com,Vignobles et Chais en Bordelais,,-0.318445,44.63532
Vins,Producteur,Bordeaux;Bordeaux Supérieur;Bordeaux Rosé;Bordeaux Clairet,Château de Camarsac,30 route de Bergerac,,33750,CAMARSAC,+33 9 63 24 16 29,www.camarsac.com,Vignobles et Chais en Bordelais;Bienvenue à la Ferme,,-0.3800879,44.830173
Vins,Producteur,Bordeaux;Bordeaux Clairet;Cadillac Côtes de Bordeaux,Domaine de Saint-Amand,Lieu-dit Saint-Amand,,33880,CAMBES,+33 5 56 74 05 63,www.domainedesaintamand.fr,Vignobles et Chais en Bordelais,Handicap mental;Handicap moteur;Handicap visuel,-0.4575,44.740833
Vins,Producteur,Premières Côtes de Bordeaux;Bordeaux Clairet;Cadillac Côtes de Bordeaux,Château Brethous,28 chemin du Jonc,,33360,CAMBLANES-ET-MEYNAC,+33 5 56 20 77 76,www.brethous.com,Vignobles et Chais en Bordelais,,-0.4747295,44.772392
Vins,Producteur,Premières Côtes de Bordeaux;Bordeaux Rosé,Château Courtade-Dubuc,22 chemin du Jonc,,33360,CAMBLANES-ET-MEYNAC,+33 5 56 20 77 07,www.courtade-dubuc.com,Bienvenue à la Ferme;Vignobles et Chais en Bordelais,,-0.474372,44.77175
Vins,Producteur,Pessac-Léognan,Château de Rouillac,12 chemin du 20 Août 1949,,33610,CANEJAN,+33 5 57 12 84 63,www.chateauderouillac.com,Vignobles et Chais en Bordelais,,-0.660785,44.764133
Vins,Producteur,Margaux,Château Brane-Cantenac,,,33460,CANTENAC,+33 5 57 88 83 33,www.brane-cantenac.com,Vignobles et Chais en Bordelais,,-0.654215,45.02862
Vins,Producteur,Margaux,Château Desmirail,28 avenue de la Vème République,,33460,CANTENAC,+33 5 57 88 34 33,www.desmirail.com,Vignobles et Chais en Bordelais,,-0.654215,45.02862
Vins,Producteur,Margaux,Château Kirwan,,,33460,CANTENAC,+33 5 57 88 71 00,www.chateau-kirwan.com,Vignobles et Chais en Bordelais,,-0.6576347,45.027042
Vins,Producteur,Margaux,Château La Tour de Bessan,Route d'Arsac,,33460,CANTENAC,+33 5 56 58 22 01,www.marielaurelurton.com,Vignobles et Chais en Bordelais,,-0.67932,45.020786
Vins,Producteur,Margaux,Château Prieuré Lichine,34 avenue de la 5ème République,,33460,CANTENAC,+33 5 57 88 36 28,www.prieure-lichine.fr,Vignobles et Chais en Bordelais,,-0.654215,45.02862
Vins,Producteur,Cadillac Côtes de Bordeaux;Cadillac;Bordeaux Clairet;Bordeaux,Château du Grand Mouëys,242 route de Créon,,33550,CAPIAN,+33 5 57 97 04 43,www.grandmoueys.com,Vignobles et Chais en Bordelais,,-0.3444385,44.73454
Vins,Producteur,Premières Côtes de Bordeaux;Entre-deux-Mers;Cadillac;Bordeaux;Bordeaux Rosé,Château Lagrange,,,33550,CAPIAN,+33 5 56 72 15 96,www.vignobleslacoste.fr,Vignobles et Chais en Bordelais,,-0.3277015,44.74783
Vins,Producteur,Premières Côtes de Bordeaux;Cadillac;Bordeaux;Bordeaux Rosé;Crémant de Bordeaux,Château du Payre,13 Le Vic,,33410,CARDAN,+33 5 56 62 60 91,www.chateau-du-payre.fr,Vignobles et Chais en Bordelais;Bienvenue à la Ferme,,-0.3238041,44.67697
Vins,Négociant,Bordeaux,Maison Ginestet,19 avenue de Fontenille,B.P. 4,33360,CARIGNAN-DE-BORDEAUX,+33 5 56 68 81 82,www.ginestet.fr,Vignobles et Chais en Bordelais,,-0.494299,44.80744
Vins,Producteur,Blaye Côtes de Bordeaux;Côtes de Bourg;Bordeaux Rosé;Crémant de Bordeaux;Bordeaux Supérieur,Château Barbé,,,33390,CARS,+33 5 57 64 32 43,www.bayle-carreau.com,Vignobles et Chais en Bordelais,,-0.631634,45.15598
Vins,Producteur,Blaye Côtes de Bordeaux;Bordeaux Rosé,Château Chante Alouette La Roseraie,,,33390,CARS,+33 5 57 64 36 09,www.chantealouette-laroseraie-lerimensac.com,Vignobles et Chais en Bordelais,,-0.631634,45.15598
Vins,Producteur,Sauternes,Château Voigny,70 rue de la République,,33210,PREIGNAC,+33 5 56 63 28 29,www.chateauvoigny.com,Vignobles et Chais en Bordelais,,-0.299353,44.5874
Vins,Producteur,Sauternes;Graves,Clos Dady,Château les Remparts,,33210,PREIGNAC,+33 5 56 62 20 01,www.clos-dady.com,Vignobles et Chais en Bordelais,,-0.32215,44.57055
Vins,Producteur,Côtes de Bourg;Bordeaux;Bordeaux Rosé,Château de la Brunette,1 port d'Espeau,,33710,PRIGNAC-ET-MARCAMPS,+33 5 57 43 58 23,www.chateaudelabrunette.com,Vignobles et Chais en Bordelais,,-0.492572,45.032764
Vins,Coopérative,Côtes de Bourg;Blaye Côtes de Bordeaux;Bordeaux Supérieur;Bordeaux Rosé;Bordeaux;Bordeaux Clairet,Alliance Bourg (Union des Producteurs de Pugnac),18 Bellevue,,33710,PUGNAC,+33 5 57 68 81 01,www.alliancebourg.com,Vignobles et Chais en Bordelais,,-0.495854,45.074406
Vins,Producteur,Puisseguin-Saint-Emilion,Château de Môle,Durand,,33570,PUISSEGUIN,+33 5 57 74 60 86,www.chateau-de-mole.fr,Vignobles et Chais en Bordelais,,-0.0712394,44.93473
Vins,Producteur,Puisseguin-Saint-Emilion,Château de Puisseguin Curat,1 lieu-dit Curat,,33570,PUISSEGUIN,+33 5 57 74 51 06,www.chateau-de-puisseguin-curat-new.fr,Vignobles et Chais en Bordelais,,-0.0691366,44.924156
Vins,Producteur,Puisseguin-Saint-Emilion;Lussac-Saint-Emilion;Castillon Côtes de Bordeaux,Château de Roques,2 Roques,,33570,PUISSEGUIN,+33 5 57 74 69 56,www.scea-chateau-de-roques.com,Vignobles et Chais en Bordelais,,-0.0709819,44.94676
Vins,Producteur,Castillon Côtes de Bordeaux,Château Des Faures,6 Le Faure,,33570,PUISSEGUIN,+33 5 57 40 61 07,www.chateaudesfaures.com,Vignobles et Chais en Bordelais,,-0.0342464,44.94208
Vins,Producteur,Puisseguin-Saint-Emilion;Lussac-Saint-Emilion;Bordeaux Supérieur,Château Durand-Laplagne,,,33570,PUISSEGUIN,+33 5 57 74 63 07,www.durand-laplagne.com,Vignobles et Chais en Bordelais,,-0.0549745,44.94852
Vins,Producteur,Puisseguin-Saint-Emilion;Bordeaux Rosé;Castillon Côtes de Bordeaux,Château Guibeau,,,33570,PUISSEGUIN,+33 5 57 55 22 75,www.vignobleshenribourlon.com,Vignobles et Chais en Bordelais,,-0.0519704,44.942596
Vins,Producteur,Puisseguin-Saint-Emilion,Château Roc de Bernon,Bernon Ouest,,33570,PUISSEGUIN,+33 5 57 74 53 42,www.chateau-roc-de-bernon.com,Vignobles et Chais en Bordelais,,-0.071341,44.933933
Vins,Producteur,Castillon Côtes de Bordeaux,Clos Védélago,10 route de Saint-Emilion,,33570,PUISSEGUIN,+33 6 77 22 11 05,www.clos-vedelago.fr,Vignobles et Chais en Bordelais,,-0.0781702,44.928104
Vins,Coopérative,Puisseguin-Saint-Emilion;Lussac-Saint-Emilion;Castillon Côtes de Bordeaux;Montagne-Saint-Emilion;Bordeaux Supérieur;Bordeaux;Bordeaux Rosé,Les Vignerons de Puisseguin Lussac-Saint-Emilion,Lieu-dit Durand,,33570,PUISSEGUIN,+33 5 57 55 50 40,www.puisseguin-lussac.com,Vignobles et Chais en Bordelais,,-0.069004,44.936077
Vins,Producteur,Sauternes;Graves,Château Cherchy-Commarque,Le Blanc,,33210,PUJOLS-SUR-CIRON,+33 5 57 31 00 89,www.chateaucherchy.com,Vignobles et Chais en Bordelais,,-0.337696,44.577305
Vins,Producteur,Bordeaux Supérieur;Bordeaux;Crémant de Bordeaux,Château Vilatte,5 Vilatte,,33660,PUYNORMAND,+33 5 57 49 77 60,www.chateauvilatte.com,Vignobles et Chais en Bordelais,,0.00447928,44.98395
Vins,Producteur,Médoc,Château Saint-Hilaire,13 route de la Rivière,,33340,QUEYRAC,+33 5 56 59 80 88,www.chateau-st-hilaire.com,Vignobles et Chais en Bordelais,,-0.975818,45.362976
Vins,Coopérative,Médoc,Les Vignerons d'Uni-Médoc / Cave de Saint-Roch,27 Chemin de la Cave,,33340,QUEYRAC,+33 5 56 59 83 36,www.unimedoc.com,Vignobles et Chais en Bordelais,,-0.975818,45.362976
Vins,Coopérative,Bordeaux;Bordeaux Clairet;Bordeaux Rosé;Crémant de Bordeaux;Bordeaux Supérieur;Premières Côtes de Bordeaux,Cave Coopérative de Quinsac,89 Le Pranzac,,33360,QUINSAC,+33 5 56 20 86 09,www.cave-de-quinsac.com,Vignobles et Chais en Bordelais,,-0.4899215,44.74734
Vins,Coopérative,Bordeaux Supérieur;Bordeaux;Bordeaux Rosé;Entre-deux-Mers,Caves de Rauzan et Grangeneuve,,,33420,RAUZAN,+33 5 57 84 13 22,www.cave-de-rauzan.fr,Vignobles et Chais en Bordelais,,-0.203915,44.82699
Vins,Producteur,Entre-deux-Mers;Bordeaux Supérieur;Bordeaux;Bordeaux Rosé,Château de l'Aubrade,,,33580,RIMONS,+33 5 56 71 55 10,http://vinslobre.free.fr,Vignobles et Chais en Bordelais,,0.082404,44.65918
Vins,Producteur,Cadillac Côtes de Bordeaux;Premières Côtes de Bordeaux,Château du Broustaret,Le Truilley,,33410,RIONS,+33 5 56 76 93 15,www.broustaret.net,Vignobles et Chais en Bordelais,,-0.2914861,44.666058
Vins,Producteur,Cadillac;Premières Côtes de Bordeaux,Château Salins,9 chemin des Salins,,33410,RIONS,+33 5 56 62 92 09,http://chateausalins.monsite.wanadoo.fr,Vignobles et Chais en Bordelais,,-0.3482852,44.66262
Vins,Producteur,Graves,Château de Respide,Pavillon de Boyrein,,33210,ROAILLAN,+33 5 56 63 24 24,www.chateau-de-respide.com,Vignobles et Chais en Bordelais,,-0.279035,44.51645
Vins,Coopérative,Bordeaux;Bordeaux Rosé;Bordeaux Supérieur;Entre-deux-Mers;Crémant de Bordeaux;Bordeaux Clairet,Cave de Grangeneuve,Grangeneuve,,33760,ROMAGNE,+33 5 57 34 57 59,www.cavederauzan.com,Vignobles et Chais en Bordelais,,-0.2071753,44.755966
Vins,Producteur,Bordeaux Supérieur;Bordeaux Rosé;Bordeaux,Château Les Maubats,3 Joussaumes Nord,,33580,ROQUEBRUNE,+33 5 56 61 68 36,www.chateau-les-maubats.com,Bienvenue à la Ferme;Vignobles et Chais en Bordelais,Handicap auditif;Handicap mental;Handicap moteur;Handicap visuel,0.001944,44.62849
Vins,Producteur,Bordeaux Clairet;Bordeaux Supérieur;Bordeaux,Château Belrose Moncaillou,Route de Camblanes,174 RD 14,33670,SADIRAC,+33 5 56 30 68 10,www.chateaubelrose-moncaillou.fr,Vignobles et Chais en Bordelais,Handicap mental;Handicap moteur;Handicap visuel,-0.3776234,44.767784
Vins,Producteur,Fronsac;Canon-Fronsac,Château Puy Guilhem,,,33141,SAILLANS,+33 5 57 84 32 08,,Vignobles et Chais en Bordelais,,-0.2719438,44.962006
Vins,Producteur,Fronsac;Bordeaux;Bordeaux Rosé,Château Chadenne,,,33126,SAINT-AIGNAN,+33 5 57 24 93 10,www.chateauchadenne.com,Vignobles et Chais en Bordelais,,-0.3006219,44.94925
Vins,Producteur,Bordeaux Supérieur;Bordeaux;Bordeaux Rosé;Côtes de Bourg,Château Jacquet,185 route de Bourg,,33240,SAINT-ANDRE-DE-CUBZAC,+33 5 57 43 20 71,www.chateau-jacquet.com,Vignobles et Chais en Bordelais,,-0.4561632,44.99598
Vins,Producteur,Bordeaux,Château La Lagune de Mercey,2215 route de Libourne,,33240,SAINT-ANDRE-DE-CUBZAC,+33 5 57 43 93 97,www.chateaulalagunedemercey.com,Vignobles et Chais en Bordelais,,-0.4088008,44.982544
Vins,Producteur,Bordeaux Supérieur;Bordeaux;Bordeaux Rosé,Château L'Insoumise,360 chemin du Peyrot,,33240,SAINT-ANDRE-DE-CUBZAC,+33 5 57 43 17 82,www.chateaulinsoumise.com,Vignobles et Chais en Bordelais,,-0.4654115,45.00118
Vins,Producteur,Bordeaux Supérieur;Bordeaux;Bordeaux Rosé,Château Peneture,505 chemin de l'Estalot,,33240,SAINT-ANDRE-DE-CUBZAC,+33 5 57 43 16 53,,Vignobles et Chais en Bordelais,,-0.437023,44.981033
Vins,Producteur,Bordeaux Supérieur;Bordeaux;Bordeaux Rosé,Château Saincrit,555 chemin du Peuy,,33240,SAINT-ANDRE-DE-CUBZAC,+33 6 07 16 47 53,www.chateau-saincrit.com;www.saincrit.com,Vignobles et Chais en Bordelais,,-0.4553559,45.000694
Vins,Producteur,Côtes de Bordeaux Saint-Macaire;Bordeaux Supérieur;Bordeaux Rosé;Bordeaux,Château Perayne,,,33490,SAINT-ANDRE-DU-BOIS,+33 5 57 98 16 20,www.chateau-perayne.com,Vignobles et Chais en Bordelais;Bienvenue à la Ferme,,-0.1767146,44.607784
Vins,Producteur,Bordeaux;Sainte-Foy Bordeaux,Château Côtes de Caris,Les Caris,,33220,SAINT-ANDRE-ET-APPELLES,+33 5 57 46 42 84,www.cotesdescaris.com,Vignobles et Chais en Bordelais,,0.196326,44.817158
Vins,Producteur,Sainte-Foy Bordeaux;Bordeaux,Château des Chapelains,,,33220,SAINT-ANDRE-ET-APPELLES,+33 5 57 41 21 74,www.chateaudeschapelains.com,Vignobles et Chais en Bordelais,,0.21603584,44.803032
Vins,Producteur,Sainte-Foy Bordeaux;Bordeaux;Bordeaux Clairet,Château Grand Montet,Le Montet,,33220,SAINT-ANDRE-ET-APPELLES,+33 5 57 46 10 23,www.chateaugrandmontet.com,Vignobles et Chais en Bordelais;Bienvenue à la Ferme,,0.192526,44.80685
Vins,Producteur,Blaye Côtes de Bordeaux;Bordeaux,Château Haut Bourcier,Le Coudonneau,,33390,SAINT-ANDRONY,+33 5 57 64 43 74,www.chateau-haut-bourcier.com,Vignobles et Chais en Bordelais,,-0.631634,45.15598
Vins,Producteur,Blaye Côtes de Bordeaux;Crémant de Bordeaux,Château des Tourtes,30 Le Bourg,,33820,SAINT-CAPRAIS-DE-BLAYE,+33 5 57 32 65 15,www.chateau-des-tourtes.com,Vignobles et Chais en Bordelais,,-0.538671,45.310818
Vins,Producteur,Premières Côtes de Bordeaux;Bordeaux Clairet;Bordeaux;Cadillac Côtes de Bordeaux,Château La Gontrie,13 chemin de Fosse Ferrière,,33880,SAINT-CAPRAIS-DE-BORDEAUX,+33 5 56 21 34 21,www.chateaulagontrie.net,Vignobles et Chais en Bordelais,,-0.446668,44.74964
Vins,Producteur,Cadillac;Premières Côtes de Bordeaux;Bordeaux Clairet;Bordeaux,Vignobles Courrèges,31 chemin des Vignes,,33880,SAINT-CAPRAIS-DE-BORDEAUX,+33 5 56 21 06 43,www.vignoblescourreges.fr,Vignobles et Chais en Bordelais,,-0.445553,44.754063
Vins,Producteur,Blaye Côtes de Bordeaux;Côtes de Blaye;Blaye,Château Dubraud,,,33920,SAINT-CHRISTOLY-DE-BLAYE,+33 5 57 42 45 30,www.chateau-dubraud.com,Vignobles et Chais en Bordelais,,-0.508768,45.146923
Vins,Producteur,Côtes de Bourg;Bordeaux;Bordeaux Rosé,Château Le Sablard,7 Le Rioux Creux,,33920,SAINT-CHRISTOLY-DE-BLAYE,+33 5 57 42 57 67,,Vignobles et Chais en Bordelais,,-0.507843,45.130634
Vins,Producteur,Blaye Côtes de Bordeaux;Côtes de Bourg,Château Nodot,2 Ravion,,33920,SAINT-CHRISTOLY-DE-BLAYE,+33 5 57 42 50 38,www.chateaunodot.com,Vignobles et Chais en Bordelais,,-0.507908,45.11811
Vins,Producteur,Médoc,Château Saint Christoly,9 rue du 19 mars 1962,,33340,SAINT-CHRISTOLY-MEDOC,+33 5 56 41 82 01,www.chateaustchristoly.com,Vignobles et Chais en Bordelais;Bienvenue à la Ferme,,-0.824664,45.355904
Vins,Producteur,Médoc,Château Tour Castillon,3 route Fort de Castillon,,33340,SAINT-CHRISTOLY-MEDOC,+33 5 56 41 54 98,www.vignoblespeyruse.com;www.tourcastillon.canalblog.com,Vignobles et Chais en Bordelais,,-0.8119583,45.350624
Vins,Producteur,Saint-Emilion Grand Cru,Château Fombrauge,,,33330,SAINT-CHRISTOPHE-DES-BARDES,05 57 24 77 12,http://www.fombrauge.com,Vignobles et Chais en Bordelais,,-0.142355,44.881958
Vins,Producteur,Saint-Emilion Grand Cru;Saint-Emilion,Château Haut Lavallade,Lavallade,,33330,SAINT-CHRISTOPHE-DES-BARDES,+33 5 57 24 77 47,www.chateau-haut-lavallade.fr,Vignobles et Chais en Bordelais,,-0.120633,44.90296
Vins,Producteur,Saint-Emilion Grand Cru,Château Haut Sarpe,,,33330,SAINT-CHRISTOPHE-DES-BARDES,+33 5 57 51 41 86;+33 5 57 24 70 98,www.josephjanoueix.com/Janoueix-CHATEAU-HAUT-SARPE.html,Vignobles et Chais en Bordelais,,-0.142355,44.881958
Vins,Producteur,Saint-Emilion Grand Cru,Château Lavallade,,,33330,SAINT-CHRISTOPHE-DES-BARDES,+33 5 57 24 77 49,www.chateaulavallade.com,Vignobles et Chais en Bordelais,,-0.1194,44.904682
Vins,Producteur,Saint-Emilion;Saint-Emilion Grand Cru,Château Moulin de Lagnet,1 Larguet,,33330,SAINT-CHRISTOPHE-DES-BARDES,+33 5 57 74 40 06,,Vignobles et Chais en Bordelais,,-0.1319,44.9069
Vins,Producteur,Saint-Emilion,Clos des Moines,2 les Bazilliques,,33330,SAINT-CHRISTOPHE-DES-BARDES,+33 5 57 24 77 02,http://closdesmoines.free.fr/,Vignobles et Chais en Bordelais,,-0.116043,44.89346
Vins,Producteur,Côtes de Bourg;Blaye Côtes de Bordeaux,Château Haut-Guiraud,,,33710,SAINT-CIERS-DE-CANESSE,+33 5 57 64 91 39,www.chateauhautguiraud.com,Vignobles et Chais en Bordelais,,-0.568206,45.060852
Vins,Producteur,Côtes de Bourg,Château La Grolet,,,33710,SAINT-CIERS-DE-CANESSE,+33 5 57 42 11 95,www.vignobles-hubert.com,Vignobles et Chais en Bordelais,,-0.568206,45.060852
Vins,Producteur,Côtes de Bourg;Bordeaux Rosé;Bordeaux Clairet,Château Les Tours Seguy,2 Le Seguy,,33710,SAINT-CIERS-DE-CANESSE,+33 5 57 64 99 57,www.chateau-les-tours-seguy.com,Vignobles et Chais en Bordelais,,-0.605279,45.088562
Vins,Producteur,Côtes de Bourg;Blaye Côtes de Bordeaux,Château Rousselle,Rousselle,,33710,SAINT-CIERS-DE-CANESSE,+33 5 57 42 16 62,www.chateaurousselle.com,Vignobles et Chais en Bordelais,,-0.624109,45.093845
Vins,Producteur,Blaye Côtes de Bordeaux;Bordeaux;Crémant de Bordeaux;Bordeaux Rosé,Château des Matards,27 avenue du Pont de la Grâce,Le Pas d'Ozelle,33820,SAINT-CIERS-SUR-GIRONDE,+33 5 57 32 61 96,www.chateau-des-matards.com,Vignobles et Chais en Bordelais,,-0.634617,45.314636
Vins,Producteur,Blaye Côtes de Bordeaux;Bordeaux Rosé,Château Paty-Claune,Les Renauds,,33820,SAINT-CIERS-SUR-GIRONDE,+33 5 57 32 65 45,www.chateaupatyclaune.fr,Vignobles et Chais en Bordelais,,-0.611014,45.29101
Vins,Producteur,Sainte-Croix-du-Mont;Premières Côtes de Bordeaux;Bordeaux;Bordeaux Rosé,Château Crabitan Bellevue,,,33410,SAINTE-CROIX-DU-MONT,+33 5 56 62 01 53,,Vignobles et Chais en Bordelais,,-0.276075,44.6385
Vins,Producteur,Sainte-Croix-du-Mont;Bordeaux;Bordeaux Rosé,Château des Mailles,7 Vilate Sud,,33410,SAINTE-CROIX-DU-MONT,+33 5 56 62 01 20,http://chateau.des.mailles.monsite-orange.fr,Vignobles et Chais en Bordelais,,-0.281233,44.593414
Vins,Producteur,Sainte-Croix-du-Mont;Bordeaux;Graves;Sauternes,Château du Mont,lieu-dit Pascaud,,33410,SAINTE-CROIX-DU-MONT,+33 5 56 62 07 65,www.chateau-du-mont.com,Vignobles et Chais en Bordelais;Bienvenue à la Ferme,,-0.281233,44.593414
Vins,Producteur,Côtes de Bordeaux Saint-Macaire;Bordeaux;Bordeaux Rosé;Saint-Emilion;Saint-Emilion Grand Cru,Vignobles Michel Bergey,Château Damis,,33490,SAINTE-FOY-LA-LONGUE,+33 5 56 76 41 42,www.vignoblesbergey.com,Vignobles et Chais en Bordelais;Bienvenue à la Ferme,Handicap mental;Handicap moteur;Handicap visuel,-0.144336,44.60995
Vins,Producteur,Saint-Emilion Grand Cru,Château Ambe Tour Pourret,,,33330,SAINT-EMILION,+33 5 57 55 23 28,www.vignobles-lannoye.com,Vignobles et Chais en Bordelais;Bienvenue à la Ferme,,-0.16745,44.90225
Vins,Producteur,Saint-Emilion Grand Cru,Château Balestard La Tonnelle,,,33330,SAINT-EMILION,+33 5 57 74 62 06,www.vignoblescapdemourlin.com,Vignobles et Chais en Bordelais,,-0.146277,44.89959
Vins,Producteur,Saint-Emilion,Château Beaurang,,,33330,SAINT-EMILION,+33 5 57 24 73 31,www.chateau-beaurang.com,Vignobles et Chais en Bordelais,,-0.145417,44.862667
Vins,Producteur,Saint-Emilion Grand Cru,Château Cadet Bon,4 au Cadet,,33330,SAINT-EMILION,+33 5 57 74 43 20,www.cadet-bon.com,Vignobles et Chais en Bordelais,,-0.1528066,44.902393
Vins,Producteur,Saint-Emilion Grand Cru,Château Cantenac,Lieu dit Cantenac,RD 670,33330,SAINT-EMILION,+33 5 57 51 35 22,www.chateau-cantenac.fr,Vignobles et Chais en Bordelais,,-0.200767,44.894447
Vins,Producteur,Saint-Emilion Grand Cru;Saint-Emilion,Château Cardinal Villemaurine,,,33330,SAINT-EMILION,+33 5 57 24 64 40,www.chateaucardinal-villemaurine.fr,Vignobles et Chais en Bordelais,,-0.152483,44.89585
Vins,Producteur,Saint-Emilion Grand Cru,Château Carteau Côtes Daugay,Lieu dit Carteau,,33330,SAINT-EMILION,+33 5 57 24 73 94,www.chateau-carteau.com,Vignobles et Chais en Bordelais,,-0.1799011,44.88744
Vins,Producteur,Saint-Emilion Grand Cru,Château Champion,3 Champion,,33330,SAINT-EMILION,+33 5 57 74 43 98,www.chateau-champion.com,Vignobles et Chais en Bordelais,,-0.136183,44.91005
Vins,Producteur,Saint-Emilion Grand Cru,Château des Laudes,Lieu dit Pineuil,,33330,SAINT-EMILION,+33 6 12 94 15 98,,Vignobles et Chais en Bordelais,,-0.12737,44.89491
Vins,Producteur,Saint-Emilion Grand Cru,Château Fonplégade,,,33330,SAINT-EMILION,+33 5 57 74 43 74,www.fonplegade.com,Vignobles et Chais en Bordelais,,-0.1664257,44.88336
Vins,Producteur,Saint-Emilion Grand Cru,Château Fonrazade,,,33330,SAINT-EMILION,+33 5 57 24 71 58,www.chateau-fonrazade.com,Vignobles et Chais en Bordelais,,-0.177412,44.891087
Vins,Producteur,Saint-Emilion Grand Cru,Château Fonroque,,,33330,SAINT-EMILION,+33 5 57 24 60 02,www.chateaufonroque.com,Bienvenue à la Ferme;Vignobles et Chais en Bordelais,,-0.1608,44.90455
Vins,Producteur,Saint-Emilion Grand Cru,Château Franc Mayne,,,33330,SAINT-EMILION,+33 5 57 24 62 61,www.chateaufrancmayne.com,Vignobles et Chais en Bordelais,,-0.157317,44.90285
Vins,Producteur,Saint-Emilion;Saint-Emilion Grand Cru,Château Franc Pourret,,,33330,SAINT-EMILION,+33 5 57 24 72 29,www.ouzoulias-vins.com,Vignobles et Chais en Bordelais,,-0.1670265,44.90109
Vins,Producteur,Saint-Emilion Grand Cru,Château Guadet,4 rue Guadet,,33330,SAINT-EMILION,+33 5 57 74 40 04,www.chateau-guadet-saintemilion.com,Vignobles et Chais en Bordelais,,-0.155222,44.893368
Vins,Producteur,Saint-Emilion Grand Cru,Château La Fleur Picon,,,33330,SAINT-EMILION,+33 5 57 24 70 60,,Vignobles et Chais en Bordelais,,-0.1673698,44.911
Vins,Producteur,Saint-Emilion Grand Cru,Château La Gaffelière,Lieu dit La Gaffelière,,33330,SAINT-EMILION,+33 5 57 24 72 15,www.chateau-la-gaffeliere.com,Vignobles et Chais en Bordelais,,-0.157417,44.88495
Vins,Producteur,Saint-Emilion Grand Cru,Château La Garelle,3 La Garelle,,33330,SAINT-EMILION,+33 5 57 24 61 98,www.lagarelle.com,Vignobles et Chais en Bordelais,,-0.1472681,44.86954
Vins,Producteur,Saint-Emilion Grand Cru,Château La Grâce Dieu ¿ Les Menuts,,,33330,SAINT-EMILION,+33 5 57 24 73 10,www.lagracedieulesmenuts.com,Vignobles et Chais en Bordelais,,-0.142355,44.881958
Vins,Producteur,Saint-Emilion Grand Cru,Château La Tour du Pin Figeac,Lieu dit Cheval Blanc Ouest,,33330,SAINT-EMILION,+33 5 57 51 06 10,www.vins-giraud-belivier.com,Vignobles et Chais en Bordelais,,-0.193933,44.92075
Vins,Producteur,Saint-Emilion Grand Cru,Château Laniote,La Niotte,,33330,SAINT-EMILION,+33 5 57 24 70 80,www.laniote.com,Vignobles et Chais en Bordelais,,-0.1606,44.904415
Vins,Producteur,Saint-Emilion Grand Cru,Château Le Prieuré,,,33330,SAINT-EMILION,+33 5 57 51 65 20,www.baronneguichard.com,Vignobles et Chais en Bordelais,,-0.173244,44.94235
Vins,Producteur,Saint-Emilion Grand Cru,Château Mauvezin,Lieu dit Peyrelongue,,33330,SAINT-EMILION,+33 5 57 24 72 36,www.chateau.mauvezin.com,Vignobles et Chais en Bordelais,,-0.147167,44.878418
Vins,Producteur,Saint-Emilion Grand Cru,Château Patris,,,33330,SAINT-EMILION,+33 5 57 55 19 60,www.chateau-patris.com,Vignobles et Chais en Bordelais,,-0.142355,44.881958
Vins,Producteur,Saint-Emilion Grand Cru,Château Saint-Esprit,La Rose,,33330,SAINT-EMILION,+33 5 57 74 41 53,http://chateausaintesprit.jimdo.com/,Vignobles et Chais en Bordelais,,-0.15075,44.908833
Vins,Producteur,Saint-Emilion Grand Cru,Château Soutard,BP 4,,33330,SAINT-EMILION,+33 5 57 24 32 36,www.chateau-soutard.com,Vignobles et Chais en Bordelais,,-0.155729,44.894386
Vins,Producteur,Saint-Emilion Grand Cru,Château Trimoulet,,,33330,SAINT-EMILION,+33 5 57 24 70 56,www.chateautrimoulet.com,Vignobles et Chais en Bordelais,,-0.155729,44.894386
Vins,Producteur,Saint-Emilion Grand Cru,Château Vieux Larmande,,,33330,SAINT-EMILION,+33 5 57 24 60 49,www.vignobles-magnaudeix.com,Vignobles et Chais en Bordelais,,-0.161167,44.903233
Vins,Producteur,Saint-Emilion Grand Cru,Château Villemaurine,,,33330,SAINT-EMILION,+33 5 57 74 74 36,www.villemaurine.com,Vignobles et Chais en Bordelais,,-0.1537,44.89555
Vins,Producteur,Saint-Emilion,Clos des Prince,,,33330,SAINT-EMILION,+33 5 57 84 64 14,www.chateau-closdesprince.fr,Vignobles et Chais en Bordelais,,-0.155729,44.894386
Vins,Coopérative,Saint-Emilion Grand Cru;Saint-Emilion,Union de Producteurs de Saint-Emilion,lieu dit Haut-Gravet,,33330,SAINT-EMILION,+33 5 57 24 70 71,www.udpse.com,Vignobles et Chais en Bordelais,,-0.1664,44.88297
Vins,Producteur,Bordeaux;Entre-deux-Mers,Château Le Sèpe,1 Le Sèpe,,33350,SAINTE-RADEGONDE,+33 6 86 90 88 18,www.chateaulesepe.com,Vignobles et Chais en Bordelais,,0.015302,44.805996
Vins,Producteur,Saint-Estèphe,Château Haut Coteau,,,33180,SAINT-ESTEPHE,+33 5 56 59 39 84,www.chateauhautcoteau.com,Vignobles et Chais en Bordelais,,-0.771776,45.26475
Vins,Producteur,Saint-Estèphe,Château La Haye,1 route de Saint-Affrique,Leyssac,33180,SAINT-ESTEPHE,+33 5 56 59 32 18,www.chateaulahaye.com,Vignobles et Chais en Bordelais,,-0.777111,45.253864
Vins,Producteur,Saint-Estèphe,Château La Peyre,Leyssac,25 chemin de Saint-Afrique,33180,SAINT-ESTEPHE,+33 5 56 59 32 51,www.chateaulapeyre.fr,Vignobles et Chais en Bordelais,,-0.771776,45.26475
Vins,Producteur,Saint-Estèphe,Château Lafon-Rochet,,,33180,SAINT-ESTEPHE,+33 5 56 59 32 06,www.lafon-rochet.com,Vignobles et Chais en Bordelais,,-0.7883119,45.229343
Vins,Producteur,Saint-Estèphe,Château Pomys,Leyssac,Route de Poumeys,33180,SAINT-ESTEPHE,+33 5 56 59 32 26,www.chateaupomys.com,Vignobles et Chais en Bordelais,,-0.7899856,45.24202
Vins,Producteur,Saint-Estèphe,Château Tour des Termes,2 rue Pigeonnier,Saint-Corbian,33180,SAINT-ESTEPHE,+33 5 56 59 32 89,www.chateautourdestermes.com,Vignobles et Chais en Bordelais,,-0.7889556,45.267395
Vins,Producteur,Saint-Emilion Grand Cru;Pomerol;Bordeaux,Vignobles Mouty,7 route de Merlande,,33350,SAINTE-TERRE,+33 5 57 84 55 88,www.vignobles-mouty.com,Vignobles et Chais en Bordelais,,-0.1405048,44.833656
Vins,Producteur,Saint-Emilion Grand Cru,Château Bernateau,,,33330,SAINT-ETIENNE-DE-LISSE,+33 5 57 40 18 19,www.chateaubernateau.com,Vignobles et Chais en Bordelais,,-0.10195,44.881035
Vins,Producteur,Saint-Emilion Grand Cru,Château de Pressac,,,33330,SAINT-ETIENNE-DE-LISSE,+33 5 57 40 16 80,www.chateau-de-pressac.com,Vignobles et Chais en Bordelais,Handicap auditif;Handicap mental,,
Vins,Producteur,Saint-Emilion Grand Cru,Château Faugères,,,33330,SAINT-ETIENNE-DE-LISSE,+33 5 57 40 34 99,www.chateau-faugeres.com,Vignobles et Chais en Bordelais,,-0.142355,44.881958
Vins,Producteur,Saint-Emilion Grand Cru,Château Haut Veyrac,,,33330,SAINT-ETIENNE-DE-LISSE,+33 5 57 40 02 26,www.chateau-haut-veyrac.com,Vignobles et Chais en Bordelais,,-0.093567,44.8885
Vins,Producteur,Saint-Emilion Grand Cru,Château Mangot,,,33330,SAINT-ETIENNE-DE-LISSE,+33 5 57 40 18 23,www.chateaumangot.fr,Vignobles et Chais en Bordelais,,-0.079617,44.884632
Vins,Producteur,Blaye Côtes de Bordeaux;Bordeaux;Crémant de Bordeaux,Château Segonzac,39 Segonzac,,33390,SAINT-GENES-DE-BLAYE,+33 5 57 42 18 16,www.chateau-segonzac.com,Vignobles et Chais en Bordelais,,-0.653325,45.154423
Vins,Producteur,Cadillac;Premières Côtes de Bordeaux;Bordeaux Rosé;Bordeaux,Château Génisson,,,33490,SAINT-GERMAIN-DE-GRAVE,+33 5 56 76 41 01,www.chateau-genisson.com,Vignobles et Chais en Bordelais,,-0.2277517,44.63177
Vins,Producteur,Premières Côtes de Bordeaux;Bordeaux;Bordeaux Rosé;Crémant de Bordeaux,Domaine du Cheval Blanc,,,33490,SAINT-GERMAIN-DE-GRAVE,+33 5 56 23 94 76,www.domaine-du-cheval-blanc.com,Vignobles et Chais en Bordelais;Bienvenue à la Ferme,Handicap mental;Handicap moteur;Handicap visuel,-0.2338725,44.64259
Vins,Producteur,Bordeaux Supérieur;Bordeaux,Château Baulos La Vergne,Route de la Dordogne,,33240,SAINT-GERMAIN-DE-LA-RIVIERE,+33 5 57 84 46 01,www.vin2bordeaux.com,Vignobles et Chais en Bordelais,,-0.335591,44.938725
Vins,Producteur,Médoc,Château Castéra,,,33340,SAINT-GERMAIN-D'ESTEUIL,+33 5 56 73 20 60,www.chateau-castera.com,Vignobles et Chais en Bordelais,,-0.865815,45.28941
Vins,Producteur,Graves de Vayres,Château du Petit Puch,3 chemin du Petit Puch,,33750,SAINT-GERMAIN-DU-PUCH,+33 5 57 24 52 36,www.chateaupetitpuch.com,Vignobles et Chais en Bordelais,,-0.330448,44.845078
Vins,Producteur,Bordeaux Supérieur;Bordeaux;Bordeaux Clairet;Bordeaux Rosé;Entre-deux-Mers,Château Lestrille,15 route de Créon,,33750,SAINT-GERMAIN-DU-PUCH,+33 5 57 24 51 02,www.lestrille.com,Vignobles et Chais en Bordelais,,-0.3255624,44.851986
Vins,Producteur,Bordeaux Supérieur;Bordeaux;Bordeaux Rosé;Bordeaux Clairet,Château des Arras,BP 18,,33240,SAINT-GERVAIS,+33 5 57 43 00 35,www.chateaudesarras.fr,Vignobles et Chais en Bordelais,,-0.4622733,45.021755
Vins,Producteur,Bordeaux Supérieur;Bordeaux Rosé;Côtes de Bourg;Blaye Côtes de Bordeaux,Domaine de Cantemerle,9 rue de Cantemerle,,33240,SAINT-GERVAIS,+33 6 09 72 32 87,www.domaine-cantemerle.com,Vignobles et Chais en Bordelais,,-0.4777657,45.016228
Vins,Producteur,Bordeaux;Crémant de Bordeaux,Maison Rémy Brèque,8 rue du Commandant Cousteau,,33240,SAINT-GERVAIS,+33 5 57 43 10 42,www.remy-breque.com,Vignobles et Chais en Bordelais,,-0.4649206,45.025723
Vins,Producteur,Blaye Côtes de Bordeaux,Château Le Virou,,,33920,SAINT-GIRONS-D'AIGUEVIVES,+33 5 57 43 43 82,www.chateau-le-virou.com,Vignobles et Chais en Bordelais,,-0.4794,45.148445
Vins,Producteur,Saint-Emilion Grand Cru,Château de Ferrand,,,33330,SAINT-HIPPOLYTE,+33 5 5 57 74 47 11,www.chateaudeferrand.com,Vignobles et Chais en Bordelais,Handicap mental;Handicap moteur,-0.118554,44.883698
Vins,Producteur,Saint-Emilion Grand Cru,Château Monlot,Lieu dit Au Comté,,33330,SAINT-HIPPOLYTE,+33 5 57 74 49 47,www.chateaumonlot.com,Vignobles et Chais en Bordelais,,-0.129483,44.872635
Vins,Producteur,Bordeaux Supérieur;Bordeaux;Bordeaux Rosé;Crémant de Bordeaux;Côtes de Bergerac;Bergerac,Château de Bonhoste,Bonhoste,,33420,SAINT-JEAN-DE-BLAIGNAC,+33 5 57 84 12 18,www.chateaudebonhoste.com,Vignobles et Chais en Bordelais;Bienvenue à la Ferme,Handicap mental;Handicap moteur;Handicap visuel,-0.124997,44.80184
Vins,Producteur,Saint-Julien,Château Beychevelle,,,33250,SAINT-JULIEN-BEYCHEVELLE,+33 5 56 73 20 70;+33 5 56 73 38 01,www.beychevelle.com,Vignobles et Chais en Bordelais,,-0.7360732,45.145657
Vins,Producteur,Saint-Julien,Château Branaire-Ducru,,,33250,SAINT-JULIEN-BEYCHEVELLE,+33 5 56 59 25 86,www.branaire.com,Vignobles et Chais en Bordelais,,-0.7367706,45.14488
Vins,Producteur,Saint-Julien,Château Gruaud Larose,,,33250,SAINT-JULIEN-BEYCHEVELLE,+33 5 56 73 89 43,www.gruaud-larose.com,Vignobles et Chais en Bordelais,,-0.74085,45.165882
Vins,Producteur,Saint-Julien,Château La Bridane,,,33250,SAINT-JULIEN-BEYCHEVELLE,+33 5 56 59 91 70,www.vignobles-saintout.com,Vignobles et Chais en Bordelais,,-0.7430148,45.166744
Vins,Producteur,Bordeaux Supérieur;Bordeaux;Crémant de Bordeaux;Côtes de Bourg,Château de L'Hurbe,27 route de l'Hurbe,,33240,SAINT-LAURENT-D'ARCE,+33 5 57 43 44 06,www.chateaudelhurbe.fr,Vignobles et Chais en Bordelais,,-0.4791069,45.03726
Vins,Producteur,Entre-deux-Mers;Bordeaux Supérieur;Bordeaux;Bordeaux Rosé;Bordeaux Clairet,Vignobles Chaigne et Fils,Château Ballan Larquette,,33540,SAINT-LAURENT-DU-BOIS,+33 5 56 76 46 02,www.chaigne.fr,Vignobles et Chais en Bordelais,,-0.1464915,44.644623
Vins,Producteur,Haut-Médoc,Château Balac,,,33112,SAINT-LAURENT-MEDOC,+33 5 56 59 41 76,www.chateaubalac.com,Vignobles et Chais en Bordelais,,-0.833019,45.170708
Vins,Producteur,Haut-Médoc,Château Devise d'Ardilley,,,33112,SAINT-LAURENT-MEDOC,+33 5 57 75 14 26,www.chateaudevisedardilley.com,Vignobles et Chais en Bordelais,,-0.8241462,45.157288
Vins,Producteur,Bordeaux Clairet;Entre-deux-Mers;Bordeaux Supérieur,Château de Castelneau,Route de Blésignac,,33670,SAINT-LEON,+33 5 56 23 47 01,www.chateaucastelneau.com,Vignobles et Chais en Bordelais,,-0.2756458,44.77397
Vins,Producteur,Graves;Bordeaux,Château Saint Loubert,1 le Carpe Nord,,33210,SAINT-LOUBERT,+33 5 56 62 73 02,,Vignobles et Chais en Bordelais,,-0.176521,44.553013
Vins,Producteur,Bordeaux Supérieur;Bordeaux Rosé;Bordeaux,Château La Lande Saint Jean,10 chemin de Terrefort,Le Bayle,33450,SAINT-LOUBES,+33 5 56 38 00 06,www.chateau-lalande-stjean.blogspot.com,Bienvenue à la Ferme;Vignobles et Chais en Bordelais,,-0.451773,44.905556
Vins,Producteur,Castillon Côtes de Bordeaux,Château Blanzac,22 route de Coutras,,33350,SAINT-MAGNE-DE-CASTILLON,+33 6 85 54 16 04,,Vignobles et Chais en Bordelais,,-0.063362,44.863945
Vins,Producteur,Castillon Côtes de Bordeaux,Château Cafol,116 avenue du stade,,33350,SAINT-MAGNE-DE-CASTILLON,+33 5 57 40 20 54,www.chateaucafol.com,Vignobles et Chais en Bordelais,,-0.0853088,44.842987
Vins,Producteur,Castillon Côtes de Bordeaux,Château Fontbaude,34 rue de l'église,,33350,SAINT-MAGNE-DE-CASTILLON,+33 5 57 40 06 58,www.chateau-fontbaude.fr,Vignobles et Chais en Bordelais,,-0.063362,44.863945
Vins,Producteur,Castillon Côtes de Bordeaux,Château Franc La Fleur,17 route du stade,,33350,SAINT-MAGNE-DE-CASTILLON,+33 5 57 40 42 14,,Vignobles et Chais en Bordelais,,-0.063362,44.863945
Vins,Producteur,Loupiac;Cadillac;Premières Côtes de Bordeaux;Bordeaux;Bordeaux Rosé,Château Mémoires,,,33490,SAINT-MAIXANT,+33 5 56 62 06 43,,Vignobles et Chais en Bordelais,,-0.199711,44.60295
Vins,Producteur,Blaye Côtes de Bordeaux;Bordeaux Rosé,Château Haut-Terrier,181 avenue Marc Datus,,33620,SAINT-MARIENS,+33 5 57 68 53 54,www.chateau-haut-terrier.com,Bienvenue à la Ferme;Vignobles et Chais en Bordelais,,-0.404406,45.11686
Vins,Producteur,Blaye Côtes de Bordeaux;Bordeaux;Bordeaux Rosé;Crémant de Bordeaux,Domaine des Graves d'Ardonneau,Ardonneau,,33620,SAINT-MARIENS,+33 5 57 68 66 98;+33 5 57 68 18 94,www.gravesdardonneau.com,Vignobles et Chais en Bordelais,,-0.424288,45.123714
Vins,Producteur,Bordeaux Supérieur,Château Malfard,1 Malfard,,33910,SAINT-MARTIN-DE-LAYE,+33 5 57 84 74 88,www.chateau-malfard.com,Vignobles et Chais en Bordelais,,-0.236262,45.013947
Vins,Producteur,Premières Côtes de Bordeaux;Cadillac;Bordeaux,Château Moulin de Corneil,,,33490,LE PIAN-SUR-GARONNE,+33 5 56 76 44 26,www.moulin-de-corneil.com,Vignobles et Chais en Bordelais,,-0.2057039,44.591743
Vins,Producteur,Entre-deux-Mers;Bordeaux Supérieur;Bordeaux Rosé,Château La Tuilerie du Puy,7 les Tuilières,,33580,LE PUY,+33 5 56 61 61 92,http://tuileriedupuy.com/,Vignobles et Chais en Bordelais,,0.082404,44.65918
Vins,Producteur,Haut-Médoc,Château du Taillan,56 avenue de la Croix,,33320,LE TAILLAN-MEDOC,+33 5 56 57 47 00,www.chateaudutaillan.com,Vignobles et Chais en Bordelais,,-0.664503,44.90682
Vins,Producteur,Graves;Graves Supérieures,Domaine de la Chouette,La Bernède,,33210,LEOGEATS,+33 5 56 76 62 54,www.domainedelachouette.fr,Vignobles et Chais en Bordelais,,-0.35401,44.50359
Vins,Producteur,Pessac-Léognan,Château Brown,allée John Lewis Brown,,33850,LEOGNAN,+33 5 56 87 08 10,www.chateau-brown.fr,Vignobles et Chais en Bordelais,,-0.58802,44.756866
Vins,Producteur,Pessac-Léognan,Château Carbonnieux,,,33850,LEOGNAN,+33 5 57 96 56 20,www.carbonnieux.com,Vignobles et Chais en Bordelais,,-0.566382,44.745277
Vins,Producteur,Pessac-Léognan,Château de France,98 route de Mont de Marsan,,33850,LEOGNAN,+33 5 56 64 75 39,www.chateau-de-france.com,Vignobles et Chais en Bordelais,,-0.605013,44.71609
Vins,Producteur,Pessac-Léognan,Château Haut-Bailly,103 route de Cadaujac,,33850,LEOGNAN,+33 5 56 64 75 11,www.chateau-haut-bailly.com,Vignobles et Chais en Bordelais,Handicap mental;Handicap visuel,-0.588802,44.733658
Vins,Producteur,Pessac-Léognan,Château Haut-Lagrange,89 avenue de La Brède,,33850,LEOGNAN,+33 5 56 64 09 93,www.hautlagrange.com,Vignobles et Chais en Bordelais,,-0.577218,44.72423
Vins,Producteur,Pessac-Léognan,Château La Louvière,149 avenue de Cadaujac,,33850,LEOGNAN,+33 5 56 64 75 87,www.andrelurton.com,Vignobles et Chais en Bordelais,,-0.57879,44.737427
Vins,Producteur,Pessac-Léognan,Château Larrivet Haut-Brion,84 avenue de Cadaujac,,33850,LEOGNAN,+33 5 56 64 99 87,www.larrivethautbrion.fr,Vignobles et Chais en Bordelais,,-0.585288,44.731243
Vins,Producteur,Pessac-Léognan,Château Le Thil Comte Clary,35 chemin le Thil,,33850,LEOGNAN,+33 5 57 83 11 22,www.smith-haut-lafitte.com,Vignobles et Chais en Bordelais,,-0.567931,44.737347
Vins,Producteur,Pessac-Léognan,Château Malartic-Lagravière,43 avenue de Mont de Marsan,,33850,LEOGNAN,+33 5 56 64 75 08,www.malartic-lagraviere.com,Vignobles et Chais en Bordelais,,-0.5989765,44.725266
Vins,Producteur,Pessac-Léognan,Château Pont Saint-Martin,14-16 avenue de Mont de Marsan,,33850,LEOGNAN,+33 5 56 64 17 15,www.chateaupontsaintmartin.com,Vignobles et Chais en Bordelais,,-0.600837,44.72421
Vins,Producteur,Pessac-Léognan,Domaine de Grandmaison,182 avenue de la Duragne,,33850,LEOGNAN,+33 5 56 64 75 37,www.domaine-de-grandmaison.fr,Vignobles et Chais en Bordelais,,-0.588008,44.748287
Vins,Producteur,Lussac-Saint-Emilion;Bordeaux Supérieur;Montagne-Saint-Emilion,Château Canon La Forêt - Vignobles Mio et Fils,455 route de la Forêt,,33570,LES ARTIGUES-DE-LUSSAC,+33 5 57 24 37 91,,Vignobles et Chais en Bordelais,,-0.083435,44.95231
Vins,Coopérative,Sainte-Foy Bordeaux;Bordeaux;Bordeaux Supérieur,Univitis en Bordeaux,BP 50,,33220,LES LEVES-ET-THOUMEYRAGUES,+33 5 57 56 02 32,www.terroirs-vins.com,Vignobles et Chais en Bordelais,,0.174919,44.793102
Vins,Producteur,Médoc,Château Les Marceaux,38 chemin des Carrières,,33340,LESPARRE-MEDOC,+33 5 56 41 27 90,www.chateau-les-marceaux.com,Vignobles et Chais en Bordelais;Bienvenue à la Ferme,,-0.896082,45.292667
Vins,Producteur,Pomerol,Château Bonalgue,28 rue Bonalgue,,33500,LIBOURNE,+33 5 57 51 62 17,www.vignoblesbourotte.com,Vignobles et Chais en Bordelais,,-0.2266982,44.926105
Vins,Producteur,Pomerol,Château de Sales,Chemin de Sales,,33500,LIBOURNE,+33 5 57 51 04 92,www.chateau-de-sales.com,Vignobles et Chais en Bordelais,,-0.22831,44.948032
Vins,Producteur,Pomerol,Château du Tailhas,195 route de Saint-Emilion,,33500,LIBOURNE,+33 5 57 51 26 02,www.tailhas.com,Vignobles et Chais en Bordelais,,-0.209856,44.91103
Vins,Producteur,Saint-Emilion Grand Cru,Château Gueyrosse,24 Chemin de Gueyrosse,,33500,LIBOURNE,+33 5 57 51 02 63,www.vignobles-yves-delol.fr,Vignobles et Chais en Bordelais,,-0.217474,44.897167
Vins,Producteur,Saint-Emilion Grand Cru,Château L'Epine,74 route de Saint-Emilion,,33500,LIBOURNE,+33 5 57 51 07 75,www.chateaulepine.com,Vignobles et Chais en Bordelais,,-0.2283525,44.91273
Vins,Producteur,Pomerol,Château Mazeyres,56 avenue Georges Pompidou,,33500,LIBOURNE,+33 5 57 51 00 48,www.mazeyres.com,Vignobles et Chais en Bordelais,,-0.2379091,44.93209
Vins,Producteur,Bordeaux Supérieur;Sainte-Foy Bordeaux,Château Couronneau,Couronneau,,33220,LIGUEUX,+33 5 57 41 26 55,www.chateau-couronneau.fr,Vignobles et Chais en Bordelais,,0.26414394,44.7907
Vins,Producteur,Bordeaux Supérieur;Bordeaux Clairet,Château de Parenchère,Parenchère - BP 57,,33220,LIGUEUX,+33 5 57 46 04 17,www.parenchere.com,Vignobles et Chais en Bordelais,,0.26538848,44.80206
Vins,Coopérative,Listrac-Médoc;Haut-Médoc;Moulis ou Moulis-en-Médoc,Cave de Vinification Grand Listrac,21 avenue de Soulac,,33480,LISTRAC-MEDOC,+33 5 56 58 03 19,www.cave-listrac-medoc.com,Vignobles et Chais en Bordelais,,-0.790188,45.0751
Vins,Producteur,Listrac-Médoc;Haut-Médoc,Château Cap Léon Veyrin,54 route de Donissan,,33480,LISTRAC-MEDOC,+33 5 56 58 07 28,www.vignobles-meyre.com,Vignobles et Chais en Bordelais;Bienvenue à la Ferme,,-0.790188,45.0751
Vins,Producteur,Listrac-Médoc,Château Fonréaud,,,33480,LISTRAC-MEDOC,+33 5 56 58 02 43,www.chateau-fonreaud.com,Vignobles et Chais en Bordelais,,-0.796792,45.058285
Vins,Producteur,Listrac-Médoc,Château Fourcas Dupré,,,33480,LISTRAC-MEDOC,+33 5 56 58 01 07,www.fourcasdupre.com,Vignobles et Chais en Bordelais,,-0.790188,45.0751
Vins,Producteur,Listrac-Médoc,Château Lalande,15 route du Mayne de Lalande,,33480,LISTRAC-MEDOC,+33 5 56 58 19 45,http://chateaulalande.fr,Vignobles et Chais en Bordelais,,-0.790188,45.0751
Vins,Producteur,Listrac-Médoc,Château Liouner,10 route de Benon,Libardac,33480,LISTRAC-MEDOC,+33 5 56 58 05 62,www.chateauliouner.fr,Vignobles et Chais en Bordelais;Bienvenue à la Ferme,,-0.790188,45.0751
Vins,Producteur,Listrac-Médoc,Château Mayne Lalande,7 route du Mayne,,33480,LISTRAC-MEDOC,+33 5 56 58 27 63,www.chateau-mayne-lalande.com,Vignobles et Chais en Bordelais,,-0.790188,45.0751
Vins,Producteur,Listrac-Médoc,Château Reverdi - Vignobles Thomas,11 route de Donissan,,33480,LISTRAC-MEDOC,+33 5 56 58 02 25,www.chateaureverdi.fr,Vignobles et Chais en Bordelais,,-0.790188,45.0751
Vins,Producteur,Listrac-Médoc;Moulis ou Moulis-en-Médoc,Vignobles Jander,41 avenue de Soulac,,33480,LISTRAC-MEDOC,+33 5 56 58 01 12,www.vignoble-jander.com,Vignobles et Chais en Bordelais,,-0.790188,45.0751
Vins,Producteur,Bordeaux Supérieur;Bordeaux,Château La Guillaumette,21 route de Créon,,33370,LOUPES,+33 5 56 72 48 93,www.chateau-la-guillaumette.com,Bienvenue à la Ferme;Vignobles et Chais en Bordelais,,-0.3630401,44.82654
Vins,Producteur,Loupiac;Premières Côtes de Bordeaux;Bordeaux Supérieur;Bordeaux;Bordeaux Rosé;Graves,Château Dauphiné-Rondillon,,,33410,LOUPIAC,+33 5 56 62 61 75,www.vignoblesdarriet.fr,Vignobles et Chais en Bordelais,,-0.276075,44.6385
Vins,Producteur,Loupiac;Bordeaux;Bordeaux Rosé;Premières Côtes de Bordeaux;Graves,Château du Cros,,,33410,LOUPIAC,+33 5 56 62 99 31,www.chateauducros.com,Vignobles et Chais en Bordelais,,-0.2992811,44.61063
Vins,Producteur,Loupiac;Premières Côtes de Bordeaux;Bordeaux Rosé;Bordeaux;Bordeaux Supérieur,Château Grand Peyruchet,1 les Plainiers,,33410,LOUPIAC,+33 5 56 62 62 71,www.chateau-peyruchet.com,Vignobles et Chais en Bordelais,,-0.287065,44.63253
Vins,Producteur,Loupiac;Cadillac;Bordeaux Clairet;Bordeaux;Bordeaux Supérieur;Crémant de Bordeaux;Graves;Saint-Emilion,Château Le Portail Rouge,5 Portail Rouge,,33410,LOUPIAC,+33 5 56 62 93 82,www.chateauleportailrouge.com,Vignobles et Chais en Bordelais,,-0.305419,44.629715
Vins,Producteur,Loupiac;Bordeaux;Bordeaux Rosé,Clos Jean,Vignobles Bord Lionel et Nelly,,33410,LOUPIAC,+33 5 56 62 99 83,www.vignoblesbord.fr,Vignobles et Chais en Bordelais,,-0.287441,44.627785
Vins,Producteur,Haut-Médoc,Château d'Agassac,15 rue du Château d'Agassac,,33290,LUDON-MEDOC,+33 5 57 88 15 47,www.agassac.com,Vignobles et Chais en Bordelais,,-0.596214,44.96981
Vins,Producteur,Haut-Médoc,Château Paloumey,50 rue Pouge de Beau,,33290,LUDON-MEDOC,+33 5 57 88 00 66,www.chateaupaloumey.com,Vignobles et Chais en Bordelais,,-0.6310864,44.984577
Vins,Producteur,Bordeaux Rosé;Bordeaux Supérieur;Bordeaux,Château Roquefort,Roquefort,,33760,LUGASSON,+33 5 56 23 97 48,www.chateau-roquefort.com,Vignobles et Chais en Bordelais,,-0.1705884,44.751366
Vins,Producteur,Bordeaux Supérieur;Bordeaux Rosé;Crémant de Bordeaux,Château de Blassan,3 Blassan,,33240,LUGON-ET-L'ILE-DU-CARNAY,+33 6 80 65 43 44,,Vignobles et Chais en Bordelais,,-0.355492,44.965843
Vins,Producteur,Bordeaux;Bordeaux Supérieur;Bordeaux Rosé;Crémant de Bordeaux,Château La Grande Chapelle,La Grande Chapelle,,33240,LUGON-ET-L'ILE-DU-CARNAY,+33 5 57 84 41 52,,Vignobles et Chais en Bordelais,,-0.3822684,44.94259
Vins,Coopérative,Canon-Fronsac;Fronsac;Bordeaux Supérieur;Bordeaux;Bordeaux Rosé;Crémant de Bordeaux,Union de Producteurs de Lugon,6 rue Louis Pasteur,,33240,LUGON-ET-L'ILE-DU-CARNAY,+33 5 57 55 00 88,www.cavedelugon.com;www.instantsdelugon.fr,Vignobles et Chais en Bordelais,,-0.3390955,44.958725
Vins,Producteur,Lussac-Saint-Emilion;Montagne-Saint-Emilion;Pomerol,Château Chéreau,8 Chéreau,,33570,LUSSAC,+33 5 57 74 50 76,www.vente-vin-bordeaux.com;www.vignobles-silvestrini.com,Vignobles et Chais en Bordelais,Handicap mental;Handicap visuel,-0.1123094,44.950798
Vins,Producteur,Lussac-Saint-Emilion;Pomerol;Saint-Emilion Grand Cru,Château de Lussac,15 rue Lincent,,33570,LUSSAC,+33 5 57 74 56 58,www.chateaudelussac.com,Vignobles et Chais en Bordelais,,-0.0948643,44.950344
Vins,Producteur,Lussac-Saint-Emilion,Château Haut Jamard,Lieu dit Jamard,,33570,LUSSAC,+33 5 57 74 51 28,www.vignobles-charpentier.com,Vignobles et Chais en Bordelais,,-0.0896823,44.969215
Vins,Producteur,Lussac-Saint-Emilion;Lalande-de-Pomerol;Montagne-Saint-Emilion,Château Haut Piquat,2 Le Piquat,,33570,LUSSAC,+33 6 86 69 21 70,,Vignobles et Chais en Bordelais,,-0.1023316,44.948353
Vins,Producteur,Lussac-Saint-Emilion;Bordeaux Clairet;Bordeaux,Château Mayne Blanc,,,33570,LUSSAC,+33 5 57 74 60 56,www.chateaumayneblanc.fr,Vignobles et Chais en Bordelais,,-0.0921821,44.978825
Vins,Producteur,Haut-Médoc,Château Cambon La Pelouse,5 chemin de Canteloup,,33460,MACAU,+33 5 57 88 40 32,www.cambon-la-pelouse.com,Vignobles et Chais en Bordelais,,-0.631145,45.00017
Vins,Producteur,,Château Croix Grand Barail,1 le Grand Barrail,,33230,MARANSIN,+33 5 57 49 40 37,http://croixgrandbarail.jimdo.com,Vignobles et Chais en Bordelais,,-0.2530288,45.100002
Vins,Producteur,Bordeaux Clairet;Bordeaux Rosé;Bordeaux,Château Maison Noble,Maison Noble,,33230,MARANSIN,+33 9 53 25 44 35,www.chateau-maisonnoble.com,Vignobles et Chais en Bordelais,,-0.223002,45.07168
Vins,Producteur,Blaye Côtes de Bordeaux;Côtes de Blaye;Bordeaux Rosé;Crémant de Bordeaux;Fine Bordeaux,Domaine de La Nouzillette,5 Le Moulin Borgne,,33620,MARCENAIS,+33 5 57 68 70 25,,Vignobles et Chais en Bordelais,,-0.3385162,45.05897
Vins,Producteur,Blaye Côtes de Bordeaux;Bordeaux;Bordeaux Rosé;Crémant de Bordeaux,Château Siffle Merle,1 Le Merle,,33860,MARCILLAC,+33 5 57 32 41 34,www.chateau-siffle-merle.com,Vignobles et Chais en Bordelais,,-0.513583,45.265392
Vins,Producteur,Blaye Côtes de Bordeaux,Domaine de Tout l'Y Faut,5 Lardière,,33860,MARCILLAC,+33 5 57 32 48 30,www.blaye-asperges-vins.com,Bienvenue à la Ferme;Vignobles et Chais en Bordelais,Handicap mental;Handicap moteur;Handicap visuel,-0.4958438,45.268936
Vins,Coopérative,Blaye Côtes de Bordeaux;Bordeaux;Bordeaux Clairet;Blaye;Bordeaux Rosé;Bordeaux Supérieur;Côtes de Bourg;Crémant de Bordeaux,Vignerons de Tutiac,La Cafourche,,33860,MARCILLAC,+33 5 57 32 55 35,www.tutiac.com,Vignobles et Chais en Bordelais,,-0.5177307,45.26933
Vins,Producteur,Margaux;Haut-Médoc,Château Labégorce,,,33460,MARGAUX,+33 5 57 88 71 32,www.chateau-labegorce.fr,Vignobles et Chais en Bordelais,,-0.687489,45.050133
Vins,Producteur,Margaux,Château Lascombes,1 cours de Verdun,,33460,MARGAUX,+33 5 57 88 70 66,www.chateau-lascombes.com,Vignobles et Chais en Bordelais,,-0.676127,45.041103
Vins,Producteur,Margaux;Bordeaux,Château Pontac-Lynch,28 route du Port d'Issan,,33460,MARGAUX,+33 5 57 88 30 04,www.chateau-pontaclynch.com,Vignobles et Chais en Bordelais,,-0.6621891,45.03936
Vins,Producteur,Margaux,Château Rauzan-Gassies,1 rue Alexis Millardet,,33460,MARGAUX,+33 5 57 88 71 88,www.rauzangassies.fr,Vignobles et Chais en Bordelais,,-0.676127,45.041103
Vins,Producteur,Margaux,Clos des Quatre Vents,Domaine de Campion,BP 33,33460,MARGAUX,+33 5 56 58 97 90,www.luc-thienpont.com,Vignobles et Chais en Bordelais,,-0.6766676,45.051167
Vins,Producteur,Bordeaux Supérieur;Bordeaux;Bordeaux Rosé,Château Pierrail,,,33220,MARGUERON,+33 5 57 41 21 75,www.chateau-pierrail.fr,Vignobles et Chais en Bordelais,,0.271461,44.771538
Vins,Producteur,Blaye Côtes de Bordeaux;Bordeaux Supérieur;Bordeaux;Bordeaux Rosé,Château des Nauves,13 chemin des Nauves,La Croix de Merlet,33620,MARSAS,+33 5 57 68 71 35,www.vignoblesrouturier.com,Vignobles et Chais en Bordelais,,-0.356472,45.041924
Vins,Producteur,Pessac-Léognan,Château Ferran,,,33650,MARTILLAC,+33 9 77 64 23 11,www.chateauferran.com,Vignobles et Chais en Bordelais,,-0.529833,44.71536
Vins,Producteur,Pessac-Léognan,Château Latour-Martillac,Chemin de La Tour,,33650,MARTILLAC,+33 5 57 97 71 11,www.latourmartillac.com,Vignobles et Chais en Bordelais,,-0.53913,44.710285
Vins,Producteur,Pessac-Léognan,Château Smith Haut Lafitte,,,33650,MARTILLAC,+33 5 57 83 11 22,www.smith-haut-lafitte.com,Vignobles et Chais en Bordelais,,-0.560423,44.73068
Vins,Producteur,Entre-deux-Mers;Bordeaux Supérieur;Bordeaux;Bordeaux Rosé,Château Gaury Balette,2 Balette,,33540,MAURIAC,+33 5 57 40 52 82,www.vignobles-yon.com,Bienvenue à la Ferme;Vignobles et Chais en Bordelais,,-0.019282,44.758896
Vins,Producteur,Graves,Château Caillivet,,,33210,MAZERES,+33 5 56 76 23 19,www.chateaucaillivet.com,Vignobles et Chais en Bordelais,,-0.26357,44.50565
Vins,Producteur,Graves,Chateau du Haut Maray,1 lieu dit Cadillac,,33210,MAZERES,+33 5 56 76 83 33,,Vignobles et Chais en Bordelais,,-0.265517,44.50801
Vins,Producteur,Graves,Château Roquetaillade La Grange,,,33210,MAZERES,+33 5 56 76 14 23,,Vignobles et Chais en Bordelais,,-0.26447,44.493717
Vins,Producteur,Graves,Domaines Latrille Bonnin,,,33210,MAZERES,+33 5 56 63 41 70,www.bonnin-latrille.com,Vignobles et Chais en Bordelais,,-0.254893,44.52456
Vins,Producteur,Blaye Côtes de Bordeaux;Bordeaux Rosé,Château Cailleteau Bergeron,24 Bergeron,,33390,MAZION,+33 5 57 42 11 10,www.cailleteau-bergeron.com,Vignobles et Chais en Bordelais,,-0.615494,45.161957
Vins,Producteur,Pessac-Léognan,Château Luchey-Halde,17 avenue du Maréchal Joffre,,33700,MERIGNAC,+33 5 56 45 97 19,www.luchey-halde.com,Vignobles et Chais en Bordelais,,-0.629062,44.82184
Vins,Producteur,Saint-Georges-Saint-Emilion,Château Belair Saint-Georges,Saint-Georges,,33570,MONTAGNE,+33 5 57 74 65 40,,Vignobles et Chais en Bordelais,,-0.1503753,44.927044
Vins,Producteur,Montagne-Saint-Emilion,Château Calon,,,33570,MONTAGNE,+33 5 57 51 64 88,www.vin-boidron.com,Vignobles et Chais en Bordelais,,-0.13278,44.94129
Vins,Producteur,Montagne-Saint-Emilion;Saint-Emilion Grand Cru;Saint-Emilion,Château Enclos de Bayard,6 Bayard,,33570,MONTAGNE,+33 5 57 74 62 33,www.scegouze.fr,Vignobles et Chais en Bordelais,,-0.12871,44.929893
Vins,Producteur,Montagne-Saint-Emilion,Château Haut Bertin,,,33570,MONTAGNE,+33 5 57 74 64 99,,Vignobles et Chais en Bordelais,,-0.13837,44.93417
Vins,Producteur,Montagne-Saint-Emilion,Château Lys de Maisonneuve,,,33570,MONTAGNE,+33 5 57 24 95 62,www.vignobles-rospars.com,Vignobles et Chais en Bordelais,,-0.1126098,44.910175
Vins,Producteur,Saint-Georges-Saint-Emilion,Château Saint-Georges,,,33570,MONTAGNE,+33 5 57 74 62 11,www.chateau-saint-georges.com,Vignobles et Chais en Bordelais,,-0.1334023,44.926254
Vins,Producteur,Montagne-Saint-Emilion,Vignobles Lamarque - Château Puynormond,Lieu-dit Puynormond,,33570,MONTAGNE,+33 5 57 74 66 69,www.chateau-puynormond.com,Vignobles et Chais en Bordelais,,-0.094285,44.914734
Vins,Producteur,Bordeaux;Bordeaux Rosé;Bordeaux Supérieur,Château Lavergne Dulong,23 route du Courneau,,33450,MONTUSSAN,+33 5 56 72 19 52,www.chateau-lavergne-dulong.com,Vignobles et Chais en Bordelais,,-0.4382744,44.876644
Vins,Producteur,Bordeaux Supérieur;Bordeaux Rosé;Bordeaux Clairet,Château Les Bouygues,13 route des Bouygues,,33350,MOULIETS-ET-VILLEMARTIN,+33 5 57 40 79 62,,Vignobles et Chais en Bordelais,,-0.0042801,44.81403
Vins,Producteur,Moulis ou Moulis-en-Médoc,Château Anthonic,Route du Maliney,,33480,MOULIS-EN-MEDOC,+33 5 56 58 34 60,www.chateauanthonic.com,Vignobles et Chais en Bordelais,,-0.770533,45.0594
Vins,Producteur,Moulis ou Moulis-en-Médoc,Château Dutruch Grand Poujeaux,10 rue de la Forge,,33480,MOULIS-EN-MEDOC,+33 5 56 58 02 55,www.chateaudutruchgrandpoujeaux.com;www.chateaudutruch.com,Vignobles et Chais en Bordelais,,-0.746212,45.077763
Vins,Producteur,Moulis ou Moulis-en-Médoc,Château Granins Grand Poujeaux,18 chemin de l'ancienne école,Grand-Poujeaux,33480,MOULIS-EN-MEDOC,+33 5 56 58 05 82,www.chateau-granins.fr,Vignobles et Chais en Bordelais,,-0.744089,45.077747
Vins,Producteur,Moulis ou Moulis-en-Médoc,Château Maucaillou - Les Notables de Maucaillou,,,33480,MOULIS-EN-MEDOC,+33 5 56 58 01 23,www.maucaillou.com,Vignobles et Chais en Bordelais,,-0.744788,45.085705
Vins,Producteur,Moulis ou Moulis-en-Médoc;Bordeaux Rosé,Châteaux Lalaudey et Pomeys,Route de Pomeys,,33480,MOULIS-EN-MEDOC,+33 5 57 88 57 57,www.chateau-lalaudey.fr,Vignobles et Chais en Bordelais,,-0.803976,45.042736
Vins,Producteur,Bordeaux Supérieur;Bordeaux;Bordeaux Clairet,Château La Salargue,La Salargue,,33420,MOULON,+33 5 57 24 48 44,www.la-salargue.com,Vignobles et Chais en Bordelais,,-0.231609,44.891464
Vins,Producteur,Bordeaux Supérieur;Bordeaux;Crémant de Bordeaux;Entre-deux-Mers,Château Montlau,,,33420,MOULON,+33 5 57 84 50 71,www.chateau-montlau.com,Vignobles et Chais en Bordelais,,-0.204813,44.839546
Vins,Producteur,Lalande-de-Pomerol,Château Belles-Graves,1 allée de Belles-Graves,,33500,NEAC,+33 5 57 51 09 61,www.belles-graves.com,Vignobles et Chais en Bordelais,,-0.191574,44.940258
Vins,Producteur,Lalande-de-Pomerol;Saint-Emilion,Château Haut Chaigneau,Lieu dit Chagnau,,33500,NEAC,+33 5 57 51 31 31,www.vignobleschatonnet.com,Vignobles et Chais en Bordelais,,-0.1595163,44.9419
Vins,Producteur,Lalande-de-Pomerol;Pomerol;Montagne-Saint-Emilion;Bordeaux Rosé;Bordeaux Supérieur,Château Haut Chatain,,,33500,NEAC,+33 5 57 25 98 48,www.chateau-haut-chatain.com,Vignobles et Chais en Bordelais,,-0.170331,44.93883
Vins,Producteur,Lalande-de-Pomerol;Montagne-Saint-Emilion,Château Moncets,1 lieu dit Roussillon,,33500,NEAC,+33 5 57 51 19 33,www.moncets.com,Vignobles et Chais en Bordelais,,-0.1816606,44.936203
Vins,Producteur,Lalande-de-Pomerol;Pomerol;Saint-Emilion Grand Cru,Château Siaurac,Lieu dit Ciorac,,33500,NEAC,+33 5 57 51 65 20,www.chateausiaurac.com,Vignobles et Chais en Bordelais,,-0.1729488,44.941414
Vins,Producteur,Lalande-de-Pomerol;Montagne-Saint-Emilion;Bordeaux,Château Yveline,Bertineau,,33500,NEAC,+33 5 57 51 62 40,www.chateau-yvelyne.fr,Vignobles et Chais en Bordelais,,-0.1599454,44.948643
Vins,Producteur,Lalande-de-Pomerol;Pomerol;Montagne-Saint-Emilion,Domaine du Grand Ormeau,1 les Cruzelles,,33500,NEAC,+33 5 57 51 40 43,www.domaine-grand-ormeau.com,Vignobles et Chais en Bordelais,,-0.1922607,44.948765
Vins,Producteur,Cadillac;Premières Côtes de Bordeaux;Loupiac;Bordeaux;Bordeaux Rosé;Bordeaux Supérieur,Château La Bertrande,,,33410,OMET,+33 5 56 62 19 64,www.chateau-la-bertrande.com,Vignobles et Chais en Bordelais,,-0.2868461,44.652657
Vins,Producteur,Médoc,Château Taffard de Blaignan,10 route de Hontane,,33340,ORDONNAC,+33 5 56 09 00 00,www.taffarddeblaignan.com,Vignobles et Chais en Bordelais,,-0.836509,45.307434
Vins,Coopérative,Médoc,Les Vignerons d'Uni-Médoc / Cave du Pavillon de Bellevue,Plautignan,1 route de Peyressan,33340,ORDONNAC-PONTENSAC,+33 5 56 09 04 13,www.unimedoc.com,Vignobles et Chais en Bordelais,,-0.975818,45.362976
Vins,Producteur,Pauillac,Château Béhéré,13 rue Paul Doumer,,33250,PAUILLAC,+33 5 56 59 11 19,www.chateaubehere.com,Vignobles et Chais en Bordelais,,-0.7668435,45.213894
Vins,Producteur,Pauillac,Château Fonbadet,,,33250,PAUILLAC,+33 5 56 59 02 11,www.chateaufonbadet.com,Vignobles et Chais en Bordelais,,-0.7466518,45.19892
Vins,Producteur,Pauillac,Château Gaudin,Saint-Lambert,8 route des Châteaux,33250,PAUILLAC,+33 5 56 59 24 39,www.chateaugaudin.fr,Vignobles et Chais en Bordelais,,-0.751923,45.180588
Vins,Producteur,Pauillac,Château Pédesclaux,Padarnac,,33250,PAUILLAC,+33 5 57 73 64 64,www.chateau-pedesclaux.com,Vignobles et Chais en Bordelais,,-0.7569408,45.212006
Vins,Coopérative,Pauillac,Groupement de producteurs La Rose Pauillac,44 rue du Maréchal Joffre,,33250,PAUILLAC,+33 5 56 59 26 00,www.la-rose-pauillac.com,Vignobles et Chais en Bordelais,,-0.752424,45.2027
Vins,Producteur,Pauillac,L'Harmonie de Fonbadet,Château Fonbadet,,33250,PAUILLAC,+33 5 56 59 02 11,www.chateaufonbadet.com,Vignobles et Chais en Bordelais,,-0.752664,45.182392
Vins,Producteur,Bordeaux Supérieur;Bordeaux;Bordeaux Rosé,Château de Lugagnac,Lugagnac,,33790,PELLEGRUE,+33 5 56 61 30 60,www.chateaudelugagnac.com,Vignobles et Chais en Bordelais,,0.067775,44.733356
Vins,Producteur,Bordeaux Supérieur;Bordeaux;Bordeaux Rosé,Domaine de la Chataignière,1 Les Grandes Terres,,33240,PERISSAC,+33 6 85 52 26 88,www.domaine-chataigniere.fr,Vignobles et Chais en Bordelais,,-0.306673,45.01207
Vins,Producteur,Pessac-Léognan;Graves,Château Pape Clément,216 avenue du Dr Nancel Pénard,,33600,PESSAC,+33 5 57 26 38 34,www.pape-clement.com;www.luxurywinetourism.fr,Vignobles et Chais en Bordelais,,-0.647707,44.80597
Vins,Producteur,Sainte-Foy Bordeaux,Château Carbonneau,,,33890,PESSAC-SUR-DORDOGNE,+33 5 57 47 46 46,www.chateau-carbonneau.com,Vignobles et Chais en Bordelais;Bienvenue à la Ferme,,0.071972,44.801697
Vins,Producteur,Bordeaux;Bordeaux Clairet;Sainte-Foy Bordeaux;Saint-Emilion,Château Petit Montibeau,Moulin de Moustelat,,33890,PESSAC-SUR-DORDOGNE,+33 5 57 47 46 77,www.moulin-de-moustelat.com,Vignobles et Chais en Bordelais;Bienvenue à la Ferme,,0.0948949,44.811222
Vins,Producteur,Bordeaux Supérieur;Bordeaux,Château Vieux Mougnac,,,33570,PETIT-PALAIS-ET-CORNEMPS,+33 5 57 69 72 85,www.vieuxmougnac.com,Vignobles et Chais en Bordelais,,-0.06096,44.9724
Vins,Producteur,Sainte-Foy Bordeaux;Bordeaux,Château de Vacques,8 rue de la Commanderie,,33220,PINEUILH,+33 5 57 46 15 01,,Vignobles et Chais en Bordelais,,0.23672103,44.82002
Vins,Producteur,Sainte-Foy Bordeaux,Château Le Pré de la Lande,2 lieu dit La Rayre,,33220,PINEUILH,+33 5 57 41 36 20,www.lepredelalande.com,Vignobles et Chais en Bordelais,,0.231185,44.80046
Vins,Producteur,Sainte-Foy Bordeaux,Château l'Enclos,3 route de Bergerac,,33220,PINEUILH,+33 5 57 46 55 95,www.chateaulenclos.fr,Vignobles et Chais en Bordelais,,0.23312687,44.8388
Vins,Producteur,Blaye Côtes de Bordeaux,Château Chante Alouette,1 allée de Chante-Alouette,,33390,PLASSAC,+33 5 57 42 16 38,www.chante-alouette.fr,Vignobles et Chais en Bordelais,,-0.619807,45.104286
Vins,Producteur,Blaye Côtes de Bordeaux;Bordeaux Rosé,Château Monconseil,44 route des Côteaux,,33390,PLASSAC,+33 5 57 42 16 61,www.chateaumonconseil.com,Vignobles et Chais en Bordelais,,-0.623227,45.097343
Vins,Producteur,Blaye Côtes de Bordeaux;Blaye,Château Monconseil-Gazin,15 route de Compostelle,,33390,PLASSAC,+33 5 57 42 16 63,www.monconseilgazin.com,Vignobles et Chais en Bordelais,,-0.623227,45.097343
Vins,Producteur,Graves,Château de Chantegrive,,,33720,PODENSAC,+33 5 56 27 17 38,www.chantegrive.com,Vignobles et Chais en Bordelais,,-0.369335,44.651276
Vins,Producteur,Cérons;Graves;Graves Supérieures;Bordeaux Rosé;Crémant de Bordeaux,Clos Graoueres,RN 113,,33720,PODENSAC,+33 5 56 27 16 80,,Vignobles et Chais en Bordelais,,-0.359336,44.65295
Vins,Groupements de producteur,Graves;Graves Supérieures;Pessac-Léognan,Maison des Vins de Graves,61 cours du Maréchal Foch,,33720,PODENSAC,+33 5 56 27 09 25,www.vins-graves.com,Vignobles et Chais en Bordelais,,-0.361513,44.654007
Vins,Producteur,,Château Beauregard,,,33500,POMEROL,+33 5 57 51 13 36,www.chateau-beauregard.com,Vignobles et Chais en Bordelais,,-0.201489,44.928577
Vins,Producteur,Pomerol,Château Bellegrave,Lieu-dit René,,33500,POMEROL,+33 5 57 51 20 47,www.chateaubellegravepomerol.com,Vignobles et Chais en Bordelais,,-0.219727,44.98617
Vins,Producteur,Pomerol,Château Grange-Neuve,33 chemin des Ormeaux,,33500,POMEROL,+33 5 57 51 23 03,,Vignobles et Chais en Bordelais,,-0.2005,44.957024
Vins,Producteur,Pomerol,Château La Croix Taillefer,56 route de Périgueux,,33500,POMEROL,+33 5 57 51 26 35,,Vignobles et Chais en Bordelais,,-0.211143,44.94196
Vins,Producteur,Pomerol,Château Petit-Village,,,33500,POMEROL,+33 5 57 57 21 08,www.petit-village.com,Vignobles et Chais en Bordelais,,-0.2005,44.931023
Vins,Producteur,Pomerol,Château Thibeaud-Maillet,22 chemin de Maillet,,33500,POMEROL,+33 5 57 51 82 68,,Vignobles et Chais en Bordelais,,-0.18563,44.928303
Vins,Producteur,Pomerol;Lalande-de-Pomerol,Château Vieux Maillet,16 chemin de Maillet,,33500,POMEROL,+33 5 57 74 56 80,www.chateauvieuxmaillet.com,Vignobles et Chais en Bordelais,,-0.1848131,44.928932
Vins,Producteur,Pomerol,Clos Beauregard,,,33500,POMEROL,+33 5 57 74 18 44,www.vignobles-moueix.com,Vignobles et Chais en Bordelais,,-0.201489,44.928577
Vins,Producteur,Bordeaux Supérieur;Bordeaux,Château Beaulé,21 chemin des Carmes,,33370,POMPIGNAC,+33 5 56 72 48 93,www.chateau-la-guillaumette.com,Vignobles et Chais en Bordelais;Bienvenue à la Ferme,,-0.41765,44.85155
Vins,Producteur,Entre-deux-Mers;Premières Côtes de Bordeaux;Bordeaux Supérieur;Bordeaux;Bordeaux Rosé;Bordeaux Clairet,Château Queyssard,17 avenue du Périgord,,33370,POMPIGNAC,+33 5 57 34 11 38,www.vignobles-masse.com,Bienvenue à la Ferme;Vignobles et Chais en Bordelais,,-0.468073,44.865646
Vins,Producteur,Bordeaux;Bordeaux Supérieur,Château Belle Source,4 Larret,,33660,PORCHERES,+33 5 57 49 61 25,www.domainebellesource.com,Vignobles et Chais en Bordelais,,0.00429153,45.034443
Vins,Producteur,Graves,Château Cabannieux,44 route du Courneau,,33640,PORTETS,+33 5 56 67 22 01,www.chateau-cabannieux.com,Vignobles et Chais en Bordelais,,-0.433677,44.679123
Vins,Producteur,Graves,Château Cheret-Pitres,1 chemin de Pitres,,33640,PORTETS,+33 5 56 67 27 76,http://chateau-cheret-pitres.jimdo.com,Vignobles et Chais en Bordelais,,-0.3997993,44.700607
Vins,Producteur,Graves,Château de Beau-Site,35 route de Mathas,,33640,PORTETS,+33 5 56 67 18 15,www.chateaudebeausite.fr,Vignobles et Chais en Bordelais,,-0.405503,44.682915
Vins,Producteur,Graves,Château de Mongenan,16 rue de Mongenan,,33640,PORTETS,+33 5 56 67 18 11,www.chateaudemongenan.com,Vignobles et Chais en Bordelais,,-0.4310629,44.69485
Vins,Producteur,Graves,Château de Portets,1 rue Baron de Gascq,,33640,PORTETS,+33 5 56 67 12 30,www.chateaudeportets.com,Vignobles et Chais en Bordelais,,-0.42899,44.69776
Vins,Producteur,Graves,Château Doms,10 chemin de Lagaceye,,33640,PORTETS,+33 5 56 67 20 12,www.chateau-doms.fr,Vignobles et Chais en Bordelais,,-0.419022,44.674416
Vins,Producteur,Graves;Bordeaux Supérieur;Bordeaux;Bordeaux Rosé,Château Grand Abord,56 route des Graves,BP 7,33640,PORTETS,+33 5 56 67 50 75,www.vignobles-dugoua.fr,Vignobles et Chais en Bordelais,,-0.4178211,44.68836
Vins,Producteur,Graves,Château Lagueloup,2-4 rue de la Liberté,,33640,PORTETS,+33 5 56 67 18 11,www.chateaulagueloup.com,Vignobles et Chais en Bordelais,,-0.422628,44.697624
Vins,Producteur,Graves,Château Tour Bicheau,8 route du Cabernet,,33640,PORTETS,+33 5 56 67 37 75,www.chateau-tour-bicheau.com,Vignobles et Chais en Bordelais,,-0.421373,44.679626
Vins,Producteur,Graves,Clos Bellevue,45 route du Courneau,,33640,PORTETS,+33 5 56 67 22 06,www.cbportets.fr,Vignobles et Chais en Bordelais,,-0.4295638,44.68252
Vins,Producteur,Graves;Bordeaux;Bordeaux Rosé,Clos Lamothe,7 route de Mathas,,33640,PORTETS,+33 5 56 67 23 12,www.closlamothe.com,Vignobles et Chais en Bordelais,,-0.4160079,44.692616
Vins,Producteur,Sauternes,Château d'Armajan des Ormes,,,33210,PREIGNAC,+33 5 56 62 35 78,www.mjperromat.com,Vignobles et Chais en Bordelais,,-0.2995061,44.58748
Vins,Producteur,Sauternes;Graves,Château de Malle,,,33210,PREIGNAC,+33 5 56 62 36 86,www.chateau-de-malle.fr,Vignobles et Chais en Bordelais,,-0.29554,44.565838
Vins,Producteur,Sauternes,Château Haut Bergeron,3 Piquey,,33210,PREIGNAC,+33 5 56 63 24 76,www.chateauhautbergeron.com,Vignobles et Chais en Bordelais,,-0.320186,44.567207
Vins,Producteur,Sauternes;Graves;Bordeaux,Château Pierrie Saint Maxime,15 quartier Couite,,33210,PREIGNAC,+33 5 56 63 44 75,http://pierriesaintmaxime.com,Vignobles et Chais en Bordelais,,-0.3093338,44.5761
Vins,Producteur,Bordeaux;Bordeaux Rosé,Château Haut-de-Lerm,6 Labourjade,,33540,SAINT-MARTIN-DE-LERM,+33 5 56 71 39 38,www.haut-de-lerm.fr,Bienvenue à la Ferme;Vignobles et Chais en Bordelais,,-0.033333,44.64775
Vins,Producteur,Côtes de Bordeaux Saint-Macaire;Bordeaux;Bordeaux Rosé;Crémant de Bordeaux,Château de Jayle,1-2 Jayle,,33490,SAINT-MARTIN-DE-SESCAS,+33 5 56 63 60 90,www.vignoblespelle.com,Bienvenue à la Ferme;Vignobles et Chais en Bordelais,,-0.170065,44.573437
Vins,Producteur,Bordeaux Supérieur;Bordeaux;Bordeaux Rosé,Château l'Hermitage,1 l'Hermitage,,33540,SAINT-MARTIN-DU-PUY,+33 5 56 71 57 58,www.chateau-hermitage.com,Vignobles et Chais en Bordelais;Bienvenue à la Ferme,,-0.0248527,44.665993
Vins,Producteur,Blaye Côtes de Bordeaux;Crémant de Bordeaux;Bordeaux Rosé,Château Frédignac,7 rue Emile Frouard,,33390,SAINT-MARTIN-LACAUSSADE,+33 5 57 42 24 93,www.chateau-fredignac.fr,Vignobles et Chais en Bordelais,,-0.643211,45.13481
Vins,Producteur,Bordeaux;Bordeaux Supérieur;Bordeaux Rosé,Vignobles Borderie,119 rue de la République,,33230,SAINT-MEDARD-DE-GUIZIERES,+33 5 57 69 83 01,www.vinsborderie.com,Vignobles et Chais en Bordelais,,-0.0622755,45.01608
Vins,Producteur,Pessac-Léognan,Château Le Bruilleau,12 chemin le Bruilleau,,33650,SAINT-MEDARD-D'EYRANS,+33 5 56 72 70 45,http://chateau_le_bruilleau.monsite-orange.fr/,Vignobles et Chais en Bordelais,,-0.519463,44.6947
Vins,Producteur,Canon-Fronsac,Château Cassagne Haut-Canon,,,33126,SAINT-MICHEL-DE-FRONSAC,+33 5 57 25 05 55,www.chateau-cassagne.fr,Vignobles et Chais en Bordelais,,-0.2921462,44.929623
Vins,Producteur,Canon-Fronsac;Fronsac,Clos Saint Michel,n°1 Larriveau,,33126,SAINT-MICHEL-DE-FRONSAC,+33 5 57 24 95 81,www.lacloseriedefronsac.com,Vignobles et Chais en Bordelais,,-0.2932888,44.937763
Vins,Producteur,Blaye Côtes de Bordeaux;Bordeaux;Crémant de Bordeaux,Château La Martellerie,4 La Martellerie,,33820,SAINT-PALAIS,+33 5 57 32 94 06,www.chateau-la-martellerie.com,Vignobles et Chais en Bordelais,,-0.574883,45.3085
Vins,Producteur,Blaye Côtes de Bordeaux;Bordeaux Rosé,Château La Rose Bellevue,5 Les Mouriers,,33820,SAINT-PALAIS,+33 5 57 32 66 54,www.chateau-larosebellevue.com,Vignobles et Chais en Bordelais;Bienvenue à la Ferme,,-0.588638,45.29643
Vins,Producteur,Saint-Emilion Grand Cru,Château Gerbaud,,,33330,SAINT-PEY-D'ARMENS,+33 5 57 47 12 39,www.chateau-gerbaud.com,Vignobles et Chais en Bordelais,,-0.142355,44.881958
Vins,Producteur,Saint-Emilion Grand Cru,Château La Bonnelle,,,33330,SAINT-PEY-D'ARMENS,+33 5 57 47 15 12,www.feret-labonnelle.com,Vignobles et Chais en Bordelais,,-0.142355,44.881958
Vins,Producteur,Bordeaux Supérieur;Bordeaux,Château Cablanc,Cablanc,,33350,SAINT-PEY-DE-CASTETS,+33 5 57 40 52 20,www.chateaucablanc.com,Vignobles et Chais en Bordelais,,-0.071586,44.800358
Vins,Coopérative,Bordeaux Supérieur;Bordeaux Rosé;Bordeaux Clairet;Crémant de Bordeaux,Vignerons de Saint-Pey-Génissac,Avenue de la Mairie,,33350,SAINT-PEY-DE-CASTETS,+33 5 57 40 52 07,,Vignobles et Chais en Bordelais,,-0.068961,44.811314
Vins,Producteur,Entre-deux-Mers-Haut-Benauge;Crémant de Bordeaux;Bordeaux Rosé;Bordeaux,Château Petit-Luc,10 route du Petit-Luc,,33760,SAINT-PIERRE-DE-BAT,+33 5 56 23 93 33,www.chateaupetitluc.fr,Vignobles et Chais en Bordelais,,-0.2312707,44.67323
Vins,Producteur,Graves,Chateau Magence,,,33210,SAINT-PIERRE-DE-MONS,+33 5 56 63 07 05,www.magence.com,Vignobles et Chais en Bordelais,,-0.210541,44.548462
Vins,Producteur,Haut-Médoc,Château Fontesteau,Fontesteau,,33250,SAINT-SAUVEUR,+33 5 56 59 52 76,www.fontesteau.com,Vignobles et Chais en Bordelais,,-0.8456039,45.20729
Vins,Producteur,Haut-Médoc,Château La Fon du Berger,5 route du Fournas,,33250,SAINT-SAUVEUR,+33 5 56 59 51 43,www.lafonduberger.com,Vignobles et Chais en Bordelais,,-0.8014225,45.193504
Vins,Producteur,Haut-Médoc;Pauillac,Château Peyrabon,,,33250,SAINT-SAUVEUR,+33 5 56 59 57 10,www.chateau-peyrabon.com,Vignobles et Chais en Bordelais,,-0.8178806,45.198673
Vins,Producteur,Bordeaux Supérieur;Bordeaux Rosé,Château Haut-Nivelle,2 route de Cornemps,,33660,SAINT-SAUVEUR-DE-PUYNORMAND,+33 5 57 69 69 69,www.chateau-hautnivelle.com,Vignobles et Chais en Bordelais,,-0.034438,44.986797
Vins,Producteur,Côtes de Bourg,Château Haut-Mortefont,4 Prébeyring,BP 15,33710,SAINT-SEURIN-DE-BOURG,+33 5 57 94 11 20,,Vignobles et Chais en Bordelais,,-0.574537,45.049854
Vins,Producteur,Côtes de Bourg;Bordeaux Supérieur;Bordeaux Rosé;Crémant de Bordeaux,Château Les Rocques,Caruel,,33710,SAINT-SEURIN-DE-BOURG,+33 5 57 68 42 82,www.vignobles-feillon.fr,Vignobles et Chais en Bordelais,,-0.580028,45.05291
Vins,Producteur,Côtes de Bourg;Bordeaux Rosé;Crémant de Bordeaux,Château Puy d'Amour,5 Marchais,,33710,SAINT-SEURIN-DE-BOURG,+33 5 57 68 38 01,www.puydamour.com,Vignobles et Chais en Bordelais;Bienvenue à la Ferme,,-0.582992,45.048725
Vins,Producteur,Côtes de Bourg,Château Tayac,,,33710,SAINT-SEURIN-DE-BOURG,+33 5 57 68 40 60,www.chateau-tayac.fr,Vignobles et Chais en Bordelais,,-0.568206,45.060852
Vins,Producteur,Haut-Médoc,Château Moulin de Blanchon,3 rue des Casaillons,Le Trale,33180,SAINT-SEURIN-DE-CADOURNE,+33 5 56 59 38 66,www.chateau-moulin-de-blanchon.com,Vignobles et Chais en Bordelais,,-0.788684,45.30252
Vins,Producteur,Haut-Médoc,Château Verdus,Chemin de Bardis,,33180,SAINT-SEURIN-DE-CADOURNE,+33 5 56 73 17 31,,Vignobles et Chais en Bordelais,,-0.788684,45.30252
Vins,Producteur,Blaye Côtes de Bordeaux,Château Roland La Garde,8 La Garde,,33390,SAINT-SEURIN-DE-CURSAC,+33 5 57 42 32 29,www.roland-la-garde.com,Vignobles et Chais en Bordelais,,-0.6307744,45.152954
Vins,Producteur,Saint-Emilion Grand Cru;Saint-Emilion,Château de Lescours,,,33330,SAINT-SULPICE-DE-FALEYRENS,+33 5 57 24 74 75,www.lescours.com,Vignobles et Chais en Bordelais,,-0.192567,44.879017
Vins,Producteur,Saint-Emilion;Saint-Emilion Grand Cru,Château Jupille Carillon,Jupille,,33330,SAINT-SULPICE-DE-FALEYRENS,+33 5 57 24 62 92,http://vignobles-visage.com,Vignobles et Chais en Bordelais,,-0.1899299,44.875477
Vins,Producteur,Côtes de Bourg;Bordeaux Rosé,Château de Rousselet,6 Rousselet,,33710,SAINT-TROJAN,+33 5 57 64 32 18,www.chateau-de-rousselet.com,Vignobles et Chais en Bordelais,,-0.582459,45.08641
Vins,Producteur,Côtes de Bourg;Crémant de Bordeaux;Bordeaux Rosé,Château Mercier,5 Mercier,,33710,SAINT-TROJAN,+33 5 57 42 66 99,www.chateau-mercier.fr,Vignobles et Chais en Bordelais;Bienvenue à la Ferme,,-0.591333,45.093773
Vins,Producteur,Bordeaux Supérieur;Bordeaux,Château Isabeau de Naujan,,,33420,SAINT-VINCENT-DE-PERTIGNAS,+33 5 57 55 14 30,www.domaine-de-naujan.com,Vignobles et Chais en Bordelais,,-0.11244,44.79761
Vins,Producteur,Blaye Côtes de Bordeaux;Côtes de Bourg,Clos Maine-Gravereau,96 Routurier,,33920,SAINT-VIVIEN-DE-BLAYE,+33 5 57 42 53 84,www.closmainegravereau.fr,Vignobles et Chais en Bordelais,,-0.524075,45.103462
Vins,Producteur,Blaye Côtes de Bordeaux;Bordeaux Rosé,Domaine des Allants,102 Le Bourg,,33920,SAINT-VIVIEN-DE-BLAYE,+33 5 57 42 58 75,www.domaine-des-allants.fr,Vignobles et Chais en Bordelais,,-0.462513,45.10665
Vins,Coopérative,Médoc,Cave Saint-Brice,10 rue de la Colonne,,33340,SAINT-YZANS-DE-MEDOC,+33 5 56 09 05 05,http://cavesaintbrice.surinternet.com,Vignobles et Chais en Bordelais,,-0.8235669,45.325737
Vins,Producteur,Médoc;Bordeaux,Château Bois de Roc,2 rue des Sarments,,33340,SAINT-YZANS-DE-MEDOC,+33 5 56 09 09 79,,Vignobles et Chais en Bordelais,,-0.820255,45.321804
Vins,Producteur,Médoc,Château Loudenne,,,33340,SAINT-YZANS-DE-MEDOC,+33 5 56 73 17 88,www.lafragette.com,Vignobles et Chais en Bordelais,,-0.7923889,45.32023
Vins,Producteur,Bordeaux Supérieur;Bordeaux;Bordeaux Rosé,Château Bouilhas,45 route de Laubertrie,,33240,SALIGNAC,+33 5 57 43 50 05,www.chateaubouilhas.fr,Vignobles et Chais en Bordelais,,-0.3801548,45.016266
Vins,Producteur,Bordeaux Supérieur;Bordeaux,Château Haut-Bicou,4 chemin de l¿Eau Douce,,33240,SALIGNAC,+33 5 57 43 23 83,www.hautbicou.com,Vignobles et Chais en Bordelais,,-0.3894647,45.008476
Vins,Producteur,Bordeaux;Crémant de Bordeaux,Domaine de Laubertrie,50 route de Laubertrie,,33240,SALIGNAC,+33 5 57 43 24 73,www.domainedelaubertrie.fr,Vignobles et Chais en Bordelais,,-0.3806378,45.01613
Vins,Producteur,Côtes de Bourg,Château Gravettes-Samonac,Le Bourg,,33710,SAMONAC,+33 5 57 68 21 16,,Vignobles et Chais en Bordelais,,-0.568206,45.060852
Vins,Producteur,Sauternes,Château d'Arche,,,33210,SAUTERNES,+33 5 56 76 66 55,www.chateaudarche-sauternes.com,Vignobles et Chais en Bordelais,,-0.342766,44.53745
Vins,Producteur,Sauternes,Château Filhot,,,33210,SAUTERNES,+33 5 56 76 61 09,www.filhot.com,Vignobles et Chais en Bordelais,,-0.33836,44.52455
Vins,Producteur,Sauternes,Château Guiraud,,,33210,SAUTERNES,+33 5 56 76 61 01,www.chateauguiraud.com,Vignobles et Chais en Bordelais,,-0.3326153,44.53267
Vins,Producteur,Sauternes,Château Lamothe Despujols,19 rue Principale,Cave des Lauréats,33210,SAUTERNES,+33 5 56 76 67 89,www.lamothe-despujols.com,Vignobles et Chais en Bordelais,,-0.34296,44.53355
Vins,Producteur,Sauternes,Château Raymond Lafon,4 Au Puits,,33210,SAUTERNES,+33 5 56 63 21 02,www.chateau-raymond-lafon.fr,Vignobles et Chais en Bordelais,,-0.3298366,44.55041
Vins,Coopérative,Bordeaux Clairet;Bordeaux Rosé;Bordeaux Supérieur;Crémant de Bordeaux;Entre-deux-Mers;Bordeaux,Cave de Sauveterre - Cellier de la bastide,15 Bourrassat,,33540,SAUVETERRE-DE-GUYENNE,+33 5 56 61 55 21,www.cavedesauveterre.fr,Vignobles et Chais en Bordelais,,-0.0844573,44.69093
Vins,Producteur,Bordeaux;Bordeaux Supérieur;Bordeaux Clairet;Bordeaux Rosé,Château La Peyrère du Tertre,SCEA La Peyrère Lucas,,33124,SAVIGNAC,+33 5 56 65 41 86,www.chateaulapeyrere.com,Vignobles et Chais en Bordelais,,-0.1248729,44.49734
Vins,Producteur,Bordeaux;Bordeaux Rosé;Bordeaux Supérieur,Château Les Reuilles,3 Piteau,,47120,SAVIGNAC-DE-DURAS,+33 5 56 61 42 44,www.chateau-les-reuilles.com,Vignobles et Chais en Bordelais,Handicap mental;Handicap moteur;Handicap visuel,0.186677,44.700768
Vins,Producteur,Margaux,Château La Galiane,14 rue Alfred de Luze,,33460,SOUSSANS,+33 5 57 88 35 27,www.scea-rene-renon.com,Vignobles et Chais en Bordelais,,-0.699131,45.05595
Vins,Coopérative,Côtes de Bourg;Blaye Côtes de Bordeaux;Bordeaux;Bordeaux Clairet,Alliance Bourg (Cave de Bourg-Tauriac),3 avenue des Côtes de Bourg,,33710,TAURIAC,+33 5 57 94 07 07,www.alliancebourg.com,Vignobles et Chais en Bordelais,,-0.4964876,45.075974
Vins,Producteur,Côtes de Bourg,Château Brulesécaille,"29, route des Châteaux",,33710,TAURIAC,+33 5 57 68 40 31,www.brulesecaille.com,Vignobles et Chais en Bordelais,,-0.568206
Vins,Producteur,Côtes de Bourg;Bordeaux;Bordeaux Clairet;Bordeaux Rosé,Château Haut Macô,61 rue des Gombauds,,33710,TAURIAC,+33 5 57 68 81 26,www.hautmaco.com,Vignobles et Chais en Bordelais,,-0.501693,45.04931
Vins,Producteur,Francs Côtes de Bordeaux,Château Nardou,,,33570,TAYAC,+33 5 57 40 69 60,www.chateau-nardou.com,Vignobles et Chais en Bordelais,,-0.083435,44.95231
Vins,Producteur,Côtes de Bourg,Château Haut Mousseau,1 Haut-Mousseau,,33710,TEUILLAC,+33 5 57 64 34 38,www.vignobles-briolais.com,Vignobles et Chais en Bordelais;Bienvenue à la Ferme,,-0.572081,45.092724
Vins,Producteur,Côtes de Bourg,Château Relais de la Poste,2 Les Blais,,33710,TEUILLAC,+33 5 57 64 37 95,,Vignobles et Chais en Bordelais,,-0.535938,45.101337
Vins,Producteur,Côtes de Bourg;Bordeaux Rosé,Château Vieux Plantier,La Loge 1,,33710,TEUILLAC,+33 5 57 64 34 60,www.chateau-vieux-plantier.com,Vignobles et Chais en Bordelais,,-0.548487,45.08896
Vins,Producteur,Entre-deux-Mers;Bordeaux Supérieur;Bordeaux Clairet;Bordeaux;Crémant de Bordeaux,Château de Lisennes,Chemin de Petrus,,33370,TRESSES,+33 5 57 34 13 03,www.lisennes.fr,Vignobles et Chais en Bordelais,,-0.455971,44.843746
Vins,Producteur,Médoc,Château Le Temple,30 route du port de Goulée,,33340,VALEYRAC,+33 5 56 41 53 62,www.chateauletemple.com,Vignobles et Chais en Bordelais,,-0.913377,45.37882
Vins,Producteur,Graves de Vayres,Château La Pontête,SCEA Lacombe,,33870,VAYRES,+33 5 57 74 76 99,www.lapontete.com,Bienvenue à la Ferme;Vignobles et Chais en Bordelais,,-0.318723,44.8969
Vins,Producteur,Graves de Vayres,Château Pichon Bellevue,,,33870,VAYRES,+33 5 57 74 84 08,http://pichonbellevue.canalblog.com,Vignobles et Chais en Bordelais,,-0.32573,44.89077
Vins,Groupements de producteur,Graves de Vayres,Maison des Vins des Graves de Vayres,Place du Général de Gaulle,,33870,VAYRES,+33 5 57 74 86 42,www.gravesdevayres.fr,Vignobles et Chais en Bordelais,,-0.3140974,44.89748
Vins,Producteur,Médoc,Château David,40 Grande Rue,,33590,VENSAC,+33 5 56 09 44 62,,Vignobles et Chais en Bordelais,,-1.041545,45.398045
Vins,Producteur,Bordeaux Supérieur;Bordeaux,Château Haut Gaussens,4 les Gaussens,,33240,VERAC,+33 5 57 84 38 17,www.chateauhautgaussens.fr,Vignobles et Chais en Bordelais,,-0.3345143,44.9872
Vins,Producteur,Haut-Médoc,Château Le Meynieu,SCEA des Domaines Pedro,,33180,VERTHEUIL,+33 5 56 73 32 10,www.domaines-pedro.com,Vignobles et Chais en Bordelais,,-0.834695,45.25015
Vins,Producteur,Haut-Médoc,Château Le Souley Sainte Croix,,,33180,VERTHEUIL,+33 5 56 41 98 54,www.lesouleystecroix.com,Vignobles et Chais en Bordelais,,-0.834695,45.25015
Vins,Producteur,Saint-Emilion Grand Cru,Château de la Cour,,,33330,VIGNONET,+33 5 57 84 64 95,www.chateaudelacour.com,Vignobles et Chais en Bordelais,,-0.154733,44.85068
Vins,Producteur,Saint-Emilion Grand Cru,Château La Fleur d'Horus,,,33330,VIGNONET,+33 6 82 57 06 46,www.pomerol.com,Vignobles et Chais en Bordelais,,-0.161733,44.85082
Vins,Producteur,Saint-Emilion Grand Cru,Château Quercy,3 Graves,,33330,VIGNONET,+33 5 57 84 56 07,www.chateauquercy.com,Vignobles et Chais en Bordelais,,-0.1465,44.848
Vins,Producteur,Bordeaux Supérieur;Bordeaux;Bordeaux Rosé;Crémant de Bordeaux,Château Tour de Bellegarde,123 route de Bellegarde,,33141,VILLEGOUGE,+33 5 57 84 42 04,www.tourdebellegarde.com,Vignobles et Chais en Bordelais,,-0.3426897,44.972343
Vins,Producteur,Côtes de Bourg,Château Sauman,Le Sauman,,33710,VILLENEUVE,+33 5 57 42 16 64,www.chateausauman.com,Vignobles et Chais en Bordelais,,-0.624658,45.08771
Vins,Producteur,Premières Côtes de Bordeaux,Château Lafitte,Chemin du Loup,,33370,YVRAC,+33 5 56 06 68 50,www.chateau-lafitte.fr,Vignobles et Chais en Bordelais,,-0.481558,44.878784
Vins,Producteur,Premières Côtes de Bordeaux;Bordeaux;Bordeaux Clairet;Saint-Emilion;Saint-Emilion Grand Cru,Vignobles Pestoury,14 chemin de Tellas,,33370,YVRAC,+33 5 56 74 72 16,www.vignobles-pestoury.com,Vignobles et Chais en Bordelais,,-0.459271,44.896088
