TYPE,CATEGORIE,RAISON_SOCIALE,ADRESSE,ADRESSE_SUITE_1,ADRESSE_SUITE_2,CODE_POSTAL,COMMUNE,TEL__INFORMATIONS,SITE_WEB,LABEL,CLASSEMENT_LABEL,THEMES_LABEL,TOURISME_ET_HANDICAP,LONGITUDE,LATITUDE
Meublés,4 étoiles,Gîte du Domaine de Cabirac,5 chemin de Cabirac,,,33360,CARIGNAN-DE-BORDEAUX,+33 5 57 97 32 70,www.cabirac.fr,Clévacances,4 clés (Clévacances),Clévacances Bacchus,Handicap auditif;Handicap mental;Handicap moteur,-0.4760947,44.816746
Meublés,5 étoiles,Moulin de Canteloup,36 route de Citon,,,33360,CARIGNAN-DE-BORDEAUX,+33 6 33 64 43 22,www.lemoulindecanteloup.com,Clévacances,5 clés (Clévacances),,,-0.4660865,44.79764
Meublés,Non classé,Château Gayon,6 Château Gayon,,,33490,CAUDROT,+33 5 56 62 81 19,www.chateau-gayon.com,Clévacances,3 clés (Clévacances),Clévacances Bacchus,,-0.149803,44.584972
Meublés,2 étoiles,Meublé Godin,5 Charles,,,33410,DONZAC,+33 5 56 62 92 25,,Clévacances,2 clés (Clévacances),,,-0.268819,44.65202
Meublés,4 étoiles,Les Philiberts,5 bis Les Philiberts,,,33190,FOSSES-ET-BALEYSSAC,+33 5 56 61 77 26,http://monsite.wanadoo.fr/lesphiliberts,Clévacances,3 clés (Clévacances),Clévacances Bacchus,,0.066725,44.598312
Meublés,4 étoiles,Les Philiberts,5 bis Les Philiberts,,,33190,FOSSES-ET-BALEYSSAC,+33 5 56 61 77 26,http://monsite.wanadoo.fr/lesphiliberts,Clévacances,3 clés (Clévacances),Clévacances Bacchus,,0.066725,44.598312
Meublés,Non classé,Château Lagüe,,,,33126,FRONSAC,+33 5 57 51 24 68,http://lague.site.voila.fr,Clévacances,3 clés (Clévacances),,,-0.270965,44.928123
Meublés,Non classé,Meublé Gier,1692 route des Faures,,,33420,GENISSAC,+33 5 57 24 47 69,,Clévacances,2 clés (Clévacances),,,-0.203915,44.826992
Meublés,Non classé,Meublé Duplacieux ,192 chemin de Fauquey,,,33420,GENISSAC,+33 5 57 24 46 46;+33 5 57 25 38 32,,Clévacances,2 clés (Clévacances),,,-0.254265,44.859516
Meublés,3 étoiles,Meublé Talon ,4 rue de l'Eglise,,,33890,GENSAC,+33 5 57 47 47 40,,Clévacances,3 clés (Clévacances),,,0.073599,44.80731
Meublés,3 étoiles,Meublé Diez ,45 route de Depée,L'Hôpital,,33590,GRAYAN-ET-L'HOPITAL,+33 5 56 38 87 26;+33 5 56 09 51 44,,Clévacances,3 clés (Clévacances),,,-1.146265,45.380577
Meublés,2 étoiles,Le Maine Blanc,11 route des Graves,,,33230,GUITRES,+33 5 57 69 14 30,www.maineblanc.fr,Clévacances,2 clés (Clévacances),,,-0.1607070,45.037106
Meublés,2 étoiles,Le Maine Blanc,11 route des Graves,,"la maison",33230,GUITRES,+33 5 57 69 14 30,www.maineblanc.fr,Clévacances,3 clés (Clévacances),,,-0.1855770,45.0417
Meublés,Non classé,La Fontaine du Déroc,1 avenue de la Gare Touristique,,,33230,GUITRES,+33 5 57 69 15 89,,Clévacances,2 clés (Clévacances),Clévacances pêche,,-0.118323,45.056057
Meublés,2 étoiles,Meublé Dugast ,28 Q allée du Mayne,,,33470,GUJAN-MESTRAS,+33 5 56 66 83 50,www.location-vacances-bassin-arcachon.com,Clévacances,2 clés (Clévacances),,,-1.0930653,44.633358
Meublés,2 étoiles,Meublé Lavandier Tiquet,16 bis rue Pasteur,,,33470,GUJAN-MESTRAS,+33 5 56 85 35 31,,Clévacances,2 clés (Clévacances),,,-1.057534,44.641277
Meublés,2 étoiles,Meublé Pena,39 bis place du Marché,La Hume,,33470,GUJAN-MESTRAS,+33 5 56 66 20 06,,Clévacances,2 clés (Clévacances),,,-1.111355,44.638947
Meublés,2 étoiles,Meublé Doxaran ,8 allée des Papillons,La Hume,,33470,GUJAN-MESTRAS,+33 5 56 36 06 01,,Clévacances,2 clés (Clévacances),,,-1.067357,44.639854
Meublés,3 étoiles,Meublé Dugast ,28 ter allée du Mayne,,,33470,GUJAN-MESTRAS,+33 5 56 66 83 50,,Clévacances,2 clés (Clévacances),,,-1.0930653,44.633358
Meublés,3 étoiles,Meublé Mano ,37quai Port La Hume,La Hume,,33470,GUJAN-MESTRAS,+33 5 61 76 38 18,,Clévacances,3 clés (Clévacances),,,-1.116399,44.642105
Meublés,Non classé,Madame Agnès DERON,15 bis rue Pierre Daney,Maison C,,33470,GUJAN-MESTRAS,+33 6 62 65 30 50,,Clévacances,3 clés (Clévacances),,,-1.071189,44.63573
Meublés,Non classé,Gîte Taures,385 route des Lacs,,,33470,GUJAN-MESTRAS,+33 5 56 66 38 56,www.gite-taures.com,Clévacances,2 clés (Clévacances),,,-1.097222,44.582222
Meublés,Non classé,Monsieur Alain LABURTHE,39 quai Port La Hume,La Hume,,33470,GUJAN-MESTRAS,+33 5 57 52 44 10,,Clévacances,3 clés (Clévacances),,,-1.116399,44.642105
Meublés,Non classé,Meublé Philippeau ,113 route des Lacs,Lot n° 3,,33470,GUJAN-MESTRAS,+33 6 07 43 71 07;+33 6 98 91 83 50,,Clévacances,2 clés (Clévacances),,,-1.110528,44.627098
Meublés,Non classé,Meublé Faure,43 bis allée du Mayne,Meyran,,33470,GUJAN-MESTRAS,+33 5 57 42 17 63,http://locationgujan.perso.neuf.fr/index.htm,Clévacances,2 clés (Clévacances),,,-1.0929108,44.632095
Meublés,Parc résidentiel de loisirs classé,Meublé Ramos ,72 allée des Mésanges - Khélus,20 allée des Fragons,,33470,GUJAN-MESTRAS,+33 5 56 66 73 67,,Clévacances,2 clés (Clévacances),,,-1.1112928,44.618332
Meublés,Parc résidentiel de loisirs classé,Meublé Pouzergues ,268 allée des Lilas - Khélus,20 allée des Fragons,,33470,GUJAN-MESTRAS,+33 5 53 54 86 42,,Clévacances,2 clés (Clévacances),,,-1.1121940,44.62192
Meublés,Parc résidentiel de loisirs classé,Meublé Pouzergues ,306 allée des Arbousiers - Khélus,20 allée des Fragons,,33470,GUJAN-MESTRAS,+33 5 53 54 86 42,,Clévacances,2 clés (Clévacances),,,-1.1121940,44.62192
Meublés,2 étoiles,Gîte Suy Broye,36 route d'Arcachon,,,33125,HOSTENS,+33 3 88 64 33 10,http://suy.broye.33.free.fr,Clévacances,2 clés (Clévacances),,,-0.659650,44.49635
Meublés,Non classé,Meublé Vavasori ,19 rue des Métairies,Lotissement Le Pommier,,33990,HOURTIN,+33 5 56 05 59 33,,Clévacances,2 clés (Clévacances),,,-1.055969,45.210167
Meublés,3 étoiles,Le Martouret,66 rue du Martouret,,,33190,LA REOLE,+33 5 56 61 04 81,,Clévacances,2 clés (Clévacances),,,-0.041651,44.585506
Meublés,3 étoiles,Meublé Gregoire,17 rue du Moulin de Bordes,,,33260,LA TESTE-DE-BUCH,+33 5 56 66 15 90,,Clévacances,3 clés (Clévacances),,,-1.130263,44.641426
Meublés,3 étoiles,Villa Les Mouettes,21 rue Chemin des Dames,,,33260,LA TESTE-DE-BUCH,+33 5 56 54 39 28,http://mouettes.testedebuch.free.fr,Clévacances,3 clés (Clévacances),,,-1.149728,44.634735
Meublés,3 étoiles,Meublé Duverge ,62 allée Christophe Colomb,Les Miquelots,,33260,LA TESTE-DE-BUCH,+33 5 57 84 15 35,,Clévacances,3 clés (Clévacances),,,-1.143796,44.610233
Meublés,2 étoiles,Villa Pas Sans Peine,9, rue des Genêts,,,33680,LACANAU,+33 5 56 08 63 31,,Clévacances,2 clés (Clévacances),,,-1.188978,45.000774
Meublés,4 étoiles,Villa Rachel,14 rue Gabriel Dupuy,,,33680,LACANAU,+33 6 22 19 72 12,www.villa-rachel.fr,Clévacances,4 clés (Clévacances),,Handicap auditif;Handicap mental,-1.1982285,45.000435
Meublés,Non classé,Meublé Afonso,Méogas,,,33680,LACANAU,+33 5 56 74 65 38,,Clévacances,3 clés (Clévacances),,,-1.008817,44.999306
Meublés,Non classé,Le Maine Pommier,Domaine du Maine Pommier,1 lieu dit Maine Pommier,,33230,LAGORCE,+33 5 57 69 11 48,http://mainepommier.jimdo.com,Clévacances,1 clé (Clévacances),,,-0.130882,45.09542
Meublés,Non classé,Le Maine Pommier,Domaine du Maine Pommier,1 lieu dit Maine Pommier,,33230,LAGORCE,+33 5 57 69 11 48,http://mainepommier.jimdo.com,Clévacances,1 clé (Clévacances),,,-0.130882,45.09542
Meublés,Non classé,Le Maine Pommier,Domaine du Maine Pommier,1 lieu dit Maine Pommier,,33230,LAGORCE,+33 5 57 69 11 48,http://mainepommier.jimdo.com,Clévacances,1 clé (Clévacances),,,-0.130882,45.09542
Meublés,Non classé,Le Maine Pommier,Domaine du Maine Pommier,1 lieu dit Maine Pommier,,33230,LAGORCE,+33 5 57 69 11 48,http://mainepommier.jimdo.com,Clévacances,1 clé (Clévacances),,,-0.130882,45.09542
Meublés,Non classé,Le Maine Pommier,Domaine du Maine Pommier,1 lieu dit Maine Pommier,,33230,LAGORCE,+33 5 57 69 11 48,http://mainepommier.jimdo.com,Clévacances,1 clé (Clévacances),,,-0.130882,45.09542
Meublés,Non classé,Le Maine Pommier,Domaine du Maine Pommier,1 lieu dit Maine Pommier,,33230,LAGORCE,+33 5 57 69 11 48,http://mainepommier.jimdo.com,Clévacances,1 clé (Clévacances),,,-0.130882,45.09542
Meublés,Non classé,Le Maine Pommier,Domaine du Maine Pommier,1 lieu dit Maine Pommier,,33230,LAGORCE,+33 5 57 69 11 48,http://mainepommier.jimdo.com,Clévacances,1 clé (Clévacances),,,-0.130882,45.09542
Meublés,Non classé,Le Maine Pommier,Domaine du Maine Pommier,1 lieu dit Maine Pommier,,33230,LAGORCE,+33 5 57 69 11 48,http://mainepommier.jimdo.com,Clévacances,1 clé (Clévacances),,,-0.130882,45.09542
Meublés,Non classé,Le Maine Pommier,Domaine du Maine Pommier,1 lieu dit Maine Pommier,,33230,LAGORCE,+33 5 57 69 11 48,http://mainepommier.jimdo.com,Clévacances,1 clé (Clévacances),,,-0.130882,45.09542
Meublés,Non classé,Le Maine Pommier,Domaine du Maine Pommier,1 lieu dit Maine Pommier,,33230,LAGORCE,+33 5 57 69 11 48,http://mainepommier.jimdo.com,Clévacances,1 clé (Clévacances),,,-0.130882,45.09542
Meublés,Non classé,Le Maine Pommier,Domaine du Maine Pommier,1 lieu dit Maine pommier,,33230,LAGORCE,+33 5 57 69 11 48,http://mainepommier.jimdo.com,Clévacances,1 clé (Clévacances),,,-0.130882,45.09542
Meublés,Non classé,Le Maine Pommier,Domaine du Maine Pommier,1 lieu dit Maine Pommier,,33230,LAGORCE,+33 5 57 69 11 48,http://mainepommier.jimdo.com,Clévacances,1 clé (Clévacances),,,-0.130882,45.09542
Meublés,Non classé,Le Maine Pommier,Domaine du Maine Pommier,1 lieu dit Maine Pommier,,33230,LAGORCE,+33 5 57 69 11 48,http://mainepommier.jimdo.com,Clévacances,1 clé (Clévacances),,,-0.130882,45.09542
Meublés,Non classé,Le Maine Pommier,Domaine du Maine Pommier,1 lieu dit Maine Pommier,,33230,LAGORCE,+33 5 57 69 11 48,http://mainepommier.jimdo.com,Clévacances,1 clé (Clévacances),,,-0.1391016,45.069263
Meublés,2 étoiles,Résidence le Port Neuf,Avenue Guyemer,Appartement numéro 7,,33138,LANTON,+33 6 11 50 21 40;+33 6 29 54 60 69,www.vacances-arcachon.eu,Clévacances,2 clés (Clévacances),,,-1.046884,44.710556
Meublés,Non classé,Résidence le Port Neuf,Avenue Guyemer,Appt n° 6,,33138,LANTON,+33 5 53 41 29 36,,Clévacances,2 clés (Clévacances),,,-1.047212,44.710625
Meublés,Non classé,Meublé Dupouy,13 chemin de la Gare,,,33430,LE NIZAN,+33 5 56 25 25 15,,Clévacances,2 clés (Clévacances),,,-0.2928901,44.462555
Meublés,Non classé,Meublé Lacouture,28 rue du Lieutenant Rouch,,,33550,LE TOURNE,+33 5 56 67 62 29,,Clévacances,2 clés (Clévacances),,,-0.402042,44.709503
Meublés,2 étoiles,Meublé Colas,38 avenue Ouest,Cap Ferret,La Pointe,33950,LEGE-CAP FERRET,+33 5 59 26 84 52,,Clévacances,1 clé (Clévacances),,,-1.249398,44.626266
Meublés,2 étoiles,Meublé Rolland ,16 rue du Port,Claouey,Appt n° 16,33970,LEGE-CAP FERRET,+33 5 57 40 62 04,,Clévacances,2 clés (Clévacances),,,-1.178177,44.745075
Meublés,3 étoiles,Meublé Benkert ,2 avenue de la Plaine,Lège,,33950,LEGE-CAP FERRET,+33 5 59 21 05 46,,Clévacances,3 clés (Clévacances),,,-1.1446255,44.7989
Meublés,4 étoiles,Meublé Guignard ,18 allée de la Chapelle,Piraillan,,33950,LEGE-CAP FERRET,+33 5 56 62 38 63,http://pierreguignard.hypersimple.eu,Clévacances,4 clés (Clévacances),,,-1.230746,44.705967
Meublés,Non classé,Square Habitat,13 rue de l'Océan,Appt n°26 Résidence les Canonniers,Le Canon,33970,LEGE-CAP FERRET,+33 5 56 03 96 30,www.aquitaine.squarehabitat.fr,Clévacances,2 clés (Clévacances),,,-1.2457898,44.651585
Meublés,Non classé,Domaine les Jourdis,2 les Jourdis,,,33220,LES LEVES-ET-THOUMEYRAGUES,+33 5 57 40 72 88,www.domainelesjourdis.com,Clévacances,4 clés (Clévacances),Clévacances Bacchus,,0.1729153,44.80538
Meublés,2 étoiles,Meublé Petiteau ,11 la Pluie,,,33230,LES PEINTURES,+33 9 52 97 67 01,,Clévacances,2 clés (Clévacances),,,-0.0923389,45.07627
Meublés,2 étoiles,Meublé Noailles ,7, route de Pauillac,Canquillac,,33340,LESPARRE-MEDOC,+33 5 56 41 08 23,,Clévacances,2 clés (Clévacances),,,-0.9047476,45.288975
Meublés,Non classé,Meublé Theodor ,3 cours des Girondins,,,33500,LIBOURNE,+33 6 81 01 76 43,,Clévacances,3 clés (Clévacances),Clévacances Bacchus,,-0.24762,44.91282
Meublés,2 étoiles,Meublé Artaud ,30 route de la Lande,,,33360,LIGNAN-DE-BORDEAUX,+33 5 56 21 90 66,http://monsite.orange.fr/cinqchemins,Clévacances,2 clés (Clévacances),,,-0.461100,44.76847
Meublés,2 étoiles,Desclaux,1 route de Sainte-Croix-du-Mont,Lieu dit Desclaux,,33410,LOUPIAC,+33 5 56 76 96 99,,Clévacances,2 clés (Clévacances),,,-0.2966523,44.62027
Meublés,3 étoiles,Gîte La Palombière,54 le Bourg,,,33840,LUCMAU,+33 5 56 65 87 25,www.gite-lapalombiere.com,Clévacances,3 clés (Clévacances),,,-0.308025,44.34275
Meublés,Non classé,Meublé Altamira,2 l'Hermitage,,,33240,LUGON-ET-L'ILE-DU-CARNAY,+33 5 57 84 48 54,,Clévacances,2 clés (Clévacances),,,-0.3512191,44.940258
Meublés,Non classé,Domaine de Beaucaillat,23 Beaucaillat,,,33230,MARANSIN,+33 5 57 69 46 87,http://beaucaillat.jimdo.com/,Clévacances,2 clés (Clévacances),,,-0.2742490,45.063927
Meublés,2 étoiles,Meublé Delaval ,43 route de Gassian,,,33380,MIOS,+33 5 56 26 62 41,,Clévacances,2 clés (Clévacances),,,-0.9392315,44.57735
Meublés,3 étoiles,La Girondine,65 route de Curchade,,,33380,MIOS,+33 6 26 99 33 66,,Clévacances,2 clés (Clévacances),,,-0.9326999,44.571285
Meublés,3 étoiles,La Landaise,67 route de Curchade,,,33380,MIOS,+33 6 26 99 33 66,,Clévacances,2 clés (Clévacances),,,-0.93414,44.56947
Meublés,Non classé,Meublé Doize ,28 route des Douils,Lacanau-de-Mios,,33380,MIOS,+33 5 57 71 17 03,,Clévacances,2 clés (Clévacances),Clévacances pêche,,-0.896752,44.631245
Meublés,Non classé,Meublé Roque,29 rue de Crastalis,,,33380,MIOS,+33 5 56 04 42 54,,Clévacances,3 clés (Clévacances),,,-0.8868026,44.59432
Meublés,Non classé,La Maison du Miquelet,60 rue Latraine,,,33580,MONSEGUR,+33 5 56 61 81 51,http://perso.wanadoo.fr/miquelet.monsegur/html,Clévacances,3 clés (Clévacances),,,0.078163,44.649017
Meublés,3 étoiles,Gîte Le Lys,Lys de Maison Neuve,,,33570,MONTAGNE,+33 6 45 45 32 55,www.gitelelys.fr,Clévacances,3 clés (Clévacances),Clévacances Bacchus,,-0.1126,44.9106
Meublés,2 étoiles,Gîte le Tilleul,4 bis Giraude,,,33420,NAUJAN-ET-POSTIAC,+33 5 57 84 69 07,,Clévacances,2 clés (Clévacances),,,-0.1837969,44.78893
Meublés,Parc résidentiel de loisirs classé,La Grange du Gélat,2 Le Gélat,Route d'Antonion,,33730,NOAILLAN,+33 5 56 25 37 18,www.gites-sud-gironde.com,Clévacances,2 clés (Clévacances),,,-0.3803185,44.483837
Meublés,Parc résidentiel de loisirs classé,La Grange du Gélat,2 Le Gélat,Route d'Antonion,,33730,NOAILLAN,+33 5 56 25 37 18,www.gites-sud-gironde.com,Clévacances,2 clés (Clévacances),,,-0.3803185,44.483837
Meublés,Parc résidentiel de loisirs classé,La Grange du Gélat,2 Le Gélat,Route d'Antonion,,33730,NOAILLAN,+33 5 56 25 37 18,www.gites-sud-gironde.com,Clévacances,2 clés (Clévacances),,,-0.3803185,44.483837
Meublés,Parc résidentiel de loisirs classé,La Grange du Gélat,2 Le Gélat,Route d'Antonion,,33730,NOAILLAN,+33 5 56 25 37 18,www.gites-sud-gironde.com,Clévacances,2 clés (Clévacances),,,-0.3838499,44.48354
Meublés,Parc résidentiel de loisirs classé,La Grange du Gélat,2 Le Gélat,Route d'Antonion,,33730,NOAILLAN,+33 5 56 25 37 18,www.gites-sud-gironde.com,Clévacances,2 clés (Clévacances),,,-0.3838499,44.483837
Meublés,Parc résidentiel de loisirs classé,La Grange du Gélat,2 Le Gélat,Route d'Antonion,,33730,NOAILLAN,+33 5 56 25 37 18,www.gites-sud-gironde.com,Clévacances,3 clés (Clévacances),,,-0.3838499,44.48354
Meublés,Non classé,Gîte Aigle Royal,13 allée de Bordes,,,33290,PAREMPUYRE,+33 5 56 35 01 09,,Clévacances,2 clés (Clévacances),,,-0.5625343,44.957054
Meublés,Non classé,Gîte de la Bécassine,13 allée de Bordes,,,33290,PAREMPUYRE,+33 5 56 35 01 09,,Clévacances,2 clés (Clévacances),,,-0.5625343,44.957054
Meublés,4 étoiles,Maison Eden,Lieu dit Gréal,,,33890,PESSAC-SUR-DORDOGNE,+33 5 57 47 41 59,www.maison-greal.com,Clévacances,4 clés (Clévacances),Clévacances Bacchus,,0.098397,44.823013
Meublés,Non classé,Maison Les Crèches,Lieu dit Gréal,,,33890,PESSAC-SUR-DORDOGNE,+33 5 57 47 41 59,www.maison-greal.com,Clévacances,3 clés (Clévacances),Clévacances Bacchus,,0.098397,44.823013
Meublés,Non classé,Meublé Rodrigues ,1 Guillemat,,,33890,PESSAC-SUR-DORDOGNE,+33 5 57 47 40 73,,Clévacances,2 clés (Clévacances),,,0.091002,44.82267
Meublés,Non classé,Gîte des Graves,34 cours du Maréchal Foch,,,33720,PODENSAC,+33 5 56 27 35 03,www.gitedesgraves33.fr,Clévacances,2 clés (Clévacances),,,-0.3596302,44.653137
Meublés,2 étoiles,Gîte Salix - Viminalis,1 Croix,,,33190,PONDAURAT,+33 5 56 61 22 27,www.gitessalix.com,Clévacances,2 clés (Clévacances),,,-0.07901,44.54718
Meublés,3 étoiles,Gîte Salix - Alba,1 Croix,,,33190,PONDAURAT,+33 5 56 61 22 27,www.gitessalix.com,Clévacances,3 clés (Clévacances),,,-0.07901,44.54718
Meublés,Non classé,Gîte Salix - Purpuréa,1 Croix,,,33190,PONDAURAT,+33 5 56 61 22 27,www.gitessalix.com,Clévacances,3 clés (Clévacances),,Handicap auditif;Handicap mental;Handicap moteur,-0.07901,44.54718
Meublés,3 étoiles,Domaine de Bellevue,33 route de Mathas,Appt ST Mezz,,33640,PORTETS,+33 5 56 24 68 61,,Clévacances,3 clés (Clévacances),,,-0.4076736,44.684883
Meublés,Non classé,Vignobles Lavau ,Terrasson,Monbadon,,33570,PUISSEGUIN,+33 5 57 40 60 55;+33 5 57 40 59 13,www.vignobles-lavau.com,Clévacances,2 clés (Clévacances),,,-0.032890,44.92946
Meublés,2 étoiles,Meublé Mailliez ,8 allée Messidor,,,33115,PYLA-SUR-MER,+33 2 54 70 75 38,,Clévacances,2 clés (Clévacances),,,-1.182986,44.640846
Meublés,2 étoiles,Villa Mimi Pinson,201, boulevard de l'Océan,Appt n° 8,,33115,PYLA-SUR-MER,+33 5 56 21 92 36,,Clévacances,1 clé (Clévacances),,,-1.201609,44.619225
Meublés,3 étoiles,Meublé Roumegous,31 avenue des Pluviers,,,33115,PYLA-SUR-MER,+33 5 56 21 92 91,,Clévacances,3 clés (Clévacances),,,-1.198016,44.620373
Meublés,Non classé,Meublé Martinet ,201 boulevard de l'Océan,,,33115,PYLA-SUR-MER,+33 5 56 36 60 62,,Clévacances,1 clé (Clévacances),,,-1.201613,44.619164
Meublés,Non classé,Le manoir lacustre,8 rue de la Gravière,,,33340,QUEYRAC,+33 5 56 59 30 36,,Clévacances,4 clés (Clévacances),,Handicap auditif;Handicap mental;Handicap moteur,-0.9834122,45.36284
Meublés,4 étoiles,Les Maillets,,,,33220,RIOCAUD,+33 5 47 84 94 69,www.lesmaillets.fr,Clévacances,3 clés (Clévacances),,,0.1989759,44.77026
Meublés,Non classé,Chambres en vigne,28 le bourg,,,33350,RUCH,+33 5 57 49 62 17,www.chambresenvigne.com,Clévacances,3 clés (Clévacances),Clévacances Bacchus,,-0.0366926,44.774754
Meublés,Non classé,Meublé communal Ruch,rue Théo Turier,,,33350,RUCH,+33 5 57 40 54 36,,Clévacances,3 clés (Clévacances),,,-0.047323,44.84318
Meublés,Non classé,Meublé communal Ruch,Saguet,,,33350,RUCH,+33 5 57 40 54 36,,Clévacances,2 clés (Clévacances),,,-0.047323,44.84318
Meublés,3 étoiles,Château La Gontrie - Le Pigeonnier,13 chemin de Fosse Ferrière,,,33880,SAINT-CAPRAIS-DE-BORDEAUX,+33 5 56 21 34 21,www.chateaulagontrie.net,Clévacances,3 clés (Clévacances),,,-0.441930,44.738804
Meublés,3 étoiles,Château la Gontrie - Le Relais,13 chemin de Fosse Ferrière,,,33880,SAINT-CAPRAIS-DE-BORDEAUX,+33 5 56 21 34 21,www.chateaulagontrie.net,Clévacances,3 clés (Clévacances),,,-0.441930,44.738804
Meublés,3 étoiles,Château La Gontrie - Les Grands Mères,13 chemin de Fosse Ferrière,,,33880,SAINT-CAPRAIS-DE-BORDEAUX,+33 5 56 21 34 21,www.chateaulagontrie.net,Clévacances,3 clés (Clévacances),,,-0.441930,44.738804
Meublés,3 étoiles,Château la Gontrie - Magnolia,13 chemin de Fosse Ferrière,,,33880,SAINT-CAPRAIS-DE-BORDEAUX,+33 5 56 21 34 21,www.chateaulagontrie.net,Clévacances,3 clés (Clévacances),,,-0.441930,44.738804
Meublés,Non classé,Gîte "Au pied levé",15 route de Tabanac,,,33880,SAINT-CAPRAIS-DE-BORDEAUX,+33 6 78 78 95 08,,Clévacances,2 clés (Clévacances),,,-0.4181308,44.74497
Meublés,3 étoiles,Clos de Grange Vieille,2 route de Breuil,,,33340,SAINT-CHRISTOLY-MEDOC,+33 5 56 41 38 26,,Clévacances,2 clés (Clévacances),Clévacances Bacchus,,-0.832833,45.351414
Meublés,2 étoiles,Meublé Thienpont ,15 le Bourg,,,33570,SAINT-CIBARD,+33 5 57 56 05 45,,Clévacances,3 clés (Clévacances),,Handicap auditif;Handicap mental;Handicap moteur,-0.0240325,44.93661
Meublés,Non classé,Meublé Tinon,2 La Grave,,,33410,SAINTE-CROIX-DU-MONT,+33 5 56 76 16 53,,Clévacances,3 clés (Clévacances),,,-0.259056,44.59519
Meublés,2 étoiles,Château les Bouzigues,Maison Merlot,,,33580,SAINTE-GEMME,+33 5 56 61 80 77,chateau-les-bouzigues.com,Clévacances,2 clés (Clévacances),,,0.0694039,44.61969
Meublés,2 étoiles,Château les Bouzigues,Maison Cabernet,,,33580,SAINTE-GEMME,+33 5 56 61 80 77,chateau-les-bouzigues.com,Clévacances,2 clés (Clévacances),,,0.0694039,44.61969
Meublés,4 étoiles,Le Melchior,5 route du grand Jeannot,,,33350,SAINTE-TERRE,+33 6 81 91 80 56;+33 6 87 21 89 37,www.lemelchior.fr,Clévacances,3 clés (Clévacances),,Handicap auditif;Handicap mental;Handicap moteur,-0.1123094,44.829105
Meublés,2 étoiles,Appart'Hotel les Tilleuls,16 allée des Tilleuls,Appt n° 5,,33490,SAINT-MACAIRE,+33 5 56 62 28 38,www.tilleul-medieval.com,Clévacances,2 clés (Clévacances),,,-0.2265930,44.56557
Meublés,2 étoiles,Appart'Hotel les Tilleuls,16 allée des Tilleuls,Appt n° 6,,33490,SAINT-MACAIRE,+33 5 56 62 28 38,www.tilleul-medieval.com,Clévacances,2 clés (Clévacances),,,-0.2265930,44.56557
Meublés,3 étoiles,Domaine de Dame Blanche,9 rue Chanzy,,,33490,SAINT-MACAIRE,+33 5 56 76 23 44,www.domainededameblanche.com,Clévacances,3 clés (Clévacances),,,-0.224431,44.567104
Meublés,3 étoiles,Thuron Palais,8 rue du Palais,,,33490,SAINT-MACAIRE,+33 5 56 63 39 41,,Clévacances,3 clés (Clévacances),,,-0.222909,44.565975
Meublés,Non classé,Meublé Bathazard ,1 lieu dit Jambon,,,33840,SAINT-MICHEL-DE-CASTELNAU,+33 5 56 65 80 26,,Clévacances,3 clés (Clévacances),,,-0.119702,44.269802
Meublés,4 étoiles,Château Haut Pelletan,Marchand,,,33220,SAINT-QUENTIN-DE-CAPLONG,+33 5 57 41 22 51,www.chateau-hautpelletan.com,Clévacances,4 clés (Clévacances),,,0.115532,44.795254
Meublés,Non classé,Meublé Cachard ,140 route de Cadillac,,,33240,SAINT-ROMAIN-LA-VIRVEE,+33 5 57 58 22 38,,Clévacances,2 clés (Clévacances),Clévacances Bacchus,,-0.393398,44.9667
Meublés,2 étoiles,Meublé Stern ,4 rue de l'Agenais,,,33510,ANDERNOS-LES-BAINS,+33 5 56 03 08 99,,Clévacances,2 clés (Clévacances),,,-1.0741916,44.731525
Meublés,2 étoiles,Résidence Lobélia - Appt RDC,2 boulevard de la Plage,,,33510,ANDERNOS-LES-BAINS,+33 5 56 82 15 99,,Clévacances,3 clés (Clévacances),,,-1.106517,44.74421
Meublés,2 étoiles,Meublé Biguey ,27 boulevard de l'Union,,,33510,ANDERNOS-LES-BAINS,+33 5 53 66 32 16,,Clévacances,2 clés (Clévacances),,,-1.084806,44.73059
Meublés,3 étoiles,Meublé Morvan ,23 rue Edouard Branly,,,33510,ANDERNOS-LES-BAINS,+33 1 40 61 99 60,,Clévacances,3 clés (Clévacances),,,-1.086781,44.741917
Meublés,4 étoiles,Meublé Drape,15 rue Claude Forbin,,,33510,ANDERNOS-LES-BAINS,+33 5 53 66 47 20;+33 9 75 75 39 59,,Clévacances,4 clés (Clévacances),,,-1.079406,44.757553
Meublés,Non classé,Meublé Puissant,9 boulevard de l'Union,,,33510,ANDERNOS-LES-BAINS,+33 6 80 15 03 30,,Clévacances,3 clés (Clévacances),,,-1.0868203,44.72868
Meublés,Non classé,Meublé Oudart ,15 avenue Ludwig Van Beethoven,,,33510,ANDERNOS-LES-BAINS,+33 6 84 38 31 78,,Clévacances,3 clés (Clévacances),,,-1.0810658,44.740803
Meublés,Non classé,Meublé Bazinette,50 bis boulevard de l'Union,,,33510,ANDERNOS-LES-BAINS,+33 5 56 87 51 63,,Clévacances,3 clés (Clévacances),,,-1.083709,44.731766
Meublés,Non classé,Atlantic Vacances,42 avenue Jean-Marcel Despagne,,,33510,ANDERNOS-LES-BAINS,+33 5 56 60 33 33,www.atlantic-vacances.com,Clévacances,1 clé (Clévacances),,,-1.0975826,44.748413
Meublés,Non classé,Atlantic Vacances,42 avenue Jean-Marcel Despagne,Saint-Emilion,,33510,ANDERNOS-LES-BAINS,+33 5 56 60 33 33,www.atlantic-vacances.com,Clévacances,1 clé (Clévacances),,,-1.096213,44.749714
Meublés,Non classé,Atlantic Vacances,42 avenue Jean-Marcel Despagne,Saint-Emilion,,33510,ANDERNOS-LES-BAINS,+33 5 56 60 33 33,www.atlantic-vacances.com,Clévacances,1 clé (Clévacances),,,-1.0975826,44.748413
Meublés,Non classé,Atlantic Vacances,42 avenue Jean-Marcel Despagne,Saint-Emilion,,33510,ANDERNOS-LES-BAINS,+33 5 56 60 33 33,www.atlantic-vacances.com,Clévacances,1 clé (Clévacances),,,-1.097612,44.748344
Meublés,Non classé,Square Habitat,11 rue des Chevrefeuilles,,,33510,ANDERNOS-LES-BAINS,+33 5 56 03 96 30,www.aquitaine.squarehabitat.fr,Clévacances,2 clés (Clévacances),,,-1.0812977,44.737972
Meublés,Non classé,Square Habitat,Résidence le Casino,Place Louis David,Appt n°9,33510,ANDERNOS-LES-BAINS,+33 5 56 03 96 30,www.aquitaine.squarehabitat.fr,Clévacances,2 clés (Clévacances),,,-1.102449,44.743538
Meublés,2 étoiles,Résidence Clara,9 allée des Oiseaux,Appt n° 20,,33120,ARCACHON,+33 5 56 20 55 78,,Clévacances,2 clés (Clévacances),,,-1.158180,44.660324
Meublés,2 étoiles,Résidence Port Arcachon,Rue du Capitaine Allègre,Bât. A - Appt 1007,,33120,ARCACHON,+33 5 56 45 24 92,,Clévacances,2 clés (Clévacances),,,-1.146361,44.657482
Meublés,2 étoiles,Meublé Lalanne ,121 cours Desbiey,Côté rue,,33120,ARCACHON,+33 5 56 28 18 52,,Clévacances,2 clés (Clévacances),,,-1.171018,44.659508
Meublés,2 étoiles,Résidence Les Deux Esteys,7/9 boulevard Chanzy,Appt 1,,33120,ARCACHON,+33 5 65 32 65 80;+33 5 65 37 73 10,,Clévacances,2 clés (Clévacances),,,-1.140872,44.653633
Meublés,2 étoiles,Meublé Judde ,3 allée Girardeau,,,33120,ARCACHON,+33 5 56 83 72 41,,Clévacances,2 clés (Clévacances),,,-1.173999,44.655323
Meublés,2 étoiles,Résidence Port Soleil - Entrée B,16 quai du Capitaine Allégre,Appt n° 136,,33120,ARCACHON,+33 5 56 27 11 68,,Clévacances,2 clés (Clévacances),,,-1.144622,44.656837
Meublés,2 étoiles,Meublé Nadal ,44 rue François Legallais,,,33120,ARCACHON,+33 5 53 90 32 45,,Clévacances,2 clés (Clévacances),,,-1.174434,44.66006
Meublés,2 étoiles,Résidence Arguin 2,94 cours Desbiey,Centurion - Appt 408,,33120,ARCACHON,+33 5 57 88 10 99,,Clévacances,2 clés (Clévacances),,,-1.168693,44.65876
Meublés,3 étoiles,Gîte Isalain,Résidence Arcachon Marine,Rue Règue Blanque,Appt K3,33120,ARCACHON,+33 5 57 52 63 64,,Clévacances,3 clés (Clévacances),,,-1.149931,44.654778
Meublés,3 étoiles,Villa Surprise,19 avenue Louis Garros,Le Moulleau,,33120,ARCACHON,+33 1 47 22 80 66,http://villasurprise2.monsite-orange.fr,Clévacances,3 clés (Clévacances),Clévacances affaires,,-1.200449,44.640488
Meublés,3 étoiles,Résidence Eugénie,133 boulevard de la Plage,Appt n° 413,,33120,ARCACHON,+33 5 56 83 09 10,,Clévacances,3 clés (Clévacances),,,-1.164020,44.662548
Meublés,3 étoiles,Meublé Delol ,4 avenue Jean Farges,,,33120,ARCACHON,+33 1 48 89 84 28,,Clévacances,3 clés (Clévacances),,,-1.160927,44.6577
Meublés,3 étoiles,Les Villas de l'Aiguillon,28 boulevard Pierre Loti,appt 5,,33120,ARCACHON,+33 5 57 84 15 35,,Clévacances,3 clés (Clévacances),,,-1.1436724,44.652916
Meublés,3 étoiles,Meublé Lalanne ,121 cours Desbiey,Côté fond,,33120,ARCACHON,+33 5 56 97 81 11,,Clévacances,2 clés (Clévacances),,,-1.171018,44.659508
Meublés,4 étoiles,Résidence Europe ,30 avenue du Général de Gaulle,Résidence Europe - RDC droite,,33120,ARCACHON,+33 6 09 71 74 54,,Clévacances,3 clés (Clévacances),,,-1.1648726,44.660076
Meublés,Non classé,Meublé Chassan ,240 boulevard de la Côte d'Argent,Résidence Les Jardins du Moulleau,Le Moulleau,33120,ARCACHON,+33 5 33 48 27 64,,Clévacances,3 clés (Clévacances),,,-1.20168,44.64108
Meublés,Non classé,Meublé Grosset ,121 bis cours Desbiey,,,33120,ARCACHON,+33 5 56 37 48 58,,Clévacances,2 clés (Clévacances),,,-1.171018,44.659508
Meublés,Non classé,Résidence la Grand Voile,52 boulevard de la Plage,Appt n° 1107,,33120,ARCACHON,+33 5 55 39 96 07,,Clévacances,2 clés (Clévacances),,,-1.1521321,44.658802
Meublés,Non classé,Résidence Baccara - Appt n° 42,7 avenue Nelly Deganne,,,33120,ARCACHON,+33 5 56 07 28 14,,Clévacances,2 clés (Clévacances),,,-1.163714,44.662067
Meublés,Non classé,Villa Bacon,3 allée Sully,Appt n° 6,,33120,ARCACHON,+33 5 56 86 47 83,,Clévacances,3 clés (Clévacances),,,-1.1692000,44.6528
Meublés,Non classé,Meublé Leuger ,26 rue Saint-Elme,,,33120,ARCACHON,+33 5 56 54 94 73,,Clévacances,2 clés (Clévacances),,,-1.152806,44.651466
Meublés,2 étoiles,Meublé Migues ,20 bis rue Pasteur,,,33740,ARES,+33 5 56 60 18 58,,Clévacances,2 clés (Clévacances),,,-1.136734,44.762943
Meublés,2 étoiles,Meublé Chenais ,Les Hauts d'Arès,26, avenue Toulouse Lautrec,,33740,ARES,+33 5 57 70 72 63,www.efeemer.franceserv.com,Clévacances,2 clés (Clévacances),,,-1.1232950,44.764874
Meublés,2 étoiles,Meublé Videau,9 rue Brémontier,,,33740,ARES,+33 5 56 60 24 38,,Clévacances,2 clés (Clévacances),,,-1.136344,44.770233
Meublés,2 étoiles,Atlantic Vacances,rue des Ecoles,N° 1,,33740,ARES,+33 5 56 60 33 33,www.atlantic-vacances.com,Clévacances,1 clé (Clévacances),,,-1.139080,44.76373
Meublés,2 étoiles,Atlantic Vacances,rue des Ecoles,N° 2,,33740,ARES,+33 5 56 60 33 33,www.atlantic-vacances.com,Clévacances,1 clé (Clévacances),,,-1.1389609,44.763515
Meublés,2 étoiles,Atlantic Vacances,rue des Ecoles,N° 3,,33740,ARES,+33 5 56 60 33 33,www.atlantic-vacances.com,Clévacances,1 clé (Clévacances),,,-1.1389609,44.763515
Meublés,2 étoiles,Meublé Peral ,40 rue du XIV Juillet,,,33740,ARES,+33 5 56 60 30 07,,Clévacances,2 clés (Clévacances),,,-1.1403883,44.767185
Meublés,2 étoiles,Square Habitat,Résidence du Chenal,18 rue des Abberts,Maison B04,33740,ARES,+33 5 56 03 96 30,www.aquitaine.squarehabitat.fr,Clévacances,2 clés (Clévacances),,,-1.1433693,44.771225
Meublés,Non classé,Meublé Thurm,63 route de Bordeaux,,,33740,ARES,+33 1 45 46 53 91;+33 5 58 85 29 05,,Clévacances,2 clés (Clévacances),,,-1.126720,44.769325
Meublés,Non classé,Meublé Villeneuve ,10 rue Cavaley,,,33740,ARES,+33 5 56 09 48 34,,Clévacances,2 clés (Clévacances),,,-1.135457,44.761845
Meublés,Non classé,Square Habitat,13 rue Brémontier,,,33740,ARES,+33 5 56 03 96 30,www.aquitaine.squarehabitat.fr,Clévacances,2 clés (Clévacances),,,-1.1388548,44.770176
Meublés,Non classé,Square Habitat,4 rue Diego Velasquez,,,33740,ARES,+33 5 56 03 96 30,www.aquitaine.squarehabitat.fr,Clévacances,2 clés (Clévacances),,,-1.127476,44.768806
Meublés,Non classé,Square Habitat,8 avenue Toulouse Lautrec,,,33740,ARES,+33 5 56 03 96 30,www.aquitaine.squarehabitat.fr,Clévacances,2 clés (Clévacances),,,-1.1280289,44.768047
Meublés,Non classé,Square Habitat,9 rue des Girolles,,,33740,ARES,+33 5 56 03 96 30,www.aquitaine.squarehabitat.fr,Clévacances,2 clés (Clévacances),,,-1.1385869,44.77203
Meublés,3 étoiles,Meublé Gondat ,7 allée de la Haille,Le Gravier,,33460,ARSAC,+33 5 49 21 34 35,,Clévacances,2 clés (Clévacances),,,-0.682579,44.99201
Meublés,2 étoiles,Meublé Dornon ,36 rue de Comprian,,,33980,AUDENGE,+33 5 56 26 81 47,,Clévacances,2 clés (Clévacances),,,-1.008725,44.67459
Meublés,Non classé,Gîte Bleurette,,,,33790,AURIOLLES,+33 5 56 61 48 63,www.gite-bleurette.com,Clévacances,3 clés (Clévacances),,,0.032676,44.737953
Meublés,3 étoiles,Maison Desbarrats,Lieu dit Desbarrats,Lieu dit Desbarrats,,33880,BAURECH,+33 5 56 67 07 85,,Clévacances,3 clés (Clévacances),,,-0.421119,44.73501
Meublés,3 étoiles,Villa Baurech,649 route de Bordeaux,,,33880,BAURECH,+33 5 56 78 75 09,www.lavillabaurech.com,Clévacances,3 clés (Clévacances),,,-0.4659979,44.73276
Meublés,Non classé,Gîte de Bordeaux,64 rue Anatole France,,,33130,BEGLES,+33 6 07 43 19 85,www.gitedebordeaux.com,Clévacances,2 clés (Clévacances),,,-0.5582453,44.811493
Meublés,Non classé,La Brousteleyre,2 La Goilane,Appt n° 2,,33760,BELLEFOND,+33 5 56 23 41 30,www.labrousteleyre.fr,Clévacances,3 clés (Clévacances),,,-0.1815962,44.762306
Meublés,Non classé,La Brousteleyre,2 la Goilane,Appt n° 3,,33760,BELLEFOND,+33 5 56 23 41 30,www.labrousteleyre.fr,Clévacances,3 clés (Clévacances),,,-0.1815962,44.762306
Meublés,2 étoiles,Meublé Lavaud ,44 rue Victor Hugo,,,33380,BIGANOS,+33 5 56 82 63 42,,Clévacances,2 clés (Clévacances),,,-0.981123,44.639984
Meublés,2 étoiles,Résidence Le Montré,4 rue Montesquieu,Appt n° 204,,33000,BORDEAUX,+33 5 57 24 30 28,,Clévacances,2 clés (Clévacances),,,-0.5872690,44.83501
Meublés,2 étoiles,Visit in Bordeaux,29 bis rue du Tondu,Appartement 1er étage,Margaux,33000,BORDEAUX,+33 5 56 31 10 10,www.bordeaux-location-appartement.com,Clévacances,3 clés (Clévacances),Clévacances affaires,,-0.5872690,44.83501
Meublés,2 étoiles,Visit in Bordeaux,29 bis rue du Tondu,Appartement 2nd étage,Saint-Estèphe,33000,BORDEAUX,+33 5 56 31 10 10,www.bordeaux-location-appartement.com,Clévacances,3 clés (Clévacances),Clévacances affaires,,-0.5872690,44.83501
Meublés,2 étoiles,Visit in Bordeaux,29 bis rue du Tondu,Appartement RDC,Médoc,33000,BORDEAUX,+33 5 56 31 10 10,www.bordeaux-location-appartement.com,Clévacances,3 clés (Clévacances),Clévacances affaires,,-0.5872690,44.83501
Meublés,2 étoiles,Visit in Bordeaux,4 rue Blaise Pascal,Saint-Emilion,,33000,BORDEAUX,+33 5 56 31 10 10,www.bordeaux-location-appartement.com,Clévacances,3 clés (Clévacances),Clévacances affaires,,-0.5680252,44.815605
Meublés,3 étoiles,Meublé Fontan ,4 rue Poquelin Molière,Appt 2nd étage gauche,,33000,BORDEAUX,15 148 068 071,,Clévacances,3 clés (Clévacances),Clévacances affaires,,-0.5762465,44.840023
Meublés,Non classé,Les chambres de Saint Augustin,36 ter rue Joseph le Brix,,,33000,BORDEAUX,+33 5 24 18 15 12,www.chambres-hote-bordeaux.com,Clévacances,2 clés (Clévacances),,,-0.6117308,44.831192
Meublés,Non classé,L'Hôtel Particulier,44 rue Vital-Carles,Appt n° 4 - Meublé Camille Julian,Place Camille Julian,33000,BORDEAUX,+33 5 57 88 28 80,www.lhotel-particulier.com,Clévacances,3 clés (Clévacances),,,-0.5779504,44.83887
Meublés,Non classé,Le Mimosa,16 rue des Mimosas,,,33200,BORDEAUX,+33 5 56 97 20 11,,Clévacances,2 clés (Clévacances),,,-0.637289,44.856945
Meublés,Non classé,Meublé Autelin ,3 rue Franklin,Appt 3ème étage,,33000,BORDEAUX,+33 6 80 51 27 93,,Clévacances,3 clés (Clévacances),,,-0.5782681,44.8422
Meublés,Non classé,Résidence Hôtel de Maistre,15 cours de la Martinique,Bâtiment Sauterne,,33000,BORDEAUX,+33 1 42 77 57 98,,Clévacances,3 clés (Clévacances),,,-0.5685424,44.852585
Meublés,Non classé,Visit in Bordeaux,35 rue François Daunes,,,33000,BORDEAUX,+33 5 56 31 10 10,www.bordeaux-location-appartement.com,Clévacances,3 clés (Clévacances),Clévacances affaires,,-0.6032651,44.833992
Meublés,Non classé,Meublé Bouchut ,22 place Pey Berland,,,33000,BORDEAUX,+33 5 56 89 59 09,,Clévacances,3 clés (Clévacances),,,-0.5765354,44.837246
Meublés,Non classé,Meublé Bouchut ,74 cours Georges Clémenceau,Appt 5ème étage droite,,33000,BORDEAUX,+33 5 56 89 59 09,,Clévacances,3 clés (Clévacances),,,-0.5781555,44.8444
Meublés,Non classé,Meublé Hernandez,32 rue Bouffard,Appt 1er étage,,33000,BORDEAUX,+33 5 56 52 72 36,,Clévacances,2 clés (Clévacances),,,-0.5797326,44.839947
Meublés,Non classé,La Bastide,75 rue Reignier,75 rue Reignier,,33100,BORDEAUX,+33 5 57 68 21 20,,Clévacances,2 clés (Clévacances),,,-0.557003,44.840786
Meublés,Non classé,Meublé Lim ,4 rue Lafayette,,,33000,BORDEAUX,+33 5 59 56 43 12,,Clévacances,2 clés (Clévacances),,,-0.5710889,44.843437
Meublés,Non classé,Gîte forestier,Le Bourg,Gîte n° 1,,33113,BOURIDEYS,+ 33 5 56 25 71 57,,Clévacances,2 clés (Clévacances),,,-0.4584002,44.370205
Meublés,Non classé,Gîte forestier,Le Bourg,Gîte n° 2,,33113,BOURIDEYS,+ 33 5 56 25 71 57,,Clévacances,2 clés (Clévacances),,,-0.4584002,44.370205
Meublés,Non classé,Gîte forestier,Le Bourg,Gîte n° 3,,33113,BOURIDEYS,+ 33 5 56 25 71 57,,Clévacances,2 clés (Clévacances),,,-0.4584002,44.370205
Meublés,Non classé,Gîte forestier,Le Bourg,Gîte n° 4,,33113,BOURIDEYS,+ 33 5 56 25 71 57,,Clévacances,2 clés (Clévacances),,,-0.4584002,44.370205
Meublés,Non classé,Gîte forestier,Le Bourg,Gîte n° 5,,33113,BOURIDEYS,+ 33 5 56 25 71 57,,Clévacances,2 clés (Clévacances),,,-0.4584002,44.370205
Meublés,2 étoiles,Gîte de Bobisson,189 lieu dit Bobisson,,,33760,CANTOIS,+33 5 56 23 67 96,www.gitedebobisson-gironde.jimdo.com,Clévacances,2 clés (Clévacances),,,-0.223483,44.695972
Meublés,Non classé,Château du Grand Mouëys,242 route de Créon,,,33550,CAPIAN,+33 6 34 50 87 34,www.grandmoueys.com,Clévacances,2 clés (Clévacances),Clévacances Bacchus,,-0.316965,44.771885
Meublés,Non classé,Château Lagrange,,,,33550,CAPIAN,+33 5 56 72 15 96,www.vignobleslacoste.fr,Clévacances,3 clés (Clévacances),Clévacances Bacchus,,-0.331087,44.711014
Meublés,3 étoiles,Gîte du Malbec,4 bis la Garde,,,33390,SAINT-SEURIN-DE-CURSAC,+33 2 33 04 76 99,www.gitedumalbec.fr,Clévacances,3 clés (Clévacances),Clévacances Bacchus,Handicap auditif;Handicap mental,-0.6317763,45.152973
Meublés,Non classé,Meublé Raynaud ,4 avenue du Général de Gaulle,,,33330,SAINT-SULPICE-DE-FALEYRENS,+33 5 57 22 37 51,,Clévacances,3 clés (Clévacances),,,-0.1926040,44.87716
Meublés,3 étoiles,Château les Donats,Les Donats,,,33920,SAINT-VIVIEN-DE-BLAYE,+33 5 56 40 22 83,,Clévacances,3 clés (Clévacances),,,-0.526314,45.09866
Meublés,3 étoiles,La Maison d'Olivier,14 Peyon,,,33650,SAUCATS,+33 5 57 96 95 83,lamaisondolivier.blogspot.com,Clévacances,3 clés (Clévacances),Clévacances environnement,Handicap auditif;Handicap mental;Handicap moteur;Handicap visuel,-0.6670156,44.67798
Meublés,Non classé,Meublé communal Sauveterre,rue Périchotte,Appt n° 1,,33540,SAUVETERRE-DE-GUYENNE,+33 5 56 71 50 43,,Clévacances,2 clés (Clévacances),,,-0.0864958,44.692165
Meublés,Non classé,Meublé communal Sauveterre,rue Périchotte,Appt n° 2,,33540,SAUVETERRE-DE-GUYENNE,+33 5 56 71 50 43,,Clévacances,2 clés (Clévacances),,,-0.0864958,44.692165
Meublés,Non classé,Meublé communal Sauveterre,rue Périchotte,Appt n° 3,,33540,SAUVETERRE-DE-GUYENNE,+33 5 56 71 50 43,,Clévacances,2 clés (Clévacances),,,--0.086495,44.692165
Meublés,Non classé,Meublé communal Sauveterre,rue Périchotte,Appt n° 4,,33540,SAUVETERRE-DE-GUYENNE,+33 5 56 71 50 43,,Clévacances,2 clés (Clévacances),,,-0.0864958,44.692165
Meublés,2 étoiles,Résidence les Hameaux de l'Amélie,Maison n° 131,l'Amélie,,33780,SOULAC-SUR-MER,+33 6 74 41 19 10;+33 6 82 82 95 53,www.vacances-ocean.com,Clévacances,2 clés (Clévacances),,,-1.1444505,45.484234
Meublés,Non classé,Les Amandielles,2 chemin du Poncet,,,33760,TARGON,+33 5 56 23 44 61,http://lesamandielles.free.fr,Clévacances,3 clés (Clévacances),,,-0.26355,44.73457
Meublés,3 étoiles,Meublé Blasquez ,6 ter route de la Garonne,,,33210,TOULENNE,+33 9 52 42 88 37,,Clévacances,3 clés (Clévacances),Clévacances Bacchus,,-0.270387,44.567333
Meublés,3 étoiles,Domaine de Palot,1 chemin de Pétrus,,,33370,TRESSES,+33 6 08 32 29 68,http://domainedepalot.free.fr,Clévacances,3 clés (Clévacances),,,-0.460809,44.845642
Meublés,Non classé,Domaine de Palot,1 chemin de Pétrus,,,33370,TRESSES,+33 6 08 32 29 68,http://domainedepalot.free.fr,Clévacances,3 clés (Clévacances),Clévacances Bacchus,Handicap auditif;Handicap mental;Handicap moteur,-0.460809,44.845642
Meublés,2 étoiles,La Bergerie,35, avenue Guillaume Payot,Montalivet,,33930,VENDAYS-MONTALIVET,+33 4 73 77 93 13,,Clévacances,2 clés (Clévacances),,,-1.143669,45.381298
Meublés,Non classé,Meublé Sarrazin ,route de Lesparre,,,33930,VENDAYS-MONTALIVET,+33 5 56 41 74 52,,Clévacances,2 clés (Clévacances),,,-1.056566,45.357525
Meublés,Non classé,Meublé Sarrazin ,route de Lesparre,,,33930,VENDAYS-MONTALIVET,+33 5 56 41 74 52,,Clévacances,2 clés (Clévacances),,,-1.056566,45.357525
Meublés,2 étoiles,Meublé Mondon ,6 Goine,,,33240,VERAC,+33 5 57 84 46 14,,Clévacances,2 clés (Clévacances),,,-0.344189,44.99282
Meublés,3 étoiles,Gîtes du Bourg,1 rue Eugène Faivre,Meublé arrière,,33730,VILLANDRAUT,+33 1 46 86 27 70,www.gites-villandraut.sitew.com,Clévacances,3 clés (Clévacances),,,-0.3735566,44.458046
Meublés,3 étoiles,Gîtes du Bourg,1 rue Eugène Faivre,Meublé avant,,33730,VILLANDRAUT,+33 1 46 86 27 70,www.gites-villandraut.sitew.com,Clévacances,3 clés (Clévacances),,,-0.3738915,44.457985
Meublés,Non classé,Meublé Dupouy,27 avenue Edouard Bourlaud,,,33140,VILLENAVE-D'ORNON,+33 9 75 77 00 29,,Clévacances,3 clés (Clévacances),Clévacances affaires,,-0.540023,44.772305
