TYPE,THEMES_DU_SITE,CATEGORIE,NOM_DU_SITE,ADRESSE,ADRESSE_SUITE,CODE_POSTAL,COMMUNE,TEL__INFORMATIONS,SITE_WEB,LABELS,LONGITUDE,LATITUDE
Site et monument historiques,Ville, village et quartier,Sites et monuments historiques inscrits,Ville historique de Castillon-la-Bataille,,,33350,CASTILLON-LA-BATAILLE,+33 5 57 40 27 58,www.tourisme-castillonpujols.fr,,-0.047323,44.84318
Site et monument historiques,Eglise,Sites et monuments historiques classés,Eglise Saint-Martin de Castres-Gironde,,,33640,CASTRES-GIRONDE,+33 5 56 78 47 72,www.otmontesquieu.com,,-0.444907,44.69791
Site et monument historiques,Eglise,Sites et monuments historiques inscrits,Eglise Saint Pierre-ès-Liens,2 rue Raymond Sanchez,,33260,CAZAUX,+33 5 56 22 91 75;+33 5 56 54 63 14,wwww.tourisme-latestedebuch.fr,,-1.1516225,44.538174
Site et monument historiques,Eglise,Sites et monuments historiques classés,Eglise Saint-Martin de Cérons,Barthé,,33720,CERONS,+33 5 56 27 01 17,www.cerons33.fr,,-0.333502,44.635128
Site et monument historiques,Eglise,Sites et monuments historiques inscrits,Eglise Saint-Romain de Cessac,,,33760,CESSAC,+33 5 56 23 97 78,,,-0.586586,45.08703
Site et monument historiques,Eglise,Sites et monuments historiques inscrits,Eglise Saint-Pierre de Civrac-en-Médoc,,,33340,CIVRAC-EN-MEDOC,+33 5 56 41 51 02,,,-0.898956,45.337822
Site et monument historiques,Eglise,Sites et monuments historiques classés,Eglise Notre-Dame de Coimères,,,33210,COIMERES,+33 5 56 63 68 00,www.sauternais-graves-langon.com,,-0.2096619,44.496025
Site et monument historiques,Eglise,Sites et monuments historiques inscrits,Eglise Saint-Martin de Coirac,,,33540,COIRAC,+33 5 56 71 53 45,www.entredeuxmers.com,,-0.167321,44.691525
Site et monument historiques,Eglise,Sites et monuments historiques inscrits,Eglise Saint-Christophe de Courpiac,,,33760,COURPIAC,+33 5 56 23 93 09,,,-0.586586,45.08703
Site et monument historiques,Eglise,Sites et monuments historiques inscrits,Eglise Saint-Jean Baptiste de Coutras,Rue Saint Jean,,33230,COUTRAS,+33 5 57 69 36 53,www.pays-de-coutras.com,,-0.129567,45.041092
Site et monument historiques,Puits,Sites et monuments historiques inscrits,Puits Henri IV,Place du Château,,33230,COUTRAS,+33 5 57 69 36 53,www.pays-de-coutras.com,,-0.130282,45.041046
Site et monument historiques,Eglise,Sites et monuments historiques inscrits,Eglise Saint-Cibard de Coutures,,,33580,COUTURES,+33 5 56 61 82 73,www.entredeuxmers.com,,0.082404,44.65918
Site et monument historiques,Bastide,Sites et monuments historiques inscrits,Bastide de Créon,,,33670,CREON,+33 5 56 23 23 00,www.tourisme-creonnais.fr,,-0.3482634,44.77445
Site et monument historiques,Croix,Sites et monuments historiques inscrits,Croix du Cimetière de Croignon,,,33750,CROIGNON,+33 5 56 30 10 64 ,www.croignon.fr ,,-0.3443527,44.819107
Site et monument historiques,Eglise,Sites et monuments historiques inscrits,Eglise Saint-Martin de Cubnezais,,,33620,CUBNEZAIS,+33 5 57 68 70 71,,,-0.4067087,45.077793
Site et monument historiques,Ruines et vestiges,Sites et monuments historiques inscrits,Le Château des Quatre Fils Aymon,,,33240,CUBZAC-LES-PONTS,+33 5 57 43 64 80,www.cubzaguais-tourisme.com,,-0.45538,44.968925
Site et monument historiques,Eglise,Sites et monuments historiques inscrits,Eglise Saint-Jean de Cudos,,,33430,CUDOS,+33 5 56 25 41 83,,,-0.219728,44.38727
Site et monument historiques,Fort,Sites et monuments historiques classés;Patrimoine mondial UNESCO;ZPPAUP,Fort Médoc,Avenue du Fort Médoc,,33460,CUSSAC-FORT-MEDOC,+33 5 56 58 98 40;+33 5 57 88 85 00,www.cussac-fort-medoc.fr,,-0.660191,45.050877
Site et monument historiques,Eglise,Sites et monuments historiques inscrits,Eglise Notre-Dame de Daubèze,,,33540,DAUBEZE,+33 5 56 71 53 45,www.entredeuxmers.com,,-0.141654,44.71279
Site et monument historiques,Eglise,Sites et monuments historiques inscrits,Eglise Saint-Pierre de Dieulivol,,,33580,DIEULIVOL,+33 5 56 61 82 73,www.entredeuxmers.com,,0.082404,44.65918
Site et monument historiques,Eglise,Sites et monuments historiques inscrits,Eglise Saint-Gervais et Saint-Protais de Faleyras,,,33760,FALEYRAS,+33 5 56 23 92 13,,,-0.586586,45.08703
Site et monument historiques,Château fort,Sites et monuments historiques inscrits,Château de Fargues,,,33210,FARGUES,+33 5 56 63 68 00,www.sauternais-graves-langon.com,,-0.29364,44.53062
Site et monument historiques,Eglise,Sites et monuments historiques inscrits,Eglise Saint-Front de Fontet,,,33190,FONTET,+33 5 56 61 82 73,www.entredeuxmers.com,,-0.011378,44.57648
Site et monument historiques,Eglise,Sites et monuments historiques inscrits,Eglise Saint-Pierre de Fossès-et-Baleyssac,Fossès,,33190,FOSSES-ET-BALEYSSAC,+33 5 56 61 82 73,www.entredeuxmers.com,,0.059058,44.594
Site et monument historiques,Eglise,Sites et monuments historiques inscrits,Église Saint-Martin de Fronsac,,,33126,FRONSAC,+33 5 57 51 26 44;+33 5 57 84 86 86,,,-0.2712629,44.924316
Site et monument historiques,Chapelle,Sites et monuments historiques inscrits,Chapelle Sainte-Présentine de Frontenac,,,33760,FRONTENAC,+33 5 56 23 96 38,,,-0.586586,45.08703
Site et monument historiques,Commanderie,Sites et monuments historiques inscrits,Commanderie de Sallebruneau,Sallebruneau,,33760,FRONTENAC,+33 5 56 80 33 37;+33 5 56 75 48 92;+33 5 56 45 05 46,www.assrag.org,,-0.121888,44.73016
Site et monument historiques,Eglise,Sites et monuments historiques inscrits,Eglise Saint-Paul de Frontenac,,,33760,FRONTENAC,+33 5 56 23 96 38,,,-0.586586,45.08703
Site et monument historiques,Eglise,Sites et monuments historiques inscrits,Eglise Saint-Seurin de Gabarnac,,,33410,GABARNAC,+33 9 60 01 92 10,,,-0.276075,44.6385
Site et monument historiques,Château;Pigeonnier,Sites et monuments historiques inscrits,Château de Gageac,,,24240,GAGEAC-ROUILLAC,+33 5 53 27 85 69,www.chateau-gageac.com,,0.34812927,44.79816
Site et monument historiques,Eglise,Sites et monuments historiques classés,Eglise Saint-Pierre de Gaillan,,,33340,GAILLAN-EN-MEDOC,+33 5 56 41 03 08;+33 5 56 41 85 02,,,-0.9551837,45.324936
Site et monument historiques,Eglise,Sites et monuments historiques inscrits,Eglise Saint-Martin de Gajac,,,33430,GAJAC,+33 5 56 25 03 02,,,-0.129344,44.43715
Site et monument historiques,Eglise,Sites et monuments historiques inscrits,Église Saint-Seurin de Galgon,,,33133,GALGON,+33 5 57 84 33 00;+33 5 57 84 86 86,,,-0.275265,44.991947
Site et monument historiques,Ensemble fortifié et remparts,Sites et monuments historiques inscrits,Maison forte du Prat,,,33920,GENERAC,+33 5 57 64 50 13,,,-0.5692291,45.181553
Site et monument historiques,Ville, village et quartier,Sites et monuments historiques inscrits,Village ancien de Gensac,,,33890,GENSAC,+33 5 57 47 46 67,www.tourisme-castillonpujols.fr,,0.071972,44.801697
Site et monument historiques,Maison et bâtiment,Sites et monuments historiques inscrits,Bergerie ronde (ou courbe) de Goualade,,,33840,GOUALADE,+33 5 56 25 25 84,,,-0.1458569,44.309647
Site et monument historiques,Eglise,Sites et monuments historiques inscrits,Eglise Saint-Pierre de Gours,,,33660,GOURS,+33 5 57 49 74 40,,,0.010684,45.0198
Site et monument historiques,Cloître;Eglise,Sites et monuments historiques inscrits,Ensemble Jacquaire de Cayac,257 bis cours du Général de Gaulle,,33170,GRADIGNAN,+33 5 56 75 65 17,www.ville-gradignan.fr,,-0.61846,44.76643
Site et monument historiques,Eglise,Sites et monuments historiques classés,Abbatiale Notre-Dame de Guîtres,,,33230,GUITRES,+33 5 57 69 11 48,www.otguitres.fr;www.abbatialedeguitres.com,,-0.1873898,45.039963
Site et monument historiques,Eglise,Sites et monuments historiques classés,Eglise Saint Martin de Haux,,,33550,HAUX,+33 5 56 23 23 00,www.tourisme-creonnais.fr,,-0.375595,44.737953
Site et monument historiques,Eglise,Sites et monuments historiques inscrits,Eglise Saint-Laurent d'Illats,,,33720,ILLATS,+33 5 56 62 53 14,www.illats.fr,,-0.373898,44.59768
Site et monument historiques,Château;Château fort,Sites et monuments historiques classés,Château de La Brède,Avenue du Château,,33650,LA BREDE,+33 5 56 78 47 72,www.chateaulabrede.com,Maisons des Illustres,-0.5427074,44.67924
Site et monument historiques,Eglise,Sites et monuments historiques inscrits,Eglise Saint-Jean d'Etampes,,,33650,LA BREDE,+33 5 56 78 47 72,www.otmontesquieu.com,,-0.527373,44.681385
Site et monument historiques,Eglise,Sites et monuments historiques classés,Église Saint-Pierre de La Lande-de-Fronsac,,,33240,LA LANDE-DE-FRONSAC,+33 5 57 58 18 99;+33 5 57 84 86 86,www.cdc-fronsadais.com,,-0.381466,44.979237
Site et monument historiques,Château fort,Sites et monuments historiques classés,Château des Quat'Sos,Place Albert Rigoulet,,33190,LA REOLE,+33 5 56 61 13 55,www.entredeuxmers.com,,-0.041656,44.58178
Site et monument historiques,Cloître,Sites et monuments historiques classés,Grilles du Cloître,Ancien prieuré des Bénédictins,,33190,LA REOLE,+33 5 56 61 13 55,www.entredeuxmers.com,,-0.040256,44.583748
Site et monument historiques,Eglise,Sites et monuments historiques classés,Eglise Saint-Pierre de La Réole,Place Albert Rigoulet,,33190,LA REOLE,+33 5 56 61 13 55,www.entredeuxmers.com,,-0.041656,44.58178
Site et monument historiques,Ensemble fortifié et remparts,Sites et monuments historiques classés,Les remparts de La Réole,,,33190,LA REOLE,+33 5 56 61 13 55,www.entredeuxmers.com,,-0.034662,44.58299
Site et monument historiques,Maison et bâtiment,Sites et monuments historiques classés,Ancien Hôtel de Ville de La Réole,Place Richard Coeur de Lion,,33190,LA REOLE,+33 5 56 61 13 55,www.entredeuxmers.com,,-0.0379371,44.583378
Site et monument historiques,Maison et bâtiment,Sites et monuments historiques inscrits,Hôtel de Briet,Rue de Verdun,,33190,LA REOLE,+33 5 56 61 13 55,www.entredeuxmers.com,,-0.039207,44.583595
Site et monument historiques,Monastère,Sites et monuments historiques classés,Abbaye de La Réole - Prieuré des Bénédictins,Esplanade Charles de Gaulle,,33190,LA REOLE,+33 5 56 61 13 55,www.entredeuxmers.com,,-0.041656,44.58178
Site et monument historiques,Ville, village et quartier,Sites et monuments historiques inscrits,Cité médiévale de La Réole,,,33190,LA REOLE,+33 5 56 61 13 55,www.entredeuxmers.com,Station Verte de Vacances,-0.0402562,44.583748
Site et monument historiques,Abbaye;Ruines et vestiges,Patrimoine mondial UNESCO;Sites et monuments historiques classés,Abbaye de La Sauve Majeure,14 rue de l'Abbaye,,33670,LA SAUVE,+33 5 56 23 01 55,www.la-sauve-majeure.monuments-nationaux.fr,Accueil Vélo,-0.3128608,44.76533
Site et monument historiques,Eglise,Patrimoine mondial UNESCO;Sites et monuments historiques classés,Eglise Saint Pierre de la Sauve Majeure,,,33670,LA SAUVE,+33 5 56 23 31 17;+33 5 56 23 23 00,www.tourisme-creonnais.fr,,-0.3131103,44.76843
Site et monument historiques,Eglise,Sites et monuments historiques inscrits,Eglise Saint-Martin de Ladaux,,,33760,LADAUX,+33 5 56 23 61 35,,,-0.586586,45.08703
Site et monument historiques,Eglise,Sites et monuments historiques inscrits,Eglise Saint-Pierre de Lagorce,,,33230,LAGORCE,+33 5 57 56 05 30,www.otguitres.fr,,-0.1391016,45.069263
Site et monument historiques,Eglise,Sites et monuments historiques inscrits,Eglise de Saint-Martin-de-Serres,Saint-Martin-sous-les-Coteaux,,33190,LAMOTHE-LANDERRON,+33 5 56 61 82 73,www.entredeuxmers.com,,0.061206,44.56489
Site et monument historiques,Eglise,Sites et monuments historiques classés,Eglise Saint-Martin de Landiras,,,33720,LANDIRAS,+33 5 56 62 50 28;+33 5 56 62 58 75,www.landiras.fr,,-0.415378,44.567028
Site et monument historiques,Château fort,Sites et monuments historiques classés,Château de Langoiran,,,33550,LANGOIRAN,+33 5 56 67 12 00,www.chateaumedievaldelangoiran.com,,-0.383971,44.698578
Site et monument historiques,Eglise,Sites et monuments historiques classés,Eglise Saint Pierre-ès-Liens,,,33410,LANGOIRAN,+33 5 56 67 01 06,,,-0.40082,44.708595
Site et monument historiques,Maison et bâtiment,Sites et monuments historiques inscrits,Domaine de Bouliac,,,33410,LANGOIRAN,+33 5 56 67 01 06,,,-0.40082,44.708595
Site et monument historiques,Eglise,Sites et monuments historiques inscrits,Eglise Saint-Gervais de Langon,,,33210,LANGON,+33 5 56 63 68 00,www.sauternais-graves-langon.com,,-0.249192,44.55673
Site et monument historiques,Maison et bâtiment,Sites et monuments historiques inscrits,Castel d'Andorte et Parc de la Chêneraie,87 rue Raymond Lavigne,,33110,LE BOUSCAT,+33 5 57 22 26 66,www.mairie-le-bouscat.fr,,-0.612311,44.864727
Site et monument historiques,Eglise,Sites et monuments historiques inscrits,Eglise Saint-Martin du Nizan,,,33430,LE NIZAN,+33 5 56 25 11 58,,,-0.203976,44.408295
Site et monument historiques,Eglise,Sites et monuments historiques inscrits,Eglise Saint-Seurin du Porge,Place Saint-Seurin,,33680,LE PORGE,+33 5 56 26 54 34,www.leporge.com,,-1.093322,44.872787
Site et monument historiques,Eglise,Sites et monuments historiques inscrits,Eglise Saint Martin de le Pout,,,33670,LE POUT,+33 5 56 23 02 75;+33 5 56 23 23 00,www.tourisme-creonnais.fr,,-0.3598022,44.794018
Site et monument historiques,Tour,Sites et monuments historiques classés,Phare de Cordouan,,,33123,LE VERDON-SUR-MER,+33 5 57 42 28 76 ,www.estuaire-gironde.fr,,-1.064967,45.550423
Site et monument historiques,Chapelle,Sites et monuments historiques inscrits,Chapelle de la Villa Algérienne,L'Herbe,,33950,LEGE-CAP FERRET,+33 5 56 03 94 49,www.lege-capferret.com ,,-1.236708,44.690304
Site et monument historiques,Maison et bâtiment,Sites et monuments historiques inscrits,Cité ouvrière Le Corbusier,33 avenue du Médoc,Lège,33950,LEGE-CAP FERRET,+33 5 56 03 94 49,www.lege-capferret.com ,,-1.1421731,44.798893
Site et monument historiques,Phare,Sites et monuments historiques inscrits,Phare du Cap Ferret,Place Souchet Valmont,Cap Ferret,33970,LEGE-CAP FERRET,+33 5 57 70 33 30,www.lege-capferret.com,,-1.2488579,44.64614
Site et monument historiques,Eglise,Sites et monuments historiques inscrits,Eglise Saint-Christophe de Léogeats,,,33210,LEOGEATS,+33 5 56 63 68 00,www.sauternais-graves-langon.com,,-0.368045,44.51235
Site et monument historiques,Eglise,Sites et monuments historiques classés,Eglise Saint-Martin de Léognan,Chemin Tourte,,33850,LEOGNAN,+33 5 56 78 47 72,www.otmontesquieu.com,,-0.600453,44.728535
Site et monument historiques,Donjon,Sites et monuments historiques classés,La Tour de l'Honneur et son musée,17 rue Pierre Curie,,33340,LESPARRE-MEDOC,+33 5 56 41 06 75;+33 5 56 41 21 96,http://tour-de-lhonneur.jimdo.com,,-0.943354,45.307953
Site et monument historiques,Eglise,Sites et monuments historiques inscrits,Eglise Notre-Dame de Lestiac-sur-Garonne,,,33410,LESTIAC-SUR-GARONNE,+33 5 56 72 32 34,,,-0.3738999,44.693523
Site et monument historiques,Bastide,Sites et monuments historiques inscrits,Bastide de Libourne,,,33500,LIBOURNE,+33 5 57 51 15 04,www.libourne-tourisme.com,,-0.231506,44.918026
Site et monument historiques,Eglise,Sites et monuments historiques inscrits,Chapelle Royale Notre Dame de Condat,Avenue de Condat,,33500,LIBOURNE,+33 5 57 51 15 04,www.libourne-tourisme.com,,-0.2427291,44.89683
Site et monument historiques,Eglise,Sites et monuments historiques inscrits,Eglise Sainte-Eulalie de Lignan-de-Bordeaux,,,33360,LIGNAN-DE-BORDEAUX,+33 5 56 21 23 59;+33 5 56 23 23 00,www.tourisme-creonnais.fr,,-0.4305267,44.798405
Site et monument historiques,Eglise,Sites et monuments historiques inscrits,Eglise Saint-Barthélémy de Listrac-de-Durèze,,,33790,LISTRAC-DE-DUREZE,+33 5 56 61 37 80;+33 5 56 61 36 21,www.entredeuxmers.com,,0.076562,44.74256
Site et monument historiques,Ville, village et quartier,Sites et monuments historiques inscrits,Village ancien de Lormont,,,33310,LORMONT,+33 5 56 74 29 17,www.office-tourisme-lormont.com,,-0.517829,44.875126
Site et monument historiques,Château,Sites et monuments historiques inscrits,Château de Lavison,Lavison Est,,33190,LOUBENS,+33 5 56 71 48 82,www.chateau-lavison.fr,,-0.029344,44.619717
Site et monument historiques,Eglise,Sites et monuments historiques inscrits,Eglise Saint-Vincent de Loubens,,,33190,LOUBENS,+33 5 56 61 82 73,www.entredeuxmers.com,,-0.011378,44.57648
Site et monument historiques,Moulin,Sites et monuments historiques inscrits,Moulin de Loubens,,,33190,LOUBENS,+33 5 56 61 13 55,www.entredeuxmers.com,,-0.011378,44.57648
Site et monument historiques,Eglise,Sites et monuments historiques classés,Eglise Saint-Pierre de Loupiac,Route de Saint-Macaire,,33410,LOUPIAC,+33 5 56 62 99 62,,,-0.2974033,44.61882
Site et monument historiques,Eglise,Sites et monuments historiques classés,Façade de l'église Saint-Pierre de Loupiac,,,33410,LOUPIAC,+33 5 56 62 12 92,www.cadillac-tourisme.com,,-0.276075,44.6385
Site et monument historiques,Ruines et vestiges;Site archéologique,Sites et monuments historiques inscrits,Château du Cros,,,33410,LOUPIAC,+33 5 56 62 99 31,www.chateauducros.com,,-0.2962338,44.611183
Site et monument historiques,Site archéologique,Sites et monuments historiques inscrits,Villa gallo-romaine de Loupiac,Lieu-dit Saint Romain,,33410,LOUPIAC,+33 5 56 62 93 82,http://villa.loupiac.free.fr,,-0.305419,44.629715
Site et monument historiques,Eglise,Sites et monuments historiques inscrits,Eglise de Loupiac-de-La-Réole,,,33190,LOUPIAC-DE-LA-REOLE,+33 5 56 61 13 55,www.entredeuxmers.com,,-0.011378,44.57648
Site et monument historiques,Eglise,Sites et monuments historiques inscrits,Eglise Saint-André de Lucmau,,,33840,LUCMAU,+33 5 56 65 22 65,,,-0.214869,44.28886
Site et monument historiques,Eglise,Sites et monuments historiques inscrits,Eglise Saint-Martin de Lugasson,,,33760,LUGASSON,+33 5 56 23 96 78,,,-0.586586,45.08703
Site et monument historiques,Eglise,Sites et monuments historiques classés,Eglise Saint-Michel du Vieux Lugo,,,33830,LUGOS,+33 5 57 71 95 26,,,-0.853776,44.49588
Site et monument historiques,Eglise,Sites et monuments historiques inscrits,Eglise Notre-Dame de Marcenais,,,33620,MARCENAIS,+33 5 57 68 70 14;+33 5 57 68 70 31,,,-0.3364562,45.05788
Site et monument historiques,Eglise,Sites et monuments historiques classés,Eglise Saint-Vincent de Marcillac,,,33860,MARCILLAC,+33 5 57 32 41 03,,,-0.5234975,45.268967
Site et monument historiques,Château,Sites et monuments historiques classés,Château Margaux,B.P. 31,,33460,MARGAUX,+33 5 57 88 83 83,www.chateau-margaux.com,,-0.660191,45.050877
Site et monument historiques,Eglise,Sites et monuments historiques classés,Eglise Saint-Vincent de Marimbault,,,33430,MARIMBAULT,+33 5 56 25 08 87,http://mairie.marimbault.free.fr,,-0.203976,44.408295
Site et monument historiques,Eglise,Sites et monuments historiques inscrits,Village de Marimbault,Le Bourg,,33430,MARIMBAULT,+33 5 56 25 08 87,http://mairie.marimbault.free.fr,,-0.203976,44.408295
Site et monument historiques,Eglise,Sites et monuments historiques inscrits,Eglise Notre-Dame de Martillac,,,33650,MARTILLAC,+33 5 56 78 47 72,www.otmontesquieu.com,,-0.542663,44.713787
Site et monument historiques,Eglise,Sites et monuments historiques inscrits,Eglise Saint-Pierre de Martres,,,33760,MARTRES,+33 5 56 71 53 16,commune-de-martres@orange.fr,,-0.586586,45.08703
Site et monument historiques,Abbaye,Sites et monuments historiques inscrits,Ancienne abbaye de Fontguilhem,,,33690,MASSEILLES,+33 5 56 25 55 38,,,-0.05434,44.40618
Site et monument historiques,Eglise,Sites et monuments historiques inscrits,Eglise Notre-Dame de Massugas,,,33790,MASSUGAS,+33 5 56 61 33 88;+33 5 56 61 37 80,www.entredeuxmers.com,,0.076562,44.74256
Site et monument historiques,Croix,Sites et monuments historiques classés,Croix de cimetière de Mauriac,,,33540,MAURIAC,+33 5 56 71 53 45,www.entredeuxmers.com,,-0.0359845,44.745667
Site et monument historiques,Château fort,Sites et monuments historiques classés,Château de Roquetaillade,,,33210,MAZERES,+33 5 56 76 14 16,www.roquetaillade.eu,,-0.268065,44.49498
Site et monument historiques,Château,Sites et monuments historiques classés,Maison Carrée d'Arlac,Avenue François Mitterand,,33700,MERIGNAC,+33 5 56 55 66 00  ,www.merignac.com ,,-0.656358,44.844875
Site et monument historiques,Château,Sites et monuments historiques inscrits,Château Bourran,Avenue de Verdun,,33700,MERIGNAC,+33 5 56 55 66 00  ,www.merignac.com ,,-0.6371401,44.839516
Site et monument historiques,Eglise,Sites et monuments historiques inscrits,La Vieille Eglise Saint-Vincent,Avenue Beaumarchais,,33700,MERIGNAC,+33 5 56 47 59 85,,,-0.6492971,44.841415
Site et monument historiques,Tour,Sites et monuments historiques classés,La Tour de Veyrines,Rue Tour de Veyrines,,33700,MERIGNAC,+33 5 56 55 66 00  ,www.merignac.com ,,-0.6457268,44.826454
Site et monument historiques,Eglise,Sites et monuments historiques inscrits,Eglise Saint-Jean de Mongauzy,,,33190,MONGAUZY,+33 5 56 61 82 73,www.entredeuxmers.com,,-0.011378,44.57648
Site et monument historiques,Eglise,Sites et monuments historiques inscrits,Eglise Saint-Jean de Monprimblanc,,,33410,MONPRIMBLANC,+33 5 56 62 95 12,,,-0.276075,44.6385
Site et monument historiques,Bastide,Sites et monuments historiques inscrits,Bastide de Monségur,,,33580,MONSEGUR,+33 5 56 61 89 40,www.entredeuxmers.com,,0.080653,44.650795
Site et monument historiques,Eglise,Sites et monuments historiques inscrits,Eglise Notre-Dame de Monségur,,,33580,MONSEGUR,+33 5 56 61 89 40,www.entredeuxmers.com,,0.082404,44.65918
Site et monument historiques,Halle,Sites et monuments historiques inscrits,Halle de Monségur,,,33580,MONSEGUR,+33 5 56 61 82 73,www.entredeuxmers.com,,0.082404,44.65918
Site et monument historiques,Eglise,Sites et monuments historiques classés,Eglise Notre-Dame de Parsac,Parsac,,33570,MONTAGNE,+33 5 57 24 95 62,www.regiondesaintemilion.com,,-0.096269,44.906258
Site et monument historiques,Eglise,Sites et monuments historiques classés,Eglises Saint-Martin et Saint-Georges de Montagne,,,33570,MONTAGNE,+33 5 57 24 95 62,www.regiondesaintemilion.com,,-0.083435,44.95231
Site et monument historiques,Eglise,Sites et monuments historiques inscrits,Eglise Saint-Médard de Montignac,,,33760,MONTIGNAC,+33 5 56 23 51 51,,,-0.586586,45.08703
Site et monument historiques,Eglise,Sites et monuments historiques inscrits,Église Saint-Fort de Mouillac,,,33240,MOUILLAC,+33 5 57 84 44 41;+33 5 57 84 86 86,,,-0.352959,45.00815
Site et monument historiques,Château,Sites et monuments historiques inscrits,Château d'Abzac,,,33230,ABZAC,+33 5 57 49 07 38,,,-0.118324,45.056057
Site et monument historiques,Eglise,Sites et monuments historiques inscrits,Eglise Saint-Pierre d'Abzac,,,33230,ABZAC,+33 5 57 49 07 38,,,-0.118324,45.056057
Site et monument historiques,Moulin,Sites et monuments historiques inscrits,Ancien moulin d'Abzac,,,33230,ABZAC,+33 5 57 49 07 38,,,-0.1243686,45.018215
Site et monument historiques,Ruines et vestiges,Sites et monuments historiques classés,Vestiges gallo-romains,Boulevard de la Plage,,33510,ANDERNOS-LES-BAINS,+33 5 56 82 02 95,www.andernoslesbains.fr,,-1.1044692,44.7421
Site et monument historiques,Château fort,Sites et monuments historiques inscrits,Château de Benauge,,,33760,ARBIS,+33 5 56 23 62 64,,,-0.246348,44.677795
Site et monument historiques,Ville, village et quartier,Sites et monuments historiques inscrits,Ville d'Hiver d'Arcachon,,,33120,ARCACHON,+33 5 57 52 97 97,www.arcachon.com,,-1.1707305,44.658276
Site et monument historiques,Eglise,Sites et monuments historiques inscrits,Eglise Saint-Vincent de Paul d'Arès,,,33740,ARES,+33 5 56 60 18 07 ,www.ares-tourisme.com,,-1.1399388,44.76738
Site et monument historiques,Maison et bâtiment,Sites et monuments historiques inscrits,L'Aérium,Boulevard de l'Aérium,,33740,ARES,+33 5 56 60 18 07 ,www.ares-tourisme.com,,-1.132624,44.76125
Site et monument historiques,Ruines et vestiges,Sites et monuments historiques classés,Les canons d'Arès,,,33740,ARES,+33 5 56 60 18 07,www.ares-tourisme.com,,-1.083963,44.79934
Site et monument historiques,Eglise,Sites et monuments historiques classés,Eglise Saint-Germain d'Arsac,,,33460,ARSAC,+33 5 56 58 82 23,www.arsac.fr,,-0.660191,45.050877
Site et monument historiques,Eglise,Sites et monuments historiques inscrits,Eglise d'Espessas,,,33240,AUBIE-ET-ESPESSAS,+33 5 57 43 64 80,www.cdc-cubzaguais.fr/tourisme,,-0.4009151,45.016544
Site et monument historiques,Château,Sites et monuments historiques inscrits,Château de Certes,Domaine de Certes,,33980,AUDENGE,+33 5 57 70 67 56,www.tourisme-coeurdubassin.com,,-1.020307,44.68892
Site et monument historiques,Abbaye,Sites et monuments historiques inscrits,Abbaye Sainte-Marie du Rivet,,,33124,AUROS,+33 5 56 65 05 30,http://abbayesaintemariedurivet.com,,-0.146575,44.49585
Site et monument historiques,Eglise,Sites et monuments historiques classés,Eglise Saint-Pierre d'Avensan,,,33480,AVENSAN,+33 5 56 58 17 07,,,-0.854479,45.00596
Site et monument historiques,Eglise,Sites et monuments historiques inscrits,Eglise Notre-Dame de Bagas,,,33190,BAGAS,+33 5 56 61 82 73,www.entredeuxmers.com,,-0.011378,44.57648
Site et monument historiques,Moulin,Sites et monuments historiques inscrits,Moulin fortifié de Bagas,Route du Dropt,,33190,BAGAS,+33 5 56 61 82 73,www.entredeuxmers.com,,-0.0585365,44.626884
Site et monument historiques,Eglise,Sites et monuments historiques inscrits,Eglise Saint-Paul de Baigneaux,,,33760,BAIGNEAUX,+33 5 56 23 97 50,,,-0.196132,44.72282
Site et monument historiques,Eglise,Sites et monuments historiques inscrits,Eglise Saint Christophe de Baron,,,33750,BARON,+33 5 57 24 26 32;+33 5 56 23 23 00,www.tourisme-creonnais.fr,,-0.310707,44.81838
Site et monument historiques,Eglise,Sites et monuments historiques classés,Eglise Saint-Vincent de Barsac,,,33720,BARSAC,+33 5 56 27 43 00,www.barsac.fr,,-0.317094,44.607906
Site et monument historiques,Château;Chapelle,Sites et monuments historiques inscrits,Château de Lyde,,,33880,BAURECH,+33 5 56 78 73 02,,,-0.44193,44.738804
Site et monument historiques,Eglise,Sites et monuments historiques classés,Eglise Notre-Dame de Bayon-sur-Gironde,Place de la mairie,,33710,BAYON-SUR-GIRONDE,+33 5 57 68 31 76,www.bourg-en-gironde.fr,,-0.599699,45.053604
Site et monument historiques,Cathédrale,Sites et monuments historiques classés;Patrimoine mondial UNESCO,Cathédrale Saint Jean Baptiste de Bazas,,,33430,BAZAS,+33 5 56 25 25 84,www.tourisme-bazadais.com,,-0.203976,44.408295
Site et monument historiques,Ville, village et quartier,Sites et monuments historiques inscrits,Ville historique de Bazas,,,33430,BAZAS,+33 5 56 25 25 84,www.tourisme-bazadais.com,,-0.203976,44.408295
Site et monument historiques,Château;Pigeonnier,Sites et monuments historiques inscrits,Château de Couloumey,12 route des Landes,,33640,BEAUTIRAN,+33 5 56 67 66 65,www.chateau-couloumey.fr,,-0.461977,44.69792
Site et monument historiques,Eglise,Sites et monuments historiques classés,Eglise Saint-Saturnin de Bégadan,,,33340,BEGADAN,+33 5 56 41 50 15,,,-0.8932739,45.356377
Site et monument historiques,Château,Non Classé;Sites et monuments historiques inscrits,Château Reynon,21 route de Cardan,,33410,BEGUEY,+33 5 56 62 96 51,www.denisdubourdieu.com,,-0.3226375,44.650032
Site et monument historiques,Eglise,Sites et monuments historiques inscrits,Eglise Saint-Pierre de Mons,Mons,,33830,BELIN-BELIET,+33 5 56 88 00 06,www.belin-beliet.fr,,-0.809766,44.469044
Site et monument historiques,Fontaine,Sites et monuments historiques inscrits,Fontaine Saint-Clair,Mons,,33830,BELIN-BELIET,+33 5 56 88 00 06,www.belin-beliet.fr,,-0.853776,44.49588
Site et monument historiques,Eglise,Sites et monuments historiques inscrits,Eglise Saint-Jacques de Bellebat,,,33760,BELLEBAT,+33 5 56 23 96 33,,,-0.586586,45.08703
Site et monument historiques,Eglise,Sites et monuments historiques inscrits,Eglise Saint-Eutrope de Bellefond,,,33760,BELLEFOND,+33 5 56 23 94 79,,,-0.586586,45.08703
Site et monument historiques,Mégalithe,Sites et monuments historiques classés,Dolmens Le Sabatey,,,33760,BELLEFOND,+33 5 56 23 94 79,,,-0.586586,45.08703
Site et monument historiques,Eglise,Sites et monuments historiques inscrits,Eglise Notre-Dame de Bernos,,,33430,BERNOS-BEAULAC,+33 5 56 25 41 42,,,-0.258759,44.379585
Site et monument historiques,Eglise,Sites et monuments historiques classés,Eglise Saint-Laurent de Birac,,,33430,BIRAC,+33 5 56 25 94 11,,,-0.137061,44.41718
Site et monument historiques,Eglise,Sites et monuments historiques classés,Eglise Saint-Saturnin de Blaignac,,,33190,BLAIGNAC,+33 5 56 61 82 73,www.entredeuxmers.com,,-0.011378,44.57648
Site et monument historiques,Ruines et vestiges,Sites et monuments historiques classés,Forteresse médiévale de Blanquefort,Lieu dit Duras,,33290,BLANQUEFORT,+33 5 56 57 19 42,www.gahble.org,,-0.63004,44.90118
Site et monument historiques,Abbaye,Sites et monuments historiques classés,Abbaye Saint-Nicolas de Blasimon,,,33540,BLASIMON,+33 5 56 71 59 62;+33 5 56 71 52 12,www.entredeuxmers.com,,-0.0768899,44.750256
Site et monument historiques,Moulin,Sites et monuments historiques classés,Moulin à eau fortifié de Labarthe,,,33540,BLASIMON,+33 5 56 71 59 62;+33 5 56 71 52 12,www.entredeuxmers.com,,-0.0670337,44.76165
Site et monument historiques,Citadelle;Château fort;Château;Ensemble fortifié et remparts,Sites et monuments historiques inscrits;Patrimoine mondial UNESCO;Sites et monuments historiques classés,Citadelle de Blaye, patrimoine mondial de l'UNESCO,,,33390,BLAYE,+33 5 57 42 12 09,www.tourisme-blaye.com,,-0.6654882,45.127712
Site et monument historiques,Ville, village et quartier,Sites et monuments historiques inscrits,Village ancien de Blaye,,,33390,BLAYE,+33 5 57 42 12 09,www.tourisme-blaye.com,,-0.663557,45.12617
Site et monument historiques,Eglise,Sites et monuments historiques inscrits,Eglise Paroissiale Saint Vincent de Blésignac,,,33670,BLESIGNAC,+33 5 56 23 47 87;+33 5 56 23 23 00,www.tourisme-creonnais.fr,,-0.258522,44.77574
Site et monument historiques,Château,Sites et monuments historiques inscrits,Château Rayne-Vigneau,,,33210,BOMMES,+33 5 56 63 68 00,www.sauternais-graves-langon.com,,-0.3570709,44.54671
Site et monument historiques,Cathédrale,Sites et monuments historiques classés;Patrimoine mondial UNESCO,Cathédrale Saint-André,Place Pey Berland,,33000,BORDEAUX,+33 5 56 52 68 10;+33 5 56 00 66 00,www.bordeaux-tourisme.com,,-0.577706,44.837997
Site et monument historiques,Chapelle,Sites et monuments historiques classés,Eglise Notre-Dame de Bordeaux,Place du Chapelet,,33000,BORDEAUX,+33 5 56 00 66 00,www.bordeaux-tourisme.com,,-0.57602,44.842636
Site et monument historiques,Eglise,Sites et monuments historiques classés,Eglise Saint-Pierre de Bordeaux,Place Saint-Pierre,,33000,BORDEAUX,+33 5 56 00 66 00,www.bordeaux-tourisme.com,,-0.570674,44.84003
Site et monument historiques,Eglise,Sites et monuments historiques classés;Patrimoine mondial UNESCO,Flèche Saint-Michel,Place Canteloup,,33000,BORDEAUX,+33 5 56 00 66 00,www.bordeaux-tourisme.com,Famille Plus,-0.565757,44.833855
Site et monument historiques,Ensemble fortifié et remparts,Sites et monuments historiques classés,Grosse Cloche,Rue Saint-James,,33000,BORDEAUX,+33 5 56 00 66 00,www.bordeaux-tourisme.com,,-0.571416,44.835983
Site et monument historiques,Ensemble fortifié et remparts,Sites et monuments historiques classés,Porte Cailhau,Place du Palais,,33000,BORDEAUX,+33 5 56 00 66 00,www.bordeaux-tourisme.com,Famille Plus,-0.569444,44.83834
Site et monument historiques,Fontaine,Sites et monuments historiques classés,Monument aux Girondins,Esplanade des Quinconces,,33000,BORDEAUX,+33 5 56 00 66 00,www.bordeaux-tourisme.com,,-0.57598,44.84542
Site et monument historiques,Maison et bâtiment,Sites et monuments historiques classés,Grand Théâtre de Bordeaux,Place de la Comédie,,33000,BORDEAUX,+33 5 56 00 85 95,www.opera-bordeaux.com,Famille Plus,-0.5746,44.842506
Site et monument historiques,Ruines et vestiges,Sites et monuments historiques classés,Palais Gallien,Rue du Docteur Albert Barraud,,33000,BORDEAUX,+33 5 56 00 66 00,www.bordeaux-tourisme.com,Famille Plus,-0.584782,44.84623
Site et monument historiques,Site archéologique;Eglise,Sites et monuments historiques classés;Patrimoine mondial UNESCO,Site paléo-chrétien et basilique Saint-Seurin,Place des Martyrs de la Résistance,,33000,BORDEAUX,+33 5 56 00 66 00,www.bordeaux-tourisme.com,Famille Plus,-0.584716,44.84247
Site et monument historiques,Tour,Sites et monuments historiques classés,Tour Pey-Berland,Place Pey-Berland,,33000,BORDEAUX,+33 5 56 81 26 25,www.pey-berland.monuments-nationaux.fr,,-0.577706,44.837997
Site et monument historiques,Ville, village et quartier,Sites et monuments historiques inscrits,Allées de Tourny,,,33000,BORDEAUX,+33 5 56 00 66 00,www.bordeaux-tourisme.com,,-0.589447,44.838806
Site et monument historiques,Ville, village et quartier,Sites et monuments historiques inscrits,Esplanade des Quinconces,,,33000,BORDEAUX,+33 5 56 00 66 00,www.bordeaux-tourisme.com,,-0.589447,44.838806
Site et monument historiques,Ville, village et quartier,Sites et monuments historiques inscrits,Place de la Bourse,,,33000,BORDEAUX,+33 5 56 00 66 00,www.bordeaux-tourisme.com,,-0.589447,44.838806
Site et monument historiques,Château;Citadelle;Halle;Lavoir;Maison et bâtiment;Fontaine;Ville, village et quartier,Sites et monuments historiques inscrits,Village ancien de Bourg,,,33710,BOURG,+33 5 57 68 31 76,www.bourg-en-gironde.fr,,-0.5600879,45.039734
Site et monument historiques,Eglise,Sites et monuments historiques inscrits,Château de Budos,,,33720,BUDOS,+33 5 56 78 47 72,www.otmontesquieu.com,,-0.381698,44.53817
Site et monument historiques,Eglise,Sites et monuments historiques inscrits,Eglise Saint-Romain de Budos,Place du Bourg,,33720,BUDOS,+33 5 56 62 51 59,,,-0.384988,44.53363
Site et monument historiques,Château,Sites et monuments historiques inscrits,Château de Cadaujac,,,33140,CADAUJAC,+33 5 56 78 47 72,www.tourisme-montesquieu.com,,-0.5295879,44.755836
Site et monument historiques,Château,Sites et monuments historiques inscrits,Château Malleret,1104 chemin de Malleret,,33140,CADAUJAC,+33 6 85 85 88 67,www.mairie-cadaujac.fr/cadaujac/patrimoine/les-chateaux.html ,,-0.51462,44.76282
Site et monument historiques,Bastide,Sites et monuments historiques classés,Bastide de Cadillac,,,33410,CADILLAC,+33 5 56 62 12 92,www.cadillac-tourisme.com,,-0.3194129,44.637394
Site et monument historiques,Chapelle,Sites et monuments historiques classés,Chapelle funéraire des Ducs d'Epernon,,,33410,CADILLAC,+33 5 56 62 12 92,www.cadillac-tourisme.com,,-0.276075,44.6385
Site et monument historiques,Château,Sites et monuments historiques classés,Château de Cadillac,Place de la Libération,,33410,CADILLAC,+33 5 56 62 69 58;+33 5 56 62 60 47,www.cadillac.monuments-nationaux.fr,,-0.3194129,44.637394
Site et monument historiques,Collégiale,Sites et monuments historiques classés,Eglise Saint-Blaise et Saint-Martin,,,33410,CADILLAC,+33 5 56 62 12 92,www.cadillac-tourisme.com,,-0.276075,44.6385
Site et monument historiques,Eglise,Sites et monuments historiques inscrits,Eglise Saint Blaise - Saint Martin,,,33410,CADILLAC,+33 5 56 62 12 92,www.cadillac-tourisme.com,,-0.276075,44.6385
Site et monument historiques,Maison et bâtiment,Sites et monuments historiques inscrits,Hôpital Sainte-Marguerite,89 rue Cazeaux-Cazalet,,33410,CADILLAC,+33 5 56 76 54 54,,,-0.318445,44.63532
Site et monument historiques,Eglise,Sites et monuments historiques classés,Eglise Saint-Pierre de Camiran,,,33190,CAMIRAN,+33 5 56 61 82 73,www.entredeuxmers.com,,-0.011378,44.57648
Site et monument historiques,Eglise,Sites et monuments historiques inscrits,Eglise Saint-Saturnin de Cardan,,,33410,CARDAN,+33 5 56 76 94 08,,,-0.276075,44.6385
Site et monument historiques,Eglise,Sites et monuments historiques inscrits,Portail de l'église Saint-Saturnin,,,33410,CARDAN,+33 5 56 62 12 92,www.cadillac-tourisme.com,,-0.276075,44.6385
Site et monument historiques,Eglise,Sites et monuments historiques classés,Eglise Saint-Pierre de Cars,,,33390,CARS,+33 5 57 42 15 10,,,-0.6202162,45.12955
Site et monument historiques,Eglise,Sites et monuments historiques inscrits,Eglise Saint-Romain de Cartelègue,,,33390,CARTELEGUE,+33 6 45 46 56 95,www.cartelegue.fr/patrimoine.html,,-0.5799782,45.18516
Site et monument historiques,Ville, village et quartier,Sites et monuments historiques inscrits,Village ancien de Castelmoron d'Albret,,,33540,CASTELMORON-D'ALBRET,+33 5 56 61 82 73,www.entredeuxmers.com,,-0.0109102,44.679768
Site et monument historiques,Eglise,Sites et monuments historiques classés,Eglise Notre-Dame de Castelviel,,,33540,CASTELVIEL,+33 5 56 71 53 45;+33 5 56 61 82 73,www.entredeuxmers.com,,-0.1539587,44.66717
Site et monument historiques,Château,Sites et monuments historiques inscrits,Château du Hamel,,,33210,CASTETS-EN-DORTHE,+33 5 56 63 68 00,www.sauternais-graves-langon.com,,-0.156273,44.56357
Site et monument historiques,Eglise,Sites et monuments historiques inscrits,Eglise Saint-Romain de Castets-en-Dorthe,,,33210,CASTETS-EN-DORTHE,+33 5 56 63 68 00,www.sauternais-graves-langon.com,,-0.131265,44.557446
Site et monument historiques,Eglise,Sites et monuments historiques inscrits,Eglise Saint-Martin de Mourens,,,33410,MOURENS,+33 5 56 71 53 45,www.entredeuxmers.com,,-0.209849,44.648705
Site et monument historiques,Eglise,Sites et monuments historiques inscrits,Eglise Saint-Jean-Baptiste d'Origne,,,33113,ORIGNE,+33 5 56 25 74 85,,,-0.491023,44.409096
Site et monument historiques,Eglise,Sites et monuments historiques inscrits,Eglise Saint-Hilaire de Paillet,,,33550,PAILLET,+33 5 56 72 19 34,,,-0.368153,44.717045
Site et monument historiques,Bastide,Sites et monuments historiques inscrits,Bastide de Pellegrue,,,33790,PELLEGRUE,+33 5 56 61 37 80,www.entredeuxmers.com,,0.0754035,44.743427
Site et monument historiques,Château,Sites et monuments historiques inscrits,Château du Puch de Gensac,,,33790,PELLEGRUE,+33 6 81 55 77 36,www.entredeuxmers.com,,0.052464,44.75237
Site et monument historiques,Eglise,Sites et monuments historiques inscrits,Eglise Saint-André de Pellegrue,,,33790,PELLEGRUE,+33 5 56 61 37 80;+33 5 56 61 30 21,www.entredeuxmers.com,,0.076562,44.74256
Site et monument historiques,Maison et bâtiment,Sites et monuments historiques inscrits;ZPPAUP,Cité Frugès - Le Corbusier,Maison Municipale,4 rue Le Corbusier,33600,PESSAC,+33 5 56 36 56 46,www.pessac.fr/culture/tourisme,,-0.647615,44.799496
Site et monument historiques,Moulin,Sites et monuments historiques inscrits,Moulin à eau de Noès,Avenue de Noès,,33600,PESSAC,+33 5 57 93 65 20,www.pessac.fr,,-0.6454645,44.81233
Site et monument historiques,Eglise,Sites et monuments historiques classés,Eglise Saint-Martin de Peujard,,,33240,PEUJARD,+33 5 57 43 64 80,www.cdc-cubzaguais.fr,,-0.441159,45.03509
Site et monument historiques,Site archéologique;Ruines et vestiges,Sites et monuments historiques classés,Musée et villas gallo-romaines,Rue Chardonnet,,33390,PLASSAC,+33 5 57 42 84 80,http://plassac.gironde.fr,,-0.6458759,45.102062
Site et monument historiques,Eglise,Sites et monuments historiques classés,Eglise Sainte-Madeleine de Pleine-Selve,,,33820,PLEINE-SELVE,+33 5 57 32 63 30;+33 5 57 32 88 88,www.ot-estuaire.fr,,-0.649479,45.273464
Site et monument historiques,Château,Sites et monuments historiques classés,Château et Parc Chavat,Rue du Port,,33720,PODENSAC,+33 5 56 27 17 54,http://podensac.fr,,-0.35754,44.654427
Site et monument historiques,Eglise,Sites et monuments historiques inscrits,Eglise Saint-Vincent de Podensac,Place Gérard Busset,,33720,PODENSAC,+33 5 56 27 17 54,http://podensac.fr,,-0.352842,44.65108
Site et monument historiques,Maison et bâtiment,Sites et monuments historiques classés,Château d'eau Le Corbusier à Podensac,Rue Pierre Vincent,,33720,PODENSAC,+33 5 56 27 17 54,http://podensac.fr,,-0.359108,44.65536
Site et monument historiques,Ville, village et quartier,Sites et monuments historiques inscrits,Village ancien de Pondaurat,,,33190,PONDAURAT,+33 5 56 61 07 38,,,-0.011378,44.57648
Site et monument historiques,Moulin,Sites et monuments historiques inscrits,Moulin du Barrage,,,33660,PORCHERES,+33 6 30 93 57 60;+33 5 57 49 61 52,,,0.010684,45.0198
Site et monument historiques,Château,Sites et monuments historiques inscrits,Château de Mongenan,16 rue de Mongenan,,33640,PORTETS,+33 5 56 67 18 11,www.chateaudemongenan.com,,-0.430501,44.696053
Site et monument historiques,Château,Sites et monuments historiques classés,Château de Cazeneuve,,,33730,PRECHAC,+33 5 56 25 48 16,www.chateaudecazeneuve.com,,-0.385505,44.42922
Site et monument historiques,Eglise,Sites et monuments historiques classés,Eglise Saint-Pierre-ès-Liens de Préchac,,,33730,PRECHAC,+33 5 56 65 28 18,,,-0.385505,44.42922
Site et monument historiques,Eglise,Sites et monuments historiques inscrits,Eglise Saint-Martin d'Insos,Insos,,33730,PRECHAC,+33 5 56 25 31 39;+33 5 56 65 28 18,http://insos.free.fr,,-0.315036,44.364483
Site et monument historiques,Château,Sites et monuments historiques classés,Château de Malle,,,33210,PREIGNAC,+33 5 56 62 36 86,www.chateau-de-malle.fr,,-0.29554,44.565838
Site et monument historiques,Eglise,Sites et monuments historiques inscrits,Eglise Saint-Vincent de Preignac,,,33210,PREIGNAC,+33 5 56 63 27 39,www.preignac.fr,,-0.294917,44.584778
Site et monument historiques,Grotte et gouffre avec art pariétal,Sites et monuments historiques classés,Grotte de Pair-non-Pair,,,33710,PRIGNAC-ET-MARCAMPS,+33 5 57 68 33 40,http://pair-non-pair.monuments-nationaux.fr,,-0.5022214,45.039635
Site et monument historiques,Eglise,Sites et monuments historiques classés,Eglise de Puisseguin,,,33570,PUISSEGUIN,+33 5 57 24 95 62,www.regiondesaintemilion.com,,-0.083435,44.95231
Site et monument historiques,Ville, village et quartier,Sites et monuments historiques inscrits,Village ancien de Pujols,,,33350,PUJOLS,+33 5 57 40 27 58,www.tourisme-castillonpujols.fr,,-0.047323,44.84318
Site et monument historiques,Eglise,Sites et monuments historiques classés,Eglise Saint-Pierre aux Liens de Pujols-sur-Ciron,,,33210,PUJOLS-SUR-CIRON,+33 5 56 76 65 14,www.pujols-sur-ciron.fr,,-0.353308,44.563198
Site et monument historiques,Eglise,Sites et monuments historiques inscrits,Eglise Saint-Hilaire de Puynormand,,,33660,PUYNORMAND,+33 5 57 49 71 25;+33 5 57 69 36 53,www.pays-de-coutras.com,,0.010684,45.0198
Site et monument historiques,Maison et bâtiment,Sites et monuments historiques inscrits,Admirer la Villa Téthys,14 avenue de la Plage,,33115,PYLA-SUR-MER,+33 5 56 54 63 14,wwww.tourisme-latestedebuch.fr,,-1.2032711,44.637695
Site et monument historiques,Château fort;Donjon,Sites et monuments historiques inscrits,Château de Rauzan,12 rue de la Chapelle,,33420,RAUZAN,+33 5 57 84 03 88,www.tourisme-castillonpujols.fr;http://chateaufortderauzan.jimdo.com/,,-0.125914,44.780025
Site et monument historiques,Eglise,Sites et monuments historiques inscrits,Eglise Saint-Hilaire de Rimons,,,33580,RIMONS,+33 5 56 61 82 73,www.entredeuxmers.com,,0.0041212,44.671967
Site et monument historiques,Ville, village et quartier,Sites et monuments historiques inscrits;Sites et monuments historiques classés,Cité médiévale de Rions,,,33410,RIONS,+33 5 56 62 12 92,www.cadillac-tourisme.com,,-0.3516087,44.664135
Site et monument historiques,Eglise,Sites et monuments historiques inscrits,Eglise Saint-Louis de Roaillan,,,33210,ROAILLAN,+33 5 56 63 68 00,www.sauternais-graves-langon.com,,-0.282175,44.498245
Site et monument historiques,Eglise,Sites et monuments historiques classés,Eglise Saint-Vivien de Romagne,,,33760,ROMAGNE,+33 5 56 23 94 65,,,-0.586586,45.08703
Site et monument historiques,Eglise,Sites et monuments historiques inscrits,Eglise Saint-Jean-Baptiste de Roquebrune,,,33580,ROQUEBRUNE,+33 5 56 61 82 73,www.entredeuxmers.com,,0.082404,44.65918
Site et monument historiques,Ruines et vestiges,Sites et monuments historiques classés,Four Médiéval,Place Fouragnan,,33670,SADIRAC,+33 5 56 30 60 03,,,-0.411571,44.781258
Site et monument historiques,Croix,Sites et monuments historiques classés,Croix du Cimetière de Sadirac,,,33670,SADIRAC,+33 5 56 30 62 29  ,www.mairie-sadirac.fr,,-0.411571,44.781258
Site et monument historiques,Eglise,Sites et monuments historiques inscrits,Eglise Saint Martin de Sadirac,,,33670,SADIRAC,+33 5 56 30 62 29,,,-0.4078674,44.78281
Site et monument historiques,Eglise,Sites et monuments historiques inscrits,Église Saint-Seurin de Saillans,,,33141,SAILLANS,+33 5 57 84 32 42;+33 5 57 84 37 35;+33 5 57 84 86 86,,,-0.277451,44.959316
Site et monument historiques,Eglise,Sites et monuments historiques inscrits,Église de Saint-Aignan,,,33126,SAINT-AIGNAN,+33 5 57 51 27 47;+33 5 57 84 86 86,,,-0.298232,44.943867
Site et monument historiques,Château,Sites et monuments historiques classés,Château du Bouilh,B.P. 27,,33240,SAINT-ANDRE-DE-CUBZAC,+33 5 57 43 06 59,chateaudubouilh.jimdo.com,,-0.4557073,45.009274
Site et monument historiques,Eglise,Sites et monuments historiques inscrits,Eglise Saint-André du Nom de Dieu,,,33240,SAINT-ANDRE-DE-CUBZAC,+33 5 57 45 10 10,www.saint-andre-de-cubzac.fr,,-0.4480898,44.992188
Site et monument historiques,Eglise,Sites et monuments historiques inscrits,Eglise de Saint-Christoly-de-Blaye,,,33920,SAINT-CHRISTOLY-DE-BLAYE,+33 5 57 42 50 40,,,-0.508183,45.129955
Site et monument historiques,Eglise,Sites et monuments historiques inscrits,Eglise de Saint-Christoly-de-Médoc,,,33340,SAINT-CHRISTOLY-MEDOC,+33 5 56 41 53 07;+33 5 56 41 38 17,,,-0.8246642,45.355904
Site et monument historiques,Eglise,Sites et monuments historiques inscrits,Eglise Saint-Cyr de Saint-Ciers-d'Abzac,,,33910,SAINT-CIERS-D'ABZAC,+33 5 57 69 11 48;+33 5 57 49 40 69,http://paysdeguitres33.jimdo.com,,-0.2762413,45.030937
Site et monument historiques,Eglise,Sites et monuments historiques classés,Eglise Saint-Denis,,,33910,SAINT-DENIS-DE-PILE,+33 5 57 55 44 20,www.mairie-saintdenisdepile.fr,,-0.2055467,44.99389
Site et monument historiques,Eglise,Sites et monuments historiques inscrits,Eglise Sainte-Croix de Sainte-Croix-du-Mont,,,33410,SAINTE-CROIX-DU-MONT,+33 5 56 62 01 39,www.sainte-croix-du-mont.fr,,-0.2809023,44.593357
Site et monument historiques,Bastide,Sites et monuments historiques inscrits,Bastide de Sainte-Foy-la-Grande,,,33220,SAINTE-FOY-LA-GRANDE,+33 5 57 46 03 00,www.tourisme-dordogne-paysfoyen.com,Station Verte de Vacances,0.21354675,44.838345
Site et monument historiques,Cloître,Sites et monuments historiques classés,Cloître de l'église collégiale,Place Pierre Meyrat,,33330,SAINT-EMILION,+33 5 57 55 28 28,www.saint-emilion-tourisme.com,,-0.1570457,44.89382
Site et monument historiques,Donjon,Sites et monuments historiques classés,Tour du château du Roy,,,33330,SAINT-EMILION,+33 5 57 55 28 28,www.saint-emilion-tourisme.com,,-0.155729,44.894386
Site et monument historiques,Eglise,Sites et monuments historiques classés,Clocher de l'église monolithe,Place des Créneaux,,33330,SAINT-EMILION,+33 5 57 55 28 28,www.saint-emilion-tourisme.com,,-0.155729,44.894386
Site et monument historiques,Eglise,Sites et monuments historiques classés,Eglise collégiale de Saint-Emilion,Place Pierre Meyrat,,33330,SAINT-EMILION,+33 5 57 55 28 28,www.saint-emilion-tourisme.com,,-0.1570457,44.89382
Site et monument historiques,Ville, village et quartier,Patrimoine mondial UNESCO;Sites et monuments historiques classés,Cité médiévale de Saint-Emilion,,,33330,SAINT-EMILION,+33 5 57 55 28 28,www.saint-emilion-tourisme.com,,-0.142355,44.881958
Site et monument historiques,Eglise,Sites et monuments historiques inscrits,Eglise Saint-Alexis de Sainte-Terre,,,33350,SAINTE-TERRE,+33 5 57 47 14 34;+33 5 57 47 16 23,www.jardindelalamproie.fr,,-0.1128029,44.829044
Site et monument historiques,Eglise,Sites et monuments historiques inscrits,Eglise de Saint-Exupéry,,,33190,SAINT-EXUPERY,+33 5 56 61 82 73,www.entredeuxmers.com,,-0.011378,44.57648
Site et monument historiques,Château,Sites et monuments historiques inscrits,Château des Seigneurs de Pommiers,,,33540,SAINT-FELIX-DE-FONCAUDE,+33 5 56 71 65 16,,,-0.1105743,44.653366
Site et monument historiques,Abbaye,Sites et monuments historiques inscrits;Sites et monuments historiques classés,Abbaye de Saint-Ferme,,,33580,SAINT-FERME,+33 5 56 61 69 92;+33 5 56 61 62 10,http://abbayesaintferme.jimdo.com/,,0.0583474,44.693554
Site et monument historiques,Eglise,Sites et monuments historiques inscrits,Église de Saint-Genès de Fronsac,,,33240,SAINT-GENES-DE-FRONSAC,+33 5 57 84 86 86,,,-0.356537,45.02494
Site et monument historiques,Eglise,Sites et monuments historiques classés,Eglise Notre Dame Tout Espoir de Saint Genes de Lombaud,,,33670,SAINT-GENES-DE-LOMBAUD,+33 5 56 23 00 94,,,-0.3694152,44.751854
Site et monument historiques,Eglise,Sites et monuments historiques inscrits,Eglise templière de Saint-Genis du Bois,,,33760,SAINT-GENIS-DU-BOIS,+33 5 56 71 86 79;+33 5 56 23 63 69,www.targon-tourisme.net,,-0.586586,45.08703
Site et monument historiques,Site archéologique,Sites et monuments historiques inscrits,Site archéologique de Brion,,,33340,SAINT-GERMAIN-D'ESTEUIL,+33 5 56 09 02 07;+33 5 56 09 03 42,http://pagesperso-orange.fr/sitearcheologiquedebrion,,-0.894869,45.32131
Site et monument historiques,Eglise,Sites et monuments historiques inscrits,Eglise de Saint-Gervais,,,33240,SAINT-GERVAIS,+33 5 57 43 02 06,www.mairie-stgervais.com,,-0.465433,45.018135
Site et monument historiques,Eglise,Sites et monuments historiques inscrits,Eglise de Saint-Hilaire-de-la-Noaille,,,33190,SAINT-HILAIRE-DE-LA-NOAILLE,+33 5 56 61 82 73,www.entredeuxmers.com,,-0.011378,44.57648
Site et monument historiques,Eglise,Sites et monuments historiques classés,Eglise de Magrigne,,,33240,SAINT-LAURENT-D'ARCE,+33 6 08 62 44 01,www.cdc-cubzaguais.fr,,-0.480059,45.0537
Site et monument historiques,Eglise,Sites et monuments historiques inscrits,Eglise Saint-Laurent de Saint-Laurent d'Arce,,,33240,SAINT-LAURENT-D'ARCE,+33 5 57 43 01 61,,,-0.4701697,45.033676
Site et monument historiques,Eglise,Sites et monuments historiques classés,Notre Dame de Benon,Benon,,33112,SAINT-LAURENT-MEDOC,+33 5 56 59 42 72,,,-0.8457326,45.115177
Site et monument historiques,Eglise,Sites et monuments historiques inscrits,Eglise de Saint Laurent Médoc,,,33112,SAINT-LAURENT-MEDOC,+33 56 73 32 70,,,-0.8216786,45.15063
Site et monument historiques,Eglise,Sites et monuments historiques classés,Eglise de Saint-Léger-de-Balson,,,33125,SAINT-LEGER-DE-BALSON,+33 5 56 25 70 53,,,-0.466557,44.432724
Site et monument historiques,Eglise,Sites et monuments historiques inscrits,Eglise Saint Léon,,,33670,SAINT-LEON,+33 5 56 23 49 29;+33 5 56 23 48 02,,,-0.3694152,44.751854
Site et monument historiques,Eglise,Sites et monuments historiques classés,Eglise Saint-Sauveur de Saint-Macaire,,,33490,SAINT-MACAIRE,+33 5 56 63 32 14,www.entredeuxmers.com,,-0.227599,44.565895
Site et monument historiques,Ensemble fortifié et remparts,Sites et monuments historiques classés,Porte du Thuron,,,33490,SAINT-MACAIRE,+33 5 56 63 32 14,,,-0.2275989,44.565895
Site et monument historiques,Ensemble fortifié et remparts,Sites et monuments historiques inscrits,Les Remparts de Saint-Macaire,,,33490,SAINT-MACAIRE,+33 5 56 63 32 14,,,-0.2254986,44.563675
Site et monument historiques,Ensemble fortifié et remparts,Sites et monuments historiques inscrits,Porte de Benauge,,,33490,SAINT-MACAIRE,+33 5 56 63 32 14,www.saintmacaire.fr,,-0.2270758,44.565094
Site et monument historiques,Ensemble fortifié et remparts,Sites et monuments historiques inscrits,Porte Rendesse,,,33490,SAINT-MACAIRE,+33 5 56 63 32 14,,,-0.2275989,44.565895
Site et monument historiques,Maison et bâtiment,Sites et monuments historiques classés,Maison de Tardes,,,33490,SAINT-MACAIRE,+33 5 56 63 32 14,,,-0.2275989,44.565895
Site et monument historiques,Maison et bâtiment,Sites et monuments historiques classés,Maison Messidan,15 rue Amélie Courbet,,33490,SAINT-MACAIRE,+33 5 56 63 32 14,,,-0.2275989,44.565895
Site et monument historiques,Maison et bâtiment,Sites et monuments historiques classés,Relais de poste Henri IV,Place du Mercadiou,,33490,SAINT-MACAIRE,+33 5 56 63 32 14,,,-0.2246752,44.56515
Site et monument historiques,Monastère,Sites et monuments historiques inscrits,Prieuré Saint-Sauveur,,,33490,SAINT-MACAIRE,+33 5 56 63 32 14,,,-0.2275989,44.565895
Site et monument historiques,Ville, village et quartier,Sites et monuments historiques inscrits,Cité médiévale de Saint-Macaire,,,33490,SAINT-MACAIRE,+33 5 56 63 32 14,www.entredeuxmers.com;www.saintmacaire.fr,,-0.2275989,44.565895
Site et monument historiques,Ville, village et quartier,Sites et monuments historiques inscrits,Place du Mercadiou,,,33490,SAINT-MACAIRE,+33 5 56 63 32 14,,,-0.2275989,44.565895
Site et monument historiques,Eglise,Sites et monuments historiques inscrits,Eglise de Saint-Maixant,,,33490,SAINT-MAIXANT,+33 5 56 63 32 14,www.entredeuxmers.com,,-0.2650237,44.57705
Site et monument historiques,Maison et bâtiment,Sites et monuments historiques inscrits;Sites et monuments historiques classés,Centre François Mauriac de Malagar,,,33490,SAINT-MAIXANT,+33 5 57 98 17 17,http://malagar.aquitaine.fr,Maisons des Illustres,-0.2379226,44.57873
Site et monument historiques,Eglise,Sites et monuments historiques inscrits,Eglise Saint-Martial de Saint-Martial,,,33490,SAINT-MARTIAL,+33 5 56 63 32 14,www.entredeuxmers.com,,-0.1754057,44.637634
Site et monument historiques,Eglise,Sites et monuments historiques inscrits,Eglise Saint-Martin de Saint-Martin-de-Laye,,,33910,SAINT-MARTIN-DE-LAYE,+33 5 57 49 40 44,www.otguitres.fr,,-0.2181148,45.038506
Site et monument historiques,Eglise,Sites et monuments historiques inscrits;Sites et monuments historiques classés,Eglise Saint-Martin de Saint-Martin-de-Sescas,,,33490,SAINT-MARTIN-DE-SESCAS,+33 5 56 63 32 14,www.entredeuxmers.com,,-0.16222,44.575092
Site et monument historiques,Eglise,Sites et monuments historiques inscrits,Eglise Sainte-Radegonde,,,33230,SAINT-MEDARD-DE-GUIZIERES,+33 5 57 56 45 45,,,-0.118324,45.056057
Site et monument historiques,Eglise,Sites et monuments historiques inscrits,Église de Saint-Michel de Fronsac,,,33126,SAINT-MICHEL-DE-FRONSAC,+33 5 57 51 27 47;+33 5 57 84 86 86,,,-0.302753,44.929882
Site et monument historiques,Eglise,Sites et monuments historiques inscrits,Eglise de Saint-Michel-de-Lapujade,,,33190,SAINT-MICHEL-DE-LAPUJADE,+33 5 56 61 82 73,www.entredeuxmers.com,,-0.011378,44.57648
Site et monument historiques,Eglise,Sites et monuments historiques inscrits,Eglise de Saint-Michel-de-Rieufret,,,33720,SAINT-MICHEL-DE-RIEUFRET,+33 5 56 62 52 25,www.saintmichel-de-rieufret.fr,,-0.432635,44.621758
Site et monument historiques,Eglise,Sites et monuments historiques inscrits,Eglise Saint-Maurille de Saint-Morillon,,,33650,SAINT-MORILLON,+33 5 56 78 47 72,www.otmontesquieu.com,,-0.502948,44.650146
Site et monument historiques,Eglise,Sites et monuments historiques inscrits,Eglise de Saint-Palais,,,33820,SAINT-PALAIS,+33 5 57 32 61 58;+33 5 57 32 60 36,,,-0.538671,45.310818
Site et monument historiques,Château,Sites et monuments historiques inscrits,Château des Jaubertes,,,33210,SAINT-PARDON-DE-CONQUES,+33 5 56 02 61 50;+33 5 56 63 68 00,www.chateau-des-jaubertes.com;www.sauternais-graves-langon.com,,-0.194713,44.559563
Site et monument historiques,Eglise,Sites et monuments historiques inscrits,Eglise Saint-Eutrope de Saint-Paul,Le bourg,,33390,SAINT-PAUL,+33 5 57 42 08 01,,,-0.6023597,45.148632
Site et monument historiques,Eglise,Sites et monuments historiques inscrits,Eglise Saint-Pierre Es Liens,,,33760,SAINT-PIERRE-DE-BAT,+33 5 56 23 61 95,,,-0.586586,45.08703
Site et monument historiques,Eglise,Sites et monuments historiques inscrits,Église Saint-Romain de Saint-Romain La Virvée,,,33240,SAINT-ROMAIN-LA-VIRVEE,+33 5 57 58 21 65;+33 5 57 84 86 86,,,-0.400122,44.965855
Site et monument historiques,Mégalithe,Sites et monuments historiques classés,Menhir de Pierrefitte,,,33330,SAINT-SULPICE-DE-FALEYRENS,+33 5 57 55 28 28,www.saint-emilion-tourisme.com,,-0.142355,44.881958
Site et monument historiques,Eglise,Sites et monuments historiques inscrits,Eglise de Saint-Symphorien,,,33113,SAINT-SYMPHORIEN,+33 5 56 65 01 10,www.mairie-saint-symphorien-gironde.fr,,-0.491023,44.409096
Site et monument historiques,Eglise,Sites et monuments historiques classés,Eglise de Saint-Vivien-de-Médoc,,,33590,SAINT-VIVIEN-DE-MEDOC,+33 5 56 09 58 50,,,-1.0899553,45.41454
Site et monument historiques,Eglise,Sites et monuments historiques inscrits,Eglise Saint-Vivien de Saint-Vivien-de-Monségur,,,33580,SAINT-VIVIEN-DE-MONSEGUR,+33 5 56 61 82 73,www.entredeuxmers.com,,0.082404,44.65918
Site et monument historiques,Croix,Sites et monuments historiques inscrits,Colonne à la Vierge de Saint-Yzans-de-Médoc,,,33340,SAINT-YZANS-DE-MEDOC,+33 5 56 09 05 06,,,-0.8202773,45.321835
Site et monument historiques,Eglise,Sites et monuments historiques inscrits,Eglise Saint-Pierre de Salignac,,,33240,SALIGNAC,+33 5 57 43 13 05,,,-0.380423,45.016212
Site et monument historiques,Cimetière militaire et mémorial,Sites et monuments historiques inscrits,Mémorial de la Ferme de Richemont,,,33650,SAUCATS,+33 5 57 78 47 72,www.otmontesquieu.com,,-0.630768,44.630524
Site et monument historiques,Château,Sites et monuments historiques inscrits,Château d'Yquem,,,33210,SAUTERNES,+33 5 56 63 68 00,www.sauternais-graves-langon.com;www.yquem.fr,,-0.321753,44.541557
Site et monument historiques,Eglise,Sites et monuments historiques inscrits,Eglise Saint-Pierre-ès-Liens de Sauternes,,,33210,SAUTERNES,+33 5 56 63 68 00,www.sauternais-graves-langon.com,,-0.343388,44.5343
Site et monument historiques,Pigeonnier,Sites et monuments historiques inscrits,Pigeonnier du Château d'Yquem,,,33210,SAUTERNES,+33 5 56 63 68 00,www.sauternais-graves-langon.com,,-0.343268,44.531033
Site et monument historiques,Bastide,Sites et monuments historiques inscrits,Bastide de Sauveterre-de-Guyenne,,,33540,SAUVETERRE-DE-GUYENNE,+33 5 56 71 53 45,www.entredeuxmers.com,,-0.085669,44.692757
Site et monument historiques,Basilique,Sites et monuments historiques classés;Patrimoine mondial UNESCO,Basilique Notre-Dame de la Fin des Terres,Place Aliénor d'Aquitaine,,33780,SOULAC-SUR-MER,+33 5 56 09 86 61,www.soulac.com,,-1.1217856,45.513535
Site et monument historiques,Eglise,Sites et monuments historiques inscrits,Eglise Saint-Genès de Soulignac,,,33760,SOULIGNAC,+33 5 56 23 92 12,,,-0.586586,45.08703
Site et monument historiques,Eglise,Sites et monuments historiques inscrits,Eglise Saint-Romain de Targon,,,33760,TARGON,+33 (05) 56 23 90 13;+33 5 56 23 63 69,www.targon-tourisme.net,,-0.586586,45.08703
Site et monument historiques,Ruines et vestiges,Sites et monuments historiques inscrits,Ruines de l'église de Montarouch,Route de Branne,,33760,TARGON,+33 5 56 23 63 69,www.targon-tourisme.net,,-0.258611,44.756927
Site et monument historiques,Collégiale,Sites et monuments historiques classés,Collégiale d'Uzeste,,,33730,UZESTE,+33 6 09 92 20 23,www.cc-villandraut.fr,,-0.385505,44.42922
Site et monument historiques,Collégiale,Sites et monuments historiques inscrits,Circuit d'interprétation du patrimoine - Collégiale d'Uzeste,Collégiale d'Uzeste,,33730,UZESTE,+33 5 56 25 31 39,www.cc-villandraut.fr,,-0.323523,44.441036
Site et monument historiques,Château,Sites et monuments historiques inscrits;Sites et monuments historiques classés,Château de Vayres,,,33870,VAYRES,+33 5 57 84 96 58,www.chateaudevayres.com,,-0.32573,44.89077
Site et monument historiques,Basilique,Sites et monuments historiques classés,Basilique Notre-Dame de Verdelais,,,33490,VERDELAIS,+33 5 56 62 02 06,www.verdelais.com,,-0.250404,44.5884
Site et monument historiques,Croix,Sites et monuments historiques classés,Croix votive de Verdelais,,,33490,VERDELAIS,+33 5 56 63 32 14,www.entredeuxmers.com;www.verdelais.com,,-0.2498853,44.588284
Site et monument historiques,Eglise,Sites et monuments historiques inscrits,Eglise Saint-Maurice d'Aubiac,Le bourg,,33490,VERDELAIS,+33 5 56 63 32 14,www.entredeuxmers.com,,-0.274052,44.583057
Site et monument historiques,Abbaye,Sites et monuments historiques inscrits;Sites et monuments historiques classés,Abbatiale et Abbaye de Vertheuil-Médoc,2 place Saint-Pierre,,33180,VERTHEUIL,+33 5 56 73 30 10,www.vertheuil-medoc.com,,-0.834644,45.250465
Site et monument historiques,Château,Sites et monuments historiques classés,Château de Villandraut,,,33730,VILLANDRAUT,+33 5 56 25 87 57,www.assoadichats.net,,-0.385505,44.42922
Site et monument historiques,Eglise,Sites et monuments historiques classés,Église Saint-Pierre de Villegouge,,,33141,VILLEGOUGE,+33 5 57 84 86 86,,,-0.307726,44.96746
