ACTIVITES,PRESTATIONS,RAISON_SOCIALE,ADRESSE,ADRESSE_SUITE,CODE_POSTAL,COMMUNE,TELEPHONE,SITE_WEB,LABELS,LONGITUDE,LATITUDE
Equitation,Multiactivités,Haras d'Abzac,Au Breuillet ouest,,33230,ABZAC,+33 7 87 00 49 06,www.centre-equestre-d-abzac.fr ,,-0.1428651,45.001556
Equitation,Multiactivités,Les Ecuries d'Andernos,route de Bordeaux,,33510,ANDERNOS-LES-BAINS,+33 5 56 82 27 16,http://ecuries.andernos.free.fr,,-1.072426,44.758053
Equitation,Multiactivités,Le centre équestre d'Arcachon,avenue Pierre Frondaie,,33120,ARCACHON,+33 6 63 88 74 17,http://cearcachon.free.fr ,,-1.169843,44.653698
Equitation;Randonnée équestre,Multiactivités;Accompagnement,Centre équestre des Pins,574 piste 210,lieu-dit Lubec,33980,AUDENGE,+33 5 56 74 09 96,,,-0.921237,44.7147
Equitation;Randonnée équestre,Multiactivités;Accompagnement,Domaine d'Oulès,rue des Trucails,,33980,AUDENGE,+33 5 57 76 26 80,domainedoules.free.fr,,-0.9720969,44.68092
Equitation,Multiactivités,Ferme équestre du Drot,Château le Drot,,33190,BAGAS,+33 5 56 71 49 92,www.bienvenue-a-la-ferme.com/gironde/ferme-ferme-equestre-du-drot-215453 ,Bienvenue à la Ferme,-0.063858,44.623833
Equitation,Multiactivités,Centre équestre de Bazas,avenue de la République,,33430,BAZAS,+33 6 12 61 24 46,www.bazas.educagri.fr/letablissement-et-ses-centres/centre-equestre.html,,-0.2275907,44.43388
Equitation,Multiactivités,Poney-Club de Bazas,lieu-dit Garlope,,33430,BAZAS,+33 5 56 25 98 63,http://poneyclubdebazas.com,,-0.2581787,44.444077
Equitation;Randonnée équestre,Multiactivités;Accompagnement,Equi-Libre,Centre équestre du Volcelest,Joué,33830,BELIN-BELIET,+33 5 56 88 02 68,http://volcelest.com,,-0.734404,44.472984
Equitation,Multiactivités,Les Ecuries de Libet,3, lieu dit Libet,,33430,BERNOS-BEAULAC,+33 5 56 25 46 35,www.ecuriesdelibet.com,,-0.2674484,44.381416
Equitation,Multiactivités,Poney-Club les Galop-pins,chemin Bacquey,,33430,BERNOS-BEAULAC,+33 6 87 31 31 09,www.bienvenue-a-la-ferme.com/gironde/ferme-equestre/ferme-poney-club-des-galopins-2668-210657 ,Bienvenue à la Ferme,-0.2578447,44.38086
Equitation,Multiactivités,Queyran'ch,lieu-dit Queyran,,33430,BERNOS-BEAULAC,+33 5 56 25 41 33,www.queyranch.com,,-0.252989,44.379776
Equitation,Multiactivités,Ecuries de l'Oasis,2 La Charonne,,33390,BERSON,+33 6 62 25 64 05,,,-0.5900422,45.115997
Equitation,Multiactivités,Les Ecuries de Labarthe Vieille,Labarthe Vieille,,33124,BERTHEZ,+33 5 56 65 46 06,,,-0.10697,44.485912
Equitation;Randonnée équestre,Multiactivités;Accompagnement,Centre Equestre du Domaine des Argentières,Domaine des Argentières,Bos Daré,33380,BIGANOS,+33 5 56 82 73 75,http://domainedesargentieres.ffe.com,,-0.976619,44.642113
Equitation,Multiactivités,Ecuries des Hauts de Gironde,lieu-dit Le Passage,,33820,BRAUD-ET-SAINT-LOUIS,+33 5 57 64 42 46,,,-0.6560897,45.22292
Equitation;Randonnée équestre,Accompagnement;Multiactivités,Centre équestre du Blayais,17, route du Lion d'Or,Pigou,33390,CARTELEGUE,+33 5 57 64 52 64,www.centreequestreblayais33.ffe.com,,-0.5734348,45.195103
Equitation,Multiactivités,Centre Equestre des Ecuries de Blanzac,Saint-Magne - Blanzac,,33350,CASTILLON-LA-BATAILLE,+33 5 57 40 28 52,www.ecuriesdeblanzac.com,,-0.050385,44.86536
Equitation,Multiactivités,Les Ecuries de Château Panon,2 lieu-dit Panon,,33430,CAZATS,+33 5 56 25 27 58,www.lesecuriesdechateaupanon.com,,-0.1933575,44.477592
Equitation,Multiactivités,Centre équestre de la Base,Cité de Verdun,,33260,CAZAUX,+33 6 75 20 19 88,http://cheval-cazaux.com,,-1.1588001,44.531345
Equitation,Cours,Ferme équestre de l'Entre-deux-Mers,13, Les Marchais,,33540,CLEYRAC,+33 5 56 71 28 50,,,-0.0337614,44.71754
Equitation,Multiactivités,Haras de la Grézère,,,33210,COIMERES,+33 6 88 88 08 97;+33 6 50 47 29 15,www.harasdelagrezere.com,,-0.2096619,44.496025
Equitation,Multiactivités,Ecurie Flamme,14, Tournerie,,33230,COUTRAS,+33 5 57 69 30 47,www.ecurie-flamme.com,,-0.124307,45.056152
Equitation,Multiactivités,Ferme équestre du Branna,1 le Branna,,33430,CUDOS,+33 6 76 49 83 30,,,-0.1831624,44.372555
Equitation,Multiactivités,Les Ecuries d'Escaudes,2, lieu dit Jean de Petit,,33840,ESCAUDES,+33 6 64 15 10 45;+33 6 62 78 23 08,www.ecuries-escaudes.com,,-0.2069377,44.30816
Equitation,Multiactivités,Ferme équestre des Près du Haut,23, route de Touilla,,33210,FARGUES,+33 5 56 63 01 53,www.indirando.chez.com,Bienvenue à la Ferme,-0.295615,44.547382
Equitation,Multiactivités,Les poneys Mômes d'Hélène,Château Tire-Pé,,33190,GIRONDE-SUR-DROPT,+33 5 56 71 10 09,www.tirepe.com,Bienvenue à la Ferme,-0.087625,44.58308
Equitation,Multiactivités,Centre équestre de Grayan,Lieu dit Dépée,,33590,GRAYAN-ET-L'HOPITAL,+33 5 56 09 33 33,http://euronat-centre-equestre.eu ,,-1.084976,45.444897
Equitation,Multiactivités,Centre Equestre des Pins,18 chemin du Loup,,33470,GUJAN-MESTRAS,+33 5 56 66 34 69,http://ecuriesoceanes.com,,-1.0984611,44.61094
Equitation;Randonnée équestre,Multiactivités,Les Ecuries du Lac d'Hostens,11, route de Louchats,,33125,HOSTENS,+33 5 56 88 77 71,www.ecuries-lac-hostens.fr;http://www.equitation-aquitaine.com,,-0.611536,44.50058
Equitation;Randonnée équestre,Multiactivités,Centre équestre du Cardin,520, chemin de Bécassine,,33990,HOURTIN PORT,+33 5 56 09 20 75,www.ceducardin.com,,-1.0759735,45.17806
Equitation;Randonnée équestre,Multiactivités,Westerlies Farm,chemin de Becassine,,33990,HOURTIN PORT,+33 5 56 09 10 60,www.westerliesfarm.com,Famille Plus,-1.0740852,45.17886
Equitation,Multiactivités,Haras de la Mellerie,port de Richard,,33590,JAU-DIGNAC-ET-LOIRAC,+33 5 56 41 37 90,www.haras-lamellerie.com,,-0.959176,45.408913
Equitation,Multiactivités,Centre équestre de La Réole,route de Monségur,,33190,LA REOLE,+33 5 56 61 19 85,www.centreequestrelareole.fr,,-0.027767,44.59458
Equitation;Randonnée équestre,Multiactivités;Accompagnement,Centre équestre Le Pas du Marquis,Villemarie,,33260,LA TESTE-DE-BUCH,+33 5 56 54 18 05,www.le-pas-du-marquis.fr,,-1.1138248,44.599392
Equitation,Multiactivités,Poney Parc de Vitalparc,route du Baganais,,33680,LACANAU OCEAN,+33 5 56 03 92 00,www.vitalparc.com,Famille Plus,-1.1713367,44.9921
Equitation,Multiactivités,Lacanau Equi-passion,114, avenue de Bordeaux,,33680,LACANAU VILLE,+33 6 77 75 97 28,www.lacanau-equipassion.fr,Famille Plus,-1.0496556,44.976505
Equitation,Multiactivités,Poney-club de Guîtres,1, Bel Air,,33230,LAGORCE,+33 5 57 69 19 82,http://poneyclubguitres.free.fr,,-0.178233,45.06319
Equitation,Multiactivités,Club Hippique La Gourmette,Comète,,33210,LANGON,+33 5 56 63 07 46,www.la-gourmette-langon.com,,-0.271135,44.536648
Equitation,Multiactivités,Le Jardin des Poneys,route de la Sablière,,33138,LANTON,+33 6 16 94 35 10,http://lejardindesponeys.com,,-1.0243892,44.70606
Equitation;Randonnée équestre,Accompagnement;Multiactivités,Cercle hippique des Pins,33, rue de la Forêt,,33114,LE BARP,+33 6 80 01 53 99,,,-0.7589418,44.605385
Equitation,Multiactivités,Centre Equestre de Lescarran,chemin de Mérot,,33680,LE PORGE,+33 6 64 43 56 68,www.poney-plage.com,,-1.0808658,44.87941
Equitation,Multiactivités,Le Relais de la Bohème,2 route du Clot Arriou,,33680,LE TEMPLE,+33 5 56 82 95 54,www.lerelaisdelaboheme.com,,-0.970321,44.87353
Equitation,Multiactivités,Centre équestre de Lège-Cap Ferret,route du Truc Vert,,33950,LEGE-CAP FERRET,+33 5 56 60 82 85,www.centre-equestre-lege-cap-ferret.com,,-1.2229156,44.72591
Equitation,Multiactivités,Tinkapalo Ranch,Noailles,,33840,LERM-ET-MUSSET,+33 5 56 65 76 35,www.tinkapalo-ranch.vpweb.fr,,-0.1511372,44.3324
Equitation,Multiactivités;Cours,Poney-club de Sainte-Foy-la-Grande,Les Gaillards,,33220,LES LEVES-ET-THOUMEYRAGUES,+33 5 57 41 22 70,www.poneyclubstefoy.com,,0.174919,44.793102
Equitation,Cours,Le Buffalo de l'Ouest,7 Le Rondier,,33230,MARANSIN,+33 6 26 26 37 63,,,-0.268164,45.07125
Equitation;Randonnée équestre,Pratique libre;Pratique libre,Haras de Croix d'Hins,8 ZI de Croix d'Hins,,33380,MARCHEPRIME,+33 6 77 52 25 38;+33 6 81 20 60 68,www.harasdecroixdhins.com,,-0.816669,44.71222
Equitation;Randonnée équestre,Multiactivités;Accompagnement,Centre équestre de Mios,47, avenue du Général de Gaulle,,33380,MIOS,+33 5 56 26 43 60,http://centre-equestre-mios.ffe.com ,,-0.913977,44.59864
Equitation,Accompagnement,Mustang Aventure,lieu-dit Barbenègre,,33190,MONGAUZY,+33 6 32 77 10 73,www.mustangaventure.com,,0.03762,44.580833
Equitation,Multiactivités,Ecuries Dornic,20, lieu-dit Montignac,,33580,MONSEGUR,+33 5 56 61 68 14,www.ecuriesdornic.fr,,0.082404,44.65918
Equitation,Pratique libre;Accompagnement,Château de Beausite,35 route de Mathas,,33640,PORTETS,+33 5 56 67 18 15,www.chateaudebeausite.fr,,-0.4031867,44.680614
Equitation,Accompagnement,Poney-Club du Château Perron,Château Perron,,33210,ROAILLAN,+33 6 14 51 20 64,www.poneyperron.com,,-0.276097,44.506744
Equitation,Multiactivités,Les écuries du Gaudoux,,,33790,SAINT ANTOINE DU QUEYRET,+33 6 50 70 16 34,www.ecuriesdugaudoux.com,,0.0092339,44.763153
Equitation;Randonnée équestre,Multiactivités;Accompagnement,L'Elevage du Frêne,1, le Frêne,,33390,SAINT-ANDRONY,+33 5 57 64 45 86,www.elevage-du-frene.com,Bienvenue à la Ferme,-0.6493091,45.189445
Equitation,Multiactivités,Les Ecuries du Gaudoux,3, les Gaudoux,,33790,SAINT-ANTOINE-DU-QUEYRET,+33 5 57 40 53 45,http://ecuriesdugaudoux.com,,0.01035,44.77667
Equitation,Multiactivités,Les Ecuries de Logerie,Logerie,,33660,SAINT-ANTOINE-SUR-L'ISLE,+33 5 57 49 70 14,http://perso.orange.fr/ecuries-de-logerie/,,0.039127,45.02788
Equitation,Pratique libre;Multiactivités;Accompagnement,Les Lacs du Moulin Blanc,,,33920,SAINT-CHRISTOLY-DE-BLAYE,+33 5 57 58 47 79,www.cdc-saintsavin.fr,,-0.4755878,45.152565
Equitation,Multiactivités,Centre Equestre La Palombe,84 chemin des Treilles,,33910,SAINT-DENIS-DE-PILE,+33 6 10 84 07 68,www.centre-equestre-la-palombe.com,,-0.1647801,44.9776
Equitation,Multiactivités,Ecuries de la Luzernière,70 route des Artigues,,33910,SAINT-DENIS-DE-PILE,+33 5 57 84 29 38,,,-0.181531,44.974323
Equitation,Multiactivités,Centre Hippique du Bois Vieux,17 chemin Vieux Bois,,33240,SAINT-GERVAIS,+33 5 57 43 32 17,,,-0.4738605,45.01004
Equitation,Multiactivités,Ecurie de l'Ancien Pont,route de l'Ancien Pont,,33490,SAINT-MACAIRE,+33 5 56 63 83 47,www.ecuries-de-lancien-pont.ffe.com ,,-0.2366781,44.56251
Equitation,Multiactivités,Les Ecuries de Subileau,1 lieu-dit Subileau,,33910,SAINT-MARTIN-DE-LAYE,+33 5 57 84 72 14,www.subileau.net,,-0.2181148,45.038506
Equitation,Multiactivités,Centre équestre de Saint-Yzan de Soudiac,26 route du Pas de Méric,,33920,SAINT-YZAN-DE-SOUDIAC,+33 5 57 58 02 02,www.centre-equestre-saint-yzan.com,Bienvenue à la Ferme,-0.412395,45.154278
Equitation,Multiactivités,Les Ecuries de l'Etang,Les Sourderies,route de Marsas,33240,SALIGNAC,+33 6 13 45 83 13;+33 6 17 08 06 21,http://ecuries-de-letang.site.voila.fr,,-0.3716335,45.04123
Equitation,Accompagnement,Promenades à cheval "Danse avec les chevaux",Majouraou,,33430,SAUVIAC,+33 5 56 25 56 73,quali-fourchon.weebly.com,,-0.1763869,44.4105
Equitation,Multiactivités,La Grange de Majouraou,Majouraou,,33430,SAUVIAC,+33 5 56 25 56 73,www.la-grange-de-majouraou.com,,-0.176374,44.410664
Equitation,Multiactivités,Ferme équestre des palombières,Mouillou,,33690,SILLAS,+33 5 40 50 41 98,http://pcb-artiguevieille33cudos.ffe.com ,,-0.0614547,44.373196
Equitation,Multiactivités,Equi'Passion Attelage Loisirs,Ferme équestre,lieu-dit Masse,33550,TABANAC,+33 6 74 28 94 80,http://equipassion-tabanac33.ffe.com ,Bienvenue à la Ferme,-0.4090529,44.71263
Equitation,Accompagnement,Club Atlantique Equestre,avenue de l'Europe,,33930,VENDAYS-MONTALIVET,+33 5 56 34 13 09,,,-1.1458826,45.348434
Equitation,Multiactivités,Centre Equestre de Clavières,96 route d'Hourtin,,33930,VENDAYS-MONTALIVET,+33 5 56 41 05 95,www.equitation-clavieres.com,,-1.0912362,45.35054
Equitation,Multiactivités,Centre équestre de Périgueys,Haras de Périgueys,,33930,VENDAYS-MONTALIVET,+33 5 5 6 41 75 08,www.centre-equestre-de-perigueys.com,,-1.0395595,45.370163
Equitation,Multiactivités,Centre équestre du Ciron,Mouréou,,33730,VILLANDRAUT,+33 6 10 51 27 20,centre-equestre-du-ciron.com,,-0.377577,44.447746
