TYPE,CATEGORIE,RAISON_SOCIALE,ADRESSE,ADRESSE_SUITE_1,ADRESSE_SUITE_2,CODE_POSTAL,COMMUNE,TEL__INFORMATIONS,SITE_WEB,LABEL,LONGITUDE,LATITUDE
Meublés,3 étoiles,Résidence le Banc de Bernet,29, boulevard du Maréchal Leclerc,Appt n° 25,,33120,ARCACHON,+33 7 86 01 49 73,http://monsite.orange.fr/dubos,Non labellisé,-1.143484,44.637962
Meublés,3 étoiles,Meublé Lagrave,23 avenue de Mentque,,,33120,ARCACHON,+33 5 56 20 57 71,,Non labellisé,-1.180966,44.66109
Meublés,3 étoiles,Rés. La Houle Bât C Appt 105,3 place Carnot,,,33120,ARCACHON,,,Non labellisé,-1.1724793,44.663197
Meublés,3 étoiles,Résidence Les Pêcheries,127 boulevard de la Plage,Appt n° 169,,33120,ARCACHON,+33 6 86 42 56 52,,Non labellisé,-1.177597,44.663418
Meublés,3 étoiles,Résidence du Port-Bât Epsom; RDJ,59/61 boulevard de la Plage,,,33120,ARCACHON,+33 6 86 42 56 52,,Non labellisé,-1.1751079,44.663403
Meublés,3 étoiles,Meublé Durbigny,8 allée Jules Verne,,,33120,ARCACHON,+33 5 56 83 03 71,,Non labellisé,-1.185885,44.652885
Meublés,3 étoiles,Meublé Rodriguez,5 rue François de Sourdis,,,33120,ARCACHON,+33 5 53 67 17 13,,Non labellisé,-1.1746894,44.661766
Meublés,3 étoiles,Meublé Besson,9 rue Claude Debussy,,,33120,ARCACHON,+33 5 57 68 40 16,,Non labellisé,-1.191826,44.648376
Meublés,3 étoiles,Meublé Mansiet,22 avenue Victor Hugo,,,33120,ARCACHON,+33 6 83 57 23 09,www.lepavillondarcachon.fr,Non labellisé,-1.166328,44.656876
Meublés,3 étoiles,Résidence Le Moulleau - Appt 18,33, avenue Saint-François Xavier,,,33120,ARCACHON,+33 5 56 89 09 71,,Non labellisé,-1.202432,44.64037
Meublés,3 étoiles,Meublé Morell,1 allée du Père Ozil,Les Abatilles,,33120,ARCACHON,+33 5 56 84 11 85,,Non labellisé,-1.186248,44.646427
Meublés,3 étoiles,Meublé Bousquet,28 avenue Gambetta,Appartement n° 8,,33120,ARCACHON,+33 6 67 30 06 72,,Non labellisé,-1.1682532,44.660553
Meublés,3 étoiles,Meublé Jansen,254, boulevard de la Plage,Appt 1er étage droite,,33120,ARCACHON,+33 6 82 01 93 56,,Non labellisé,-1.168928,44.66247
Meublés,3 étoiles,Résidence les Huniers,14 bis, quai du Capitaine Allègre,Entrée A - Appt n° 40,,33120,ARCACHON,+33 5 56 64 02 18,,Non labellisé,-1.143933,44.656666
Meublés,3 étoiles,Villa Valentine,20 avenue Régnauld,N° 1,,33120,ARCACHON,+33 5 56 83 11 40,www.villa-valentine.com,Non labellisé,-1.172092,44.65184
Meublés,3 étoiles,Villa Valentine,20 avenue Régnauld,N° 10,,33120,ARCACHON,+33 5 56 83 11 40,www.villa-valentine.com,Non labellisé,-1.172092,44.65184
Meublés,3 étoiles,Villa Valentine,20 avenue Régnauld,N° 11,,33120,ARCACHON,+33 5 56 83 11 40,www.villa-valentine.com,Non labellisé,-1.172092,44.65184
Meublés,3 étoiles,Villa Valentine,20 avenue Régnauld,N° 12,,33120,ARCACHON,+33 5 56 83 11 40,www.villa-valentine.com,Non labellisé,-1.172092,44.65184
Meublés,3 étoiles,Villa Valentine,20 avenue Régnauld,N° 14,,33120,ARCACHON,+33 5 56 83 11 40,www.villa-valentine.com,Non labellisé,-1.172092,44.65184
Meublés,3 étoiles,Villa Valentine,20 avenue Régnauld,N° 20,,33120,ARCACHON,+33 5 56 83 11 40,www.villa-valentine.com,Non labellisé,-1.172092,44.65184
Meublés,3 étoiles,Villa Valentine,20 avenue Régnauld,N° 21,,33120,ARCACHON,+33 5 56 83 11 40,www.villa-valentine.com,Non labellisé,-1.172092,44.65184
Meublés,3 étoiles,Villa Valentine,20 avenue Régnauld,N° 22,,33120,ARCACHON,+33 5 56 83 11 40,www.villa-valentine.com,Non labellisé,-1.172092,44.65184
Meublés,3 étoiles,Villa Valentine,20 avenue Régnauld,N° 23,,33120,ARCACHON,+33 5 56 83 11 40,www.villa-valentine.com,Non labellisé,-1.149931,44.654774
Meublés,3 étoiles,Villa Valentine,20 avenue Régnauld,N° 30,,33120,ARCACHON,+33 5 56 83 11 40,www.villa-valentine.com,Non labellisé,-1.172092,44.65184
Meublés,3 étoiles,Villa Valentine,20 avenue Régnauld,N° 31,,33120,ARCACHON,+33 5 56 83 11 40,www.villa-valentine.com,Non labellisé,-1.172092,44.65184
Meublés,3 étoiles,Villa Valentine,20 avenue Régnauld,N° 32,,33120,ARCACHON,+33 5 56 83 11 40,www.villa-valentine.com,Non labellisé,-1.172092,44.65184
Meublés,3 étoiles,Villa Valentine,20 avenue Régnauld,,,33120,ARCACHON,+33 5 56 83 11 40,www.villa-valentine.com,Non labellisé,-1.172092,44.65184
Meublés,3 étoiles,Résidence les Lumières d'Arcachon,8, rue du Port,Appt n° B012,,33120,ARCACHON,+33 6 12 46 40 72,,Non labellisé,-1.1692,44.6528
Meublés,4 étoiles,Meublé Debyser,7 Passage Bernard Palissy,,,33120,ARCACHON,,,Non labellisé,-1.1532012,44.65839
Meublés,4 étoiles,Meublé Serin,9 bis rue Claude Debussy,,,33120,ARCACHON,+33 6 86 06 28 33,,Non labellisé,-1.1915938,44.64869
Meublés,4 étoiles,Meublé Flambry,2 rue Rhin et Danube,1er étage - Appt n°4,,33120,ARCACHON,,,Non labellisé,-1.1736917,44.661648
Meublés,2 étoiles,Meublé Barinoil,5 avenue des Chardonnerets,,,33740,ARES,+33 5 56 60 23 05,,Non labellisé,-1.1292636,44.765644
Meublés,2 étoiles,Meublé Pouts,41 rue Garguehos,,,33740,ARES,+33 6 15 05 15 58,,Non labellisé,-1.1342525,44.76329
Meublés,2 étoiles,Résidence du Parc,16 rue des Fauvettes,Appt n° 38,,33740,ARES,+33 6 11 10 84 31;+33 6.63.20.85.09,,Non labellisé,-1.1305618,44.76322
Meublés,2 étoiles,Meublé Duvignacq,34 rue du XIV Juillet,,,33740,ARES,+33 5 56 60 27 96,,Non labellisé,-1.1404752,44.762657
Meublés,2 étoiles,Meublé Dupe ,1 avenue de la Libération,,,33740,ARES,+33 5 56 60 18 94;+33 5 56 60 07 02,,Non labellisé,-1.1388766,44.766586
Meublés,2 étoiles,Meublé Lacoste,Lotissement les Mimosas,1 rue des Tamaris,,33740,ARES,+33 5 56 82 34 73,,Non labellisé,-1.1267852,44.757812
Meublés,2 étoiles,Meublé Landreau,Les Hauts d'Arès,22 rue Antoine Watteau,,33740,ARES,+33 5 56 60 04 30,,Non labellisé,-1.1261522,44.766815
Meublés,2 étoiles,Meublé Darbon,3 allée Marine,,,33740,ARES,+33 5.56.82.99.53,,Non labellisé,-1.1347069,44.756245
Meublés,2 étoiles,SCEA Elevage du Littoral,16 rue du Port ostréicole,,,33740,ARES,+33 6 03 57 03 45,www.ecuriesmaximedavid.com,Non labellisé,-1.1462366,44.767586
Meublés,3 étoiles,Meublé Chaumeton,20 rue Pasteur,,,33740,ARES,+33 5 56 60 06 78,,Non labellisé,-1.1360682,44.763573
Meublés,3 étoiles,Meublé Basse,11 bis avenue de la forêt,Meublé n° 1,,33740,ARES,+33 (0)6 70 03 84 16,,Non labellisé,-1.1315253,44.770504
Meublés,4 étoiles,Domaine de Sempêche,35 bis, avenue du Port,,,33740,ARES,+33 5 57 70 60 15,www.domainesempeche.fr,Non labellisé,-1.135899,44.76535
Meublés,4 étoiles,Domaine de Sempêche,35 bis, avenue du Port,La cabane du Pêcheur,,33740,ARES,+33 5 57 70 60 15,www.domainesempeche.fr,Non labellisé,-1.133598,44.766823
Meublés,4 étoiles,Meublé Basse,11 bis avenue de la forêt,Meublé n° 2,,33740,ARES,+33 (0)6 70 03 84 16,,Non labellisé,-1.1315253,44.770504
Meublés,4 étoiles,La Chênaie,16 route de Fonsegrède,,,33500,ARVEYRES,+33 5 57 24 80 93,www.amivac.com,Non labellisé,-0.231506,44.918026
Meublés,3 étoiles,Château Couffins,2705 route de Cubzac,Meublé n° 1,,33240,ASQUES,+33 6 23 86 40 78,www.chateau-couffins.com,Non labellisé,-0.4387664,44.937584
Meublés,3 étoiles,Château Couffins,2705 route de Cubzac,Meublé n° 2,,33240,ASQUES,+33 6 23 86 40 78,www.chateau-couffins.com,Non labellisé,-0.4387664,44.937584
Meublés,1 étoile,Meublé Dumenoir,9 rue des Fauvettes,,,33980,AUDENGE,+33 5 56 26 84 89,,Non labellisé,-1.0107743,44.6867
Meublés,2 étoiles,Meublé Boye ,4 rue de la Gatoune,,,33980,AUDENGE,+33 5 56 26 76 81,,Non labellisé,-1.012737,44.67841
Meublés,2 étoiles,Meublé Ceret,22 rue Daniel Digneaux,,,33980,AUDENGE,+33 5 56 26 88 55,,Non labellisé,-1.008193,44.688084
Meublés,2 étoiles,Meublé Shinh,12 rue Ferdinand de Lesseps,,,33980,AUDENGE,+33 5 56 26 88 04,,Non labellisé,-1.004956,44.68036
Meublés,2 étoiles,Meublé Beaucousin ,2 rue des Acacias,,,33980,AUDENGE,+33 5 57 76 28 20,,Non labellisé,-1.0181565,44.68584
Meublés,2 étoiles,Meublé Delfau,10 rue des Roitelets,,,33980,AUDENGE,+33 5 56 72 84 73,,Non labellisé,-1.009794,44.684666
Meublés,2 étoiles,Meublé Manzano ,48 avenue de Certes,,,33980,AUDENGE,+33 5 56 26 82 56,,Non labellisé,-1.0199,44.688553
Meublés,2 étoiles,Meublé Ochoa,4 avenue de Verdun,,,33980,AUDENGE,+33 5 56 95 26 57,,Non labellisé,-1.0143775,44.683456
Meublés,2 étoiles,Meublé Vanonckelen ,2 rue du Port,,,33980,AUDENGE,+33 5 56 26 83 96,,Non labellisé,-1.0136014,44.6817
Meublés,3 étoiles,Meublé Lolom,13 rue des Résiniers,,,33980,AUDENGE,+33 6 62 14 03 76,http://www.tourisme-coeurdubassin.com/lolom.html,Non labellisé,-0.9935724,44.689404
Meublés,2 étoiles,Gîte Lauray,45 bis route d'Arcachon,,,33830,BELIN-BELIET,+33 6 10 40 34 94,www.gite-lauray-33.com,Non labellisé,-0.8124809,44.530907
Meublés,2 étoiles,Meublé Charbonnier ,3 Maine Buché,,,33390,BERSON,+33 5 57 64 30 92,,Non labellisé,-0.5855292,45.100403
Meublés,2 étoiles,Meublé Nouhet ,N° 2 Maisonneuve,,,33390,BERSON,+33 5 57 64 36 08,,Non labellisé,-0.5878543,45.105576
Meublés,2 étoiles,Meublé Petitgas ,66 rue Georges Clémenceau,,,33380,BIGANOS,+33 5 56 82 75 40,,Non labellisé,-0.9673976,44.645973
Meublés,3 étoiles,Le Cabanon,8, rue de la Résistance,,,33380,BIGANOS,+33 5 57 70 60 50,,Non labellisé,-0.966297,44.639793
Meublés,2 étoiles,Domaine les Messauts - Le Cerisier,Les Messauts,Appt Le Cerisier,,33190,BLAIGNAC,+33 5 56 71 27 89,www.gites-gironde.com,Non labellisé,-0.056403,44.552246
Meublés,2 étoiles,Domaine les Messauts - Le Figuier,Les Messauts,Appt Le Figuier,,33190,BLAIGNAC,+33 5 56 71 27 89,www.gites-gironde.com,Non labellisé,-0.056403,44.552246
Meublés,2 étoiles,Domaine les Messauts - Le Pêcher,Les Messauts,Appt Le Pêcher,,33190,BLAIGNAC,+33 5 56 71 27 89,www.gites-gironde.com,Non labellisé,-0.056403,44.552246
Meublés,2 étoiles,Domaine les Messauts - Le Prunier,Les Messauts,Appt Prunier,,33190,BLAIGNAC,+33 5 56 71 27 89,www.gites-gironde.com,Non labellisé,-0.056403,44.552246
Meublés,2 étoiles,Meublé Tricaud,Cazevert,,,33540,BLASIMON,+33 5 56 78 13 61,,Non labellisé,-0.123354,44.76062
Meublés,2 étoiles,Meublé Cebeillac,11 route des Marais,Tir Huit Ouest,,33390,BLAYE,+33 5 57 42 22 80,,Non labellisé,-0.6591796,45.144638
Meublés,2 étoiles,Meublé Grenier,8 rue Brun,,,33390,BLAYE,+33 6 10 78 58 67,,Non labellisé,-0.6609249,45.126945
Meublés,3 étoiles,Meublé Delmee,56 rue André Lafon,,,33390,BLAYE,+33 3 44 05 19 62,,Non labellisé,-0.6550367,45.12551
Meublés,2 étoiles,Les Vignes de Darnèche,,,,33910,BONZAC,+33 5 57 25 01 81,http://lesvignesdedarneche.jimdo.com,Non labellisé,-0.2172374,45.02686
Meublés,2 étoiles,Meublé Cox,3 rue Beaubadat,1er étage,,33000,BORDEAUX,+33 9 54 80 93 30,,Non labellisé,-0.587269,44.83501
Meublés,2 étoiles,Meublé Chippier,46 rue Saint Rémy,Appt n° 4ème droite,,33000,BORDEAUX,+33 5 53 65 31 92,,Non labellisé,-0.5728011,44.841274
Meublés,2 étoiles,Meublé Fulchi,119 rue de la Course,,,33000,BORDEAUX,+33 5 57 24 49 16,,Non labellisé,-0.5815858,44.85016
Meublés,2 étoiles,Meublé Ingrand,29 rue de la Course,Appt RDC jardin,,33000,BORDEAUX,+33 9 50 80 03 13,,Non labellisé,-0.576348,44.85133
Meublés,2 étoiles,Meublé Pistone,24 rue du Cancéra,Appt 1er gauche,,33000,BORDEAUX,+33 6 14 08 73 80,,Non labellisé,-0.5720142,44.83972
Meublés,3 étoiles,Gîte Dolce Vita,50 rue de Lalande,,,33000,BORDEAUX,+33 6 33 73 57 30,,Non labellisé,-0.5751068,44.833054
Meublés,3 étoiles,Gîte Duo,50 rue de Lalande,,,33000,BORDEAUX,+33 6 33 73 57 30,,Non labellisé,-0.5751068,44.833054
Meublés,3 étoiles,Gîte esprit Zen,50 rue de Lalande,,,33000,BORDEAUX,+33 6 33 73 57 30,,Non labellisé,-0.5751068,44.833054
Meublés,3 étoiles,Meublé Pomay,46 rue Vital Carles,,,33000,BORDEAUX,+33 6 07 17 24 35,,Non labellisé,-0.577933,44.838745
Meublés,3 étoiles,Meublé Barde,96 cours d'Alsace et Lorraine,Appt 6ème étage,,33000,BORDEAUX,+33 6 86 37 68 40,,Non labellisé,-0.573186,44.837505
Meublés,3 étoiles,Meublé Maysonnave,110 quai des Chartrons,2ème étage côté cour,,33000,BORDEAUX,+33 6 83 04 18 35,,Non labellisé,-0.568227,44.85191
Meublés,3 étoiles,Meublé Labeque,67 rue Pierre,,,33000,BORDEAUX,+33 5 56 20 41 61,,Non labellisé,-0.5930063,44.83803
Meublés,3 étoiles,Meublé De Rocquigny,40 rue des Bahutiers,3ème étage Porte 8,,33000,BORDEAUX,+33 5 56 43 20 27,,Non labellisé,-0.587269,44.83501
Meublés,3 étoiles,Meublé Lusignan,30 rue des Fauvettes,,,33000,BORDEAUX,+33 6 11 99 07 02,,Non labellisé,-0.6194366,44.8388
Meublés,4 étoiles,Gîte El Patio,50 rue de Lalande,,,33000,BORDEAUX,+33 6 33 73 57 30,,Non labellisé,-0.5751068,44.833054
Meublés,4 étoiles,SCI BUZZ ALDRIN,6 quai des Chartrons,Appt n° 1,,33000,BORDEAUX,,,Non labellisé,-0.5707311,44.84899
Meublés,1 étoile,Meublé Gonzales,15 rue Ponce Paulin,,,33710,BOURG,+33 6 33 85 84 82,,Non labellisé,-0.5560024,45.038452
Meublés,2 étoiles,Les Remparts,1 rue Saint Martin,,,33710,BOURG,+33 5 57 68 44 85,,Non labellisé,-0.5565813,45.04044
Meublés,2 étoiles,Meublé Dumas,2 bis quai Jean Bart,,,33710,BOURG,+33 5 57 68 32 40,,Non labellisé,-0.5568646,45.037754
Meublés,2 étoiles,Meublé Darhan,4 au Nègre,,,33710,BOURG,+33 6 70 04 61 27,,Non labellisé,-0.5698321,45.045486
Meublés,2 étoiles,Meublé Chassin,3 bis,route de Croûte,,,33710,BOURG,+33 5 57 68 82 86,,Non labellisé,-0.547952,45.037754
Meublés,1 étoile,Meublé Betge,La Burthe,,,33720,BUDOS,+33 5 53 87 52 10,,Non labellisé,-0.43303,44.599995
Meublés,2 étoiles,Meublé Carreau,Jalet,,,33420,CABARA,+33 5 57 84 52 37,,Non labellisé,-0.162572,44.824512
Meublés,2 étoiles,La Monerie,,,,33550,CAPIAN,+33 5 56 72 36 43,www.lamonerie.fr,Non labellisé,-0.325699,44.727474
Meublés,2 étoiles,Meublé Tremolet,34 rue des Futaies,,,33560,CARBON-BLANC,+33 5 56 06 12 33,,Non labellisé,-0.4989796,44.909775
Meublés,2 étoiles,Agence Biran,10 rue du grand cerf,,,33121,CARCANS,+33 5 56 03 40 01,,Non labellisé,-1.121997,45.5181
Meublés,2 étoiles,Agence Biran,72 les Villas de Maubuisson,,,33121,CARCANS,+33 5 56 03 40 01,,Non labellisé,-1.121997,45.5181
Meublés,2 étoiles,Meublé Nigay,73 rue du Marais,Le Pouch,,33121,CARCANS,+33 1 43 78 20 52,,Non labellisé,-1.042364,45.07938
Meublés,2 étoiles,Meublé Ha,22 résidence la Dune aux Pins,Maubuisson,,33121,CARCANS,+33 5 56 24 94 48,,Non labellisé,-1.042335,45.079018
Meublés,2 étoiles,Meublé Cursolle,904 chemin du Soc,,,33121,CARCANS,+33 5 57 70 10 77,,Non labellisé,-1.030125,45.08551
Meublés,2 étoiles,Meublé Basquin,32 Lotissement Les Mâts,,,33121,CARCANS,+33 5 56 58 88 44;+33 6 74 65 24 32,,Non labellisé,-1.1582422,45.077778
Meublés,2 étoiles,Meublé Gimenez,Le Sextant n° 24,Maubuisson,,33121,CARCANS,+33 5 56 64 52 67,,Non labellisé,-1.042335,45.079018
Meublés,2 étoiles,Meublé Thiriat,58 La Sauvagine,Maubuisson,,33121,CARCANS,+33 3 29 36 07 51,,Non labellisé,-1.042364,45.07938
Meublés,2 étoiles,Meublé Maffre,15 Résidence Maubuisson Lac,Maubuisson,,33121,CARCANS,+33 5 56 95 31 39,http://maubuisson-location.e-monsite.com,Non labellisé,-1.133623,45.06213
Meublés,2 étoiles,Meublé Michaud,22 rue des Mimosas,Maubuisson Fleuri,Appt Etage,33121,CARCANS,+33 5 56 28 28 59;+33 5 56 95 15 66,,Non labellisé,-1.144364,45.06948
Meublés,2 étoiles,Meublé Ozouf,Rue des genêts,Résidence "Le Sextant n° 8",,33121,CARCANS,+33 6 37 45 58 96,,Non labellisé,-1.1512041,45.086384
Meublés,2 étoiles,Location Ferreyra,5 boulevard du Lac,Maubuisson,,33121,CARCANS,+33 5 56 03 37 51,http://monsite.orange.fr/locations-ferreyra,Non labellisé,-1.132998,45.063747
Meublés,2 étoiles,Location Ferreyra,89 avenue de Maubuisson,Maubuisson,Appt n° 2,33121,CARCANS,+33 5 56 03 37 51,http://monsite-orange.fr/locations-ferreyra,Non labellisé,-1.134118,45.063503
Meublés,2 étoiles,Meublé Bouchet,9, rue des Goëlands,Carcans plage,,33121,CARCANS,+33 6 15 60 21 27,,Non labellisé,-1.1872473,45.083626
Meublés,2 étoiles,Location Garuz,Résidence la Sauvagine,Maubuisson,Appt n° 40,33121,CARCANS,+33 5 56 59 11 89;+33 5 57 70 21 41,http://www.locations-yves-garuz.com,Non labellisé,-1.042364,45.07938
Meublés,2 étoiles,Location Garuz,Résidence la Sauvagine,Maubuisson,Appt n° 41,33121,CARCANS,+33 5 56 59 11 89;+33 5 57 70 21 41,http://www.locations-yves-garuz.com,Non labellisé,-1.042364,45.07938
Meublés,2 étoiles,SCI Frandol,10 avenue de la Plage,Appt A,,33121,CARCANS,+33 6 03 24 47 90,http://cormorans.onlc.fr,Non labellisé,-1.1885833,45.082947
Meublés,2 étoiles,Un nid en médoc,22 route de Villeneuve,,,33121,CARCANS,+33 5 56 03 37 02,www.nidenmedoc.fr,Non labellisé,-1.04006,45.084103
Meublés,3 étoiles,Meublé Deycard,1 place de La Mattade,,,33121,CARCANS,+33 5 56 80 45 17,,Non labellisé,-1.044964,45.074043
Meublés,4 étoiles,Location Laurenty,3 avenue des Gourbets,Carcans plage,,33121,CARCANS,+33 5 56 58 21 43,http://locations-carcans.fmelaurenty-com.fr.nf/,Non labellisé,-1.188671,45.08315
Meublés,4 étoiles,Meublé Charpentier,40 avenue du Bois de l'Océan,,,33121,CARCANS,,,Non labellisé,-1.1881078,45.083855
Meublés,3 étoiles,Location Dherissart,36 rue des Chênes Verts,Meublé n°2,,33121,CARCANS-MAUBUISSON,+33 5 56 03 43 57,,Non labellisé,-1.1472631,45.068928
Meublés,3 étoiles,Location Dherissart,36 rue des Chênes Verts,Meublé n° 1,,33121,CARCANS-MAUBUISSON,+33 5 56 03 43 57,,Non labellisé,-1.1472631,45.068928
Meublés,2 étoiles,Le Petit Boyer,4 La Sauvetat,,,33390,CARS,+33 5 57 42 19 40,www.petit-boyer.com,Non labellisé,-0.6105189,45.13933
Meublés,2 étoiles,Location Lucmalle,13 ter Le Piquet,,,33390,CARS,+33 6 59 89 50 05,,Non labellisé,-0.6315578,45.129612
Meublés,2 étoiles,Location Lucmalle,13 ter Le Piquet,,,33390,CARS,+33 6 59 89 50 05,,Non labellisé,-0.6315578,45.129612
Meublés,2 étoiles,Location Bedin,9 chemin des Rousseaux,,,33390,CARTELEGUE,+33 6 86 28 10 84,,Non labellisé,-0.5876184,45.17088
Meublés,2 étoiles,Meublé Grancoin,20 rue Pierre de Coubertin,,,33350,CASTILLON-LA-BATAILLE,+33 5 57 40 21 93,,Non labellisé,-0.0458,44.85169
Meublés,4 étoiles,Gîte de Charme Robineau,Robineau Ouest,,,33540,CAUMONT,+33 6 74 59 89 90,www.gitedecharmerobineau.fr,Non labellisé,0.00573,44.69816
Meublés,2 étoiles,Meublé Galvan,27 Baudet,,,33620,CAVIGNAC,+33 5 57 32 92 73,,Non labellisé,-0.385251,45.0908
Meublés,2 étoiles,Location Roturier,31 rue Emile Lanusse,,,33260,CAZAUX,+33 5 56 22 97 34,,Non labellisé,-1.14614,44.541264
Meublés,2 étoiles,Location Bourguignon,13 A rue Jean Lavigne,,,33260,CAZAUX,+33 5 56 22 25 29,www.location-maison-cazaux.over-blog.com,Non labellisé,-1.1503458,44.538013
Meublés,3 étoiles,Meublé Da Silva,16 rue Porte Teny,Cazaux,,33260,CAZAUX,+33 6 07 72 75 70,,Non labellisé,-1.1510753,44.54054
Meublés,1 étoile,Meublé Lavidalie,2 Hulet,,,33920,CIVRAC-DE-BLAYE,+33 5 57 68 85 74,,Non labellisé,-0.461197,45.103355
Meublés,2 étoiles,Location Chassin,10 ter Hulet,Appt T2,,33620,CIVRAC-DE-BLAYE,+33 5 57 68 82 86,,Non labellisé,-0.4613064,45.102932
Meublés,2 étoiles,Location Chassin,10 ter Hulet,Appt T3,,33620,CIVRAC-DE-BLAYE,+33 5 57 68 82 86,,Non labellisé,-0.461297,45.10294
Meublés,2 étoiles,Le Cocourt,13 Mérigon,,,33580,COURS-DE-MONSEGUR,+33 5 56 61 83 33,,Non labellisé,0.1176762,44.65092
Meublés,2 étoiles,La Maisonnette,6 avenue de Libourne,,,33670,CREON,+33 5 56 23 32 52,,Non labellisé,-0.335766,44.794357
Meublés,2 étoiles,Meublé Villadary,7 rue de la Rocace,,,33240,CUBZAC-LES-PONTS,+33 5 57 43 10 35,,Non labellisé,-0.4596233,44.97418
Meublés,2 étoiles,Meublé Kirchoff,1 Topey,,,33240,CUBZAC-LES-PONTS,+33 5 57 43 12 29,,Non labellisé,-0.4330345,44.972694
Meublés,3 étoiles,Meublé Bost,14 Curton,,,33420,DAIGNAC,+335 57 24 45 04,,Non labellisé,-0.257495,44.82375
Meublés,2 étoiles,Meublé Suteau,3 le Barrail,,,33220,EYNESSE,+33 5 57 41 09 77,,Non labellisé,0.135897,44.825726
Meublés,2 étoiles,Meublé Lorteau,6 Mayne du Rat,,,33390,EYRANS,+33 5 57 64 61 53,,Non labellisé,-0.6202641,45.191784
Meublés,3 étoiles,Meublé Chevalier,Godard,,,33570,FRANCS,+33 5 57 40 60 54,,Non labellisé,-0.010773,44.93631
Meublés,3 étoiles,Meublé Rahou,16 Roque de Thau,,,33710,GAURIAC,+33 5 57 64 88 32,,Non labellisé,-0.634896,45.07314
Meublés,1 étoile,Meublé Uhl,42 le bourg,,,33920,GENERAC,+33 5 56 37 59 96,,Non labellisé,-0.5461114,45.17873
Meublés,2 étoiles,Meublé Heraud,9 Bois d'Ollé,Appt n° 1,,33920,GENERAC,+33 5 57 64 73 11,,Non labellisé,-0.537822,45.171963
Meublés,3 étoiles,Les Faures Sud,120 impasse des Faures Sud,,,33420,GENISSAC,+33 5 57 24 46 58,www.faures-sud.com,Non labellisé,-0.203915,44.826992
Meublés,3 étoiles,Meublé Paradot,9 Croix de Saquebouille,,,33890,GENSAC,+33 5 56 85 80 84,,Non labellisé,0.071972,44.801697
Meublés,2 étoiles,Meublé Page,17 allée de Moulerens,,,33170,GRADIGNAN,+33 6 26 35 37 41,,Non labellisé,-0.6260341,44.77477
Meublés,3 étoiles,Meublé Jeantet,44 rue de Lange,,,33170,GRADIGNAN,+33 5 57 43 89 35,,Non labellisé,-0.6106864,44.783325
Meublés,1 étoile,Meublé Daurat,113 rue Aimé Broustaut,,,33470,GUJAN-MESTRAS,+33 5 56 20 79 40,,Non labellisé,-1.0843056,44.629475
Meublés,1 étoile,Meublé Poursat,138 boulevard Pierre Dignac,,,33470,GUJAN-MESTRAS,+33 5 56 66 74 41,,Non labellisé,-1.0919767,44.640255
Meublés,1 étoile,Meublé Orjubin,49 avenue de la Plage,La Hume,,33470,GUJAN-MESTRAS,+33 5 53 20 22 60,,Non labellisé,-1.113845,44.643013
Meublés,2 étoiles,Meublé Luciat,11 allée du Sable,,,33470,GUJAN-MESTRAS,+33 5 56 66 03 73;+33 5 56 22 17 65,,Non labellisé,-1.0570927,44.63571
Meublés,2 étoiles,Meublé Brusau,5 allée du Bassin,,,33470,GUJAN-MESTRAS,+33 5 53 73 93 77,,Non labellisé,-1.0894596,44.639885
Meublés,2 étoiles,Meublé Daumain,110 rue Aimé Broustaut,,,33470,GUJAN-MESTRAS,+33 5 56 83 12 47,,Non labellisé,-1.071189,44.63573
Meublés,2 étoiles,Meublé Barats,25 allée des Genêts,La Hume,,33470,GUJAN-MESTRAS,+33 5 47 29 65 98,,Non labellisé,-1.1137768,44.635868
Meublés,2 étoiles,Meublé Cloup,15 avenue Ml de Lattre de Tassigny,,,33470,GUJAN-MESTRAS,+33 5 61 88 95 70,,Non labellisé,-1.1153086,44.639324
Meublés,2 étoiles,Location Broustaut,118 cours de Verdun,,,33470,GUJAN-MESTRAS,+33 5 56 66 76 02,,Non labellisé,-1.0821377,44.63626
Meublés,2 étoiles,Location Broustaut,118 cours de Verdun,Appt T3 Etage,,33470,GUJAN-MESTRAS,+33 5 56 66 76 02,,Non labellisé,-1.0838563,44.636475
Meublés,2 étoiles,Meublé Brochard,15 allée du Muguet,,,33470,GUJAN-MESTRAS,+33 5 56 66 79 05,,Non labellisé,-1.1074709,44.63453
Meublés,2 étoiles,Meublé Dupont,33 allée Giuseppe Verdi,,,33470,GUJAN-MESTRAS,+33 6 58 18 13 12,,Non labellisé,-1.0797742,44.62652
Meublés,2 étoiles,Meublé Scremin,10 allée de la Procession,,,33470,GUJAN-MESTRAS,+33 5 56 66 12 11,,Non labellisé,-1.1074676,44.639282
Meublés,2 étoiles,Meublé Caillau,35 avenue de la Plage,La Hume,,33470,GUJAN-MESTRAS,+33 5 56 66 15 51,,Non labellisé,-1.1139087,44.642605
Meublés,2 étoiles,Meublé Constant,Mesternaut,,,33124,AILLAS,+33 5 56 65 50 78,,Non labellisé,-0.099619,44.4952
Meublés,1 étoile,Meublé Bouxirot,5 place Josquin des Prés,,,33510,ANDERNOS-LES-BAINS,+33 5 24 18 51 93,,Non labellisé,-1.0735286,44.7418
Meublés,1 étoile,Meublé Coste,62 boulevard de la Plage,,,33510,ANDERNOS-LES-BAINS,+33 5 57 70 23 35,,Non labellisé,-1.1068247,44.747753
Meublés,2 étoiles,A.S.P.C.E.M.C,Résidence le Bourbonnais,28, allée Lamartine,Appt n° 2,33510,ANDERNOS-LES-BAINS,+33 2 40 75 91 17,www.tourismeloisirs44.com,Non labellisé,-1.0797394,44.738544
Meublés,2 étoiles,A.S.P.C.E.M.C,Résidence le Bourbonnais,28, allée Lamartine,Appt n° 4,33510,ANDERNOS-LES-BAINS,+33 2 40 75 91 17,www.tourismeloisirs44.com,Non labellisé,-1.0797394,44.738544
Meublés,2 étoiles,Meublé Bos,3 rue des Grillons,,,33510,ANDERNOS-LES-BAINS,+33 6 83 07 30 41,http://locationandernos.site-pap.fr,Non labellisé,-1.097883,44.753883
Meublés,2 étoiles,Meublé Lagarde,16 avenue Kennedy,,,33510,ANDERNOS-LES-BAINS,+33 5 57 43 58 23,http://www.chateaudelabrunette.com,Non labellisé,-1.0861738,44.739033
Meublés,2 étoiles,Résidence les Vacances - Appt n° 60,254, boulevard de la République,,,33510,ANDERNOS-LES-BAINS,+33 5 59 65 84 90,,Non labellisé,-1.1011231,44.743473
Meublés,2 étoiles,Meublé Labat,22 rue du Docteur Schweitzer,,,33510,ANDERNOS-LES-BAINS,+33 5 56 05 07 85,,Non labellisé,-1.0884205,44.740025
Meublés,2 étoiles,Meublé Marcerou,1,allée des Tamaris,N° 1,,33510,ANDERNOS-LES-BAINS,+33 5 57 33 47 63,,Non labellisé,-1.0844484,44.7262
Meublés,2 étoiles,Résidence les Vacances,254 boulevard de la République,Bât B - Appt n° 88,,33510,ANDERNOS-LES-BAINS,+33 5 56 21 46 40,,Non labellisé,-1.1012692,44.74346
Meublés,2 étoiles,Meublé Combes,15 rue Dugay-Trouin,,,33510,ANDERNOS-LES-BAINS,+33 5 49 57 84 34,,Non labellisé,-1.0801586,44.75695
Meublés,2 étoiles,Meublé Grand ,20 avenue de Taluque,,,33510,ANDERNOS-LES-BAINS,+33 5 56 82 35 43,,Non labellisé,-1.0947167,44.748486
Meublés,2 étoiles,Gigiloc,2 rue Hector Saubesty,Appt A,,33510,ANDERNOS-LES-BAINS,+33 5 56 26 08 31,http://gigiloc.free.fr,Non labellisé,-1.0936695,44.752247
Meublés,2 étoiles,Gigiloc,2 rue Hector Saubesty,Appt B,,33510,ANDERNOS-LES-BAINS,+33 5 56 26 08 31,http://gigiloc.free.fr,Non labellisé,-1.0937759,44.75217
Meublés,2 étoiles,Meublé Dupouy,6 avenue d'Alsace,,,33510,ANDERNOS-LES-BAINS,+33 5 56 26 04 42,,Non labellisé,-1.09898,44.739594
Meublés,2 étoiles,Meublé Laffitte,7 avenue de la Renaissance,,,33510,ANDERNOS-LES-BAINS,+33 5 56 63 12 03,,Non labellisé,-1.0902787,44.743942
Meublés,2 étoiles,Meublé Fredieu,19 rue de la Mairie,,,33510,ANDERNOS-LES-BAINS,+33 5 56 82 21 12,,Non labellisé,-1.1023904,44.744026
Meublés,3 étoiles,Meublé Beneteau,3 rue Jules Massenet,,,33510,ANDERNOS-LES-BAINS,+33 (0)6 73 05 85 26,,Non labellisé,-1.0755777,44.737747
Meublés,3 étoiles,Meublé Cozic ,3, rue Gabriel Fauré,,,33510,ANDERNOS-LES-BAINS,+33 5 56 82 39 87,,Non labellisé,-1.0783242,44.746815
Meublés,3 étoiles,Meublé Marquais,4 avenue de Capsus,,,33510,ANDERNOS-LES-BAINS,+33 5 56 26 50 35,,Non labellisé,-1.0820234,44.749557
Meublés,3 étoiles,Meublé Loison,15 rue de la Mairie,,,33510,ANDERNOS-LES-BAINS,+33 (0)6 12 47 96 59,,Non labellisé,-1.1029577,44.743736
Meublés,3 étoiles,Meublé Andurand,6 boulevard de l'Océan,Le Mauret,,33510,ANDERNOS-LES-BAINS,+33 5 53 93 26 70,,Non labellisé,-1.0859119,44.727158
Meublés,3 étoiles,Résidence Neptune Beach,Appt n° 17,2, boulevard de l'Océan,,33510,ANDERNOS-LES-BAINS,+33 5 56 57 73 37,,Non labellisé,-1.086486,44.72667
Meublés,3 étoiles,Meublé Brivady,17 avenue des Lutins,Le Mauret,,33510,ANDERNOS-LES-BAINS,+33 5 56 26 16 05,,Non labellisé,-1.0823,44.727547
Meublés,3 étoiles,Résidence le Casino - Appt 219,2 place Louis David,,,33510,ANDERNOS-LES-BAINS,+33 5 56 20 16 75,,Non labellisé,-1.1004781,44.739693
Meublés,3 étoiles,Meublé Lamagnere,10 rue des Tourterelles,,,33510,ANDERNOS-LES-BAINS,+33 5 56 82 59 53,,Non labellisé,-1.1005703,44.750427
Meublés,3 étoiles,Meublé Mourain,2 bis impasse Camille Rongier,,,33510,ANDERNOS-LES-BAINS,+33 2 37 23 05 90,http://www.andernos-esprit-bassin.site-pap.fr,Non labellisé,-1.0940045,44.739685
Meublés,3 étoiles,Meublé Brun,8 allée des Roseaux,,,33510,ANDERNOS-LES-BAINS,+33 5 56 27 25 97,,Non labellisé,-1.0804291,44.73706
Meublés,3 étoiles,Savariau,28 boulevard du Maréchal Juin,,,33510,ANDERNOS-LES-BAINS,+33 5 56 36 20 06,,Non labellisé,-1.077193,44.734764
Meublés,3 étoiles,Sous le chêne,72 avenue Jean Marcel Despagne,,,33510,ANDERNOS-LES-BAINS,+33 6 84 35 32 85,souslechene.jimdo.com,Non labellisé,-1.0931796,44.75264
Meublés,1 étoile,Meublé Lasserre,44 rue Aimé Bourdier,,,33120,ARCACHON,+33 5 56 83 22 52,,Non labellisé,-1.1577229,44.65789
Meublés,1 étoile,Résidence Port Arcachon,Boulevard Chanzy,Bâtiment C - Appt n° 1704,,33120,ARCACHON,+33 5 56 85 89 96,,Non labellisé,-1.170215,44.661385
Meublés,1 étoile,Résidence Port Arcachon,rue de la Pêcherie,Bât C - Appt n° 1737,,33120,ARCACHON,+33 5 57 15 17 09,,Non labellisé,-1.14715,44.656204
Meublés,1 étoile,Résidence les Deux Esteys,7 boulevard Chanzy,Appt n° 29,,33120,ARCACHON,+33 6 64 08 12 21,,Non labellisé,-1.170215,44.661385
Meublés,1 étoile,Résidence les Pieds dans l'eau,35/37 boulevard de la Plage,Appt n° 5,,33120,ARCACHON,+33 6 71 40 52 73,,Non labellisé,-1.1692,44.6528
Meublés,2 étoiles,Le Grillon,33, cours Tartas,n° 1,,33120,ARCACHON,+33 5 56 83 01 51,www.legrillon33.com,Non labellisé,-1.171872,44.660515
Meublés,2 étoiles,Le Grillon,33, cours Tartas,n° 10,,33120,ARCACHON,+33 5 56 83 01 51,www.legrillon33.com,Non labellisé,-1.171872,44.660515
Meublés,2 étoiles,Le Grillon,33, cours Tartas,n° 12,,33120,ARCACHON,+33 5 56 83 01 51,www.legrillon33.com,Non labellisé,-1.171872,44.660515
Meublés,2 étoiles,Le Grillon,33, cours Tartas,n° 13,,33120,ARCACHON,+33 5 56 83 01 51,www.legrillon33.com,Non labellisé,-1.171872,44.660515
Meublés,2 étoiles,Le Grillon,33, cours Tartas,n° 17,,33120,ARCACHON,+33 5 56 83 01 51,www.legrillon33.com,Non labellisé,-1.171872,44.660515
Meublés,2 étoiles,Le Grillon,33, cours Tartas,n° 18,,33120,ARCACHON,+33 5 56 83 01 51,www.legrillon33.com,Non labellisé,-1.171872,44.660515
Meublés,2 étoiles,Le Grillon,33, cours Tartas,n° 19,,33120,ARCACHON,+33 5 56 83 01 51,www.legrillon33.com,Non labellisé,-1.171872,44.660515
Meublés,2 étoiles,Le Grillon,33, cours Tartas,n° 2,,33120,ARCACHON,+33 5 56 83 01 51,www.legrillon33.com,Non labellisé,-1.171872,44.660515
Meublés,2 étoiles,Le Grillon,33, cours Tartas,n° 20,,33120,ARCACHON,+33 5 56 83 01 51,www.legrillon33.com,Non labellisé,-1.171872,44.660515
Meublés,2 étoiles,Le Grillon,33, cours Tartas,n° 21,,33120,ARCACHON,+33 5 56 83 01 51,www.legrillon33.com,Non labellisé,-1.171872,44.660515
Meublés,2 étoiles,Le Grillon,33, cours Tartas,n° 22,,33120,ARCACHON,+33 5 56 83 01 51,www.legrillon33.com,Non labellisé,-1.171872,44.660515
Meublés,2 étoiles,Le Grillon,33, cours Tartas,n° 23,,33120,ARCACHON,+33 5 56 83 01 51,www.legrillon33.com,Non labellisé,-1.171872,44.660515
Meublés,2 étoiles,Le Grillon,33, cours Tartas,n° 24,,33120,ARCACHON,+33 5 56 83 01 51,www.legrillon33.com,Non labellisé,-1.171872,44.660515
Meublés,2 étoiles,Le Grillon,33, cours Tartas,n° 25,,33120,ARCACHON,+33 5 56 83 01 51,www.legrillon33.com,Non labellisé,-1.171872,44.660515
Meublés,2 étoiles,Le Grillon,33, cours Tartas,n° 3,,33120,ARCACHON,+33 5 56 83 01 51,www.legrillon33.com,Non labellisé,-1.171872,44.660515
Meublés,2 étoiles,Le Grillon,33, cours Tartas,n° 4,,33120,ARCACHON,+33 5 56 83 01 51,www.legrillon33.com,Non labellisé,-1.171872,44.660515
Meublés,2 étoiles,Le Grillon,33, cours Tartas,n° 5,,33120,ARCACHON,+33 5 56 83 01 51,www.legrillon33.com,Non labellisé,-1.171872,44.660515
Meublés,2 étoiles,Le Grillon,33, cours Tartas,n° 6,,33120,ARCACHON,+33 5 56 83 01 51,www.legrillon33.com,Non labellisé,-1.171872,44.660515
Meublés,2 étoiles,Le Grillon,33, cours Tartas,n° 7,,33120,ARCACHON,+33 5 56 83 01 51,www.legrillon33.com,Non labellisé,-1.171872,44.660515
Meublés,2 étoiles,Le Grillon,33, cours Tartas,n° 8,,33120,ARCACHON,+33 5 56 83 01 51,www.legrillon33.com,Non labellisé,-1.171872,44.660515
Meublés,2 étoiles,Le Grillon,33, cours Tartas,n° 9,,33120,ARCACHON,+33 5 56 83 01 51,www.legrillon33.com,Non labellisé,-1.171872,44.660515
Meublés,2 étoiles,Le Grillon,33, cours Tartas,n°11,,33120,ARCACHON,+33 5 56 83 01 51,www.legrillon33.com,Non labellisé,-1.171872,44.660515
Meublés,2 étoiles,Résidence la Goëlette,14, rue Gustave Hameau,Appt n° 179,,33120,ARCACHON,+33 5 58 07 89 61,,Non labellisé,-1.1639,44.6603
Meublés,2 étoiles,Résidence le Consul - Appt n° 211,21/23 boulevard du Général Leclerc,,,33120,ARCACHON,+33 5 56 20 86 04,,Non labellisé,-1.163291,44.6589
Meublés,2 étoiles,Résidence Plein Soleil,141, cours Lamarque de Plaisance,Appt n° 211,,33120,ARCACHON,+33 6 83 40 14 86,,Non labellisé,-1.179535,44.661743
Meublés,2 étoiles,Meublé Deslous,65 cours Tartas,,,33120,ARCACHON,+33 5 57 52 89 59,,Non labellisé,-1.175462,44.66087
Meublés,2 étoiles,Résidence le Teychan,73, cours Lamarque de Plaisance,4ème étage,,33120,ARCACHON,+33 6 60 65 85 59,,Non labellisé,-1.175752,44.66155
Meublés,2 étoiles,Villa Tanit,2 allée Lakmé,Appt n° 1 Le Camélia,,33120,ARCACHON,+ 33 5 56 83 13 99,,Non labellisé,-1.171806,44.654957
Meublés,2 étoiles,Villa Tanit,2 allée Lakmé,Appt n° 2 le Chêne,,33120,ARCACHON,+ 33 5 56 83 13 99,,Non labellisé,-1.171806,44.654957
Meublés,2 étoiles,Résidence Spring,8, rue Gustave Hameau,Appt n° 60,,33120,ARCACHON,+33 5 56 81 14 49,,Non labellisé,-1.1692,44.6528
Meublés,2 étoiles,Meublé Duchez,7 allée Fénelon,,,33120,ARCACHON,+33 5 56 83 42 87,,Non labellisé,-1.179436,44.65681
Meublés,2 étoiles,Meublé Auriol,62 boulevard de l'Océan,RDC Appt arrière,,33120,ARCACHON,+33 5 56 25 74 75,,Non labellisé,-1.18914,44.660885
Meublés,2 étoiles,Meublé Pimpare,6 avenue Guy de Maupassant,,,33120,ARCACHON,+33 5 56 57 66 43,,Non labellisé,-1.181621,44.652214
Meublés,2 étoiles,Meublé Ducheyron,75 cours Lamarque de Plaisance,,,33120,ARCACHON,+33 5 53 81 24 24,,Non labellisé,-1.174676,44.661476
Meublés,2 étoiles,Résidence Villa de France,47 avenue Lamartine,Appt n° 21,,33120,ARCACHON,+33 5 56 62 02 48,,Non labellisé,-1.170215,44.661385
Meublés,2 étoiles,Résidence Aquitania,75, boulevard de l'Océan,Appt n° 318,,33120,ARCACHON,+33 5 56 36 93 21,,Non labellisé,-1.1692,44.6528
Meublés,2 étoiles,Résidence Océane - Appt n° 54,24, boulevard de l'Océan,,,33120,ARCACHON,+33 1 42 02 41 03,,Non labellisé,-1.187922,44.661243
Meublés,2 étoiles,Résidence Plein Mer,6, rue des Marins,Appt n° 32,,33120,ARCACHON,+33 6 48 30 06 79,,Non labellisé,-1.153666,44.660507
Meublés,2 étoiles,Meublé Frey,45 allée Emile Pereire,,,33120,ARCACHON,+33 5 47 44 05 77,,Non labellisé,-1.181936,44.658085
Meublés,2 étoiles,Meublé Ponsich,44 cours Héricart de Thury,,,33120,ARCACHON,+33 5 56 66 31 45,,Non labellisé,-1.1642788,44.66052
Meublés,2 étoiles,Résidence le Commodore,10 quai du Capitaine Allègre,Appt n° 88,,33120,ARCACHON,+33 5 56 66 62 48,,Non labellisé,-1.170215,44.661385
Meublés,2 étoiles,Résidence du Port,59 boulevard de la Plage,Bâtiment D - Appt n° 1415,,33120,ARCACHON,+33 5 53 58 62 19,,Non labellisé,-1.153577,44.660034
Meublés,2 étoiles,Résidence Port Arcachon - Bât B,Quai du Capitaine Allègre,Appt n° 1117,,33120,ARCACHON,05 53 24 58 30,,Non labellisé,-1.146361,44.657482
Meublés,2 étoiles,Résidence Bailly de Suffren,279 boulevard de la Plage,Bâtiment B - Appt n° 12,,33120,ARCACHON,+33 6 29 81 68 91;+33 6 62 26 82 18,,Non labellisé,-1.1772476,44.6629
Meublés,2 étoiles,Résidence Zéphyr,48 ter boulevard Deganne,Bâtiment D - Appt n° 17,,33120,ARCACHON,+33 5 56 83 99 50,,Non labellisé,-1.152153,44.655373
Meublés,2 étoiles,Résidence Perlières,182 boulevard de la Plage,Appt n°104 Bât B,,33120,ARCACHON,,,Non labellisé,-1.170215,44.661385
Meublés,2 étoiles,Meublé Grall,21 allée des Bouvreuils,Pereire,,33120,ARCACHON,+33 5 56 54 02 06,,Non labellisé,-1.187991,44.656994
Meublés,2 étoiles,Meublé Thomas,96 boulevard Deganne,,,33120,ARCACHON,+33 5 56 23 27 95;+33 5 56 67 52 65,,Non labellisé,-1.160585,44.658016
Meublés,2 étoiles,Meublé Morio,47 avenue Lamartine,Appt n° 32,,33120,ARCACHON,+33 5 57 70 38 94,,Non labellisé,-1.170215,44.661385
Meublés,2 étoiles,Meublé Mouche,116 avenue des Abatilles,,,33120,ARCACHON,+33 6 73 78 08 33,,Non labellisé,-1.1896904,44.647224
Meublés,2 étoiles,Résidence plein mer,6 rue des marins,Appt n° 13,,33120,ARCACHON,+33 5 56 22 11 91,,Non labellisé,-1.170215,44.661385
Meublés,2 étoiles,Résidence Saint-Arnaud Pereire,11/13 avenue Saint-Arnaud,Appt n° 101,,33120,ARCACHON,+33 5 56 20 01 17,,Non labellisé,-1.183568,44.66063
Meublés,2 étoiles,Swann-Location,19 boulevard de la Côte d'Argent,,,33120,ARCACHON,+33 5 56 83 29 55,www.swann-arcachon.fr,Non labellisé,-1.182438,44.66029
Meublés,3 étoiles,L'Aquarium,38 rue François Legallais,Dauphin,,33120,ARCACHON,+33 6 72 10 78 03,www.aquarium-location.com,Non labellisé,-1.1744132,44.660446
Meublés,3 étoiles,L'Aquarium,38 rue François Legallais,Eperlan,,33120,ARCACHON,+33 6 72 10 78 03,www.aquarium-location.com,Non labellisé,-1.1744132,44.660446
Meublés,3 étoiles,L'Aquarium,38 rue François Legallais,Espadon,,33120,ARCACHON,+33 6 72 10 78 03,www.aquarium-location.com,Non labellisé,-1.174361,44.6605
Meublés,3 étoiles,L'Aquarium,38 rue François Legallais,Girelle,,33120,ARCACHON,+33 6 72 10 78 03,www.aquarium-location.com,Non labellisé,-1.1744132,44.660446
Meublés,3 étoiles,L'Aquarium,38 rue François Legallais,Griset,,33120,ARCACHON,+33 6 72 10 78 03,www.aquarium-location.com,Non labellisé,-1.174362,44.6605
Meublés,3 étoiles,L'Aquarium,38 rue François Legallais,Lamproie,,33120,ARCACHON,+33 6 72 10 78 03,www.aquarium-location.com,Non labellisé,-1.1744132,44.660446
Meublés,3 étoiles,L'Aquarium,38 rue François Legallais,Loubine,,33120,ARCACHON,+33 6 74 10 78 03,www.aquarium-location.com,Non labellisé,-1.1744132,44.660446
Meublés,3 étoiles,L'Aquarium,38 rue François Legallais,Rouget,,33120,ARCACHON,+33 6 72 10 78 03,www.aquarium-location.com,Non labellisé,-1.1744132,44.660446
Meublés,3 étoiles,Le Cottage,18 avenue Régnauld,N° CF,,33120,ARCACHON,+33 5 56 83 11 40,www.villa-valentine.com,Non labellisé,-1.172092,44.65184
Meublés,3 étoiles,Le Cottage,18 avenue Régnauld,N° CM,,33120,ARCACHON,+33 5 56 83 11 40,www.villa-valentine.com,Non labellisé,-1.172092,44.65184
Meublés,3 étoiles,Le Cottage,18 avenue Régnauld,N° GC,,33120,ARCACHON,+33 5 56 83 11 40,www.villa-valentine.com,Non labellisé,-1.172092,44.65184
Meublés,3 étoiles,Le Cottage,18 avenue Régnauld,N° PC,,33120,ARCACHON,+33 5 56 83 11 40,www.villa-valentine.com,Non labellisé,-1.172092,44.65184
Meublés,1 étoile,Meublé Rougier,Les Grangeaux,,,33220,SAINT-AVIT-SAINT-NAZAIRE,+33 5 57 46 26 71,,Non labellisé,0.281077,44.856037
Meublés,2 étoiles,Domaine de Grande Font,207 chemin de Grande Font,,,33220,SAINT-AVIT-SAINT-NAZAIRE,+33 6 22 59 50 15;+33 5 57 41 34 04,http://www.grandefont.com,Non labellisé,0.2990704,44.854248
Meublés,2 étoiles,Meublé Ranzato,726 route des Muriers,,,33220,SAINT-AVIT-SAINT-NAZAIRE,+33 5 57 46 37 71,,Non labellisé,0.259749,44.840805
Meublés,2 étoiles,Location Ninaud,4 Saint Fiacre,Meublé n° 1,,33820,SAINT-CIERS-SUR-GIRONDE,+33 5 57 32 72 63,,Non labellisé,-0.6085465,45.272926
Meublés,2 étoiles,Location Ninaud,4, Saint-Fiacre,Meublé n° 2,,33820,SAINT-CIERS-SUR-GIRONDE,+33 5 57 32 72 63,,Non labellisé,-0.606603,45.27302
Meublés,1 étoile,Meublé Bouny,14 chemin des Treilles,Picampeau,,33910,SAINT-DENIS-DE-PILE,+33 5 57 49 35 89,,Non labellisé,-0.1645803,44.977123
Meublés,4 étoiles,Le Manoir de Gaboria,5 Gaboria,,,33580,SAINTE-GEMME,+33 5 56 71 99 57,www.gites-chambres-gironde.fr,Non labellisé,0.076842,44.620335
Meublés,1 étoile,Meublé Boileau,Route de Labroucaud,Lavagnac,18 devant Cabara,33350,SAINTE-TERRE,+33 6 73 50 30 30;+33 6 85 05 90 61,,Non labellisé,-0.1538944,44.8269
Meublés,2 étoiles,La Peyrière,,,,33190,SAINT-HILAIRE-DE-LA-NOAILLE,+33 5 56 61 05 93,www.gite-la-peyriere.fr,Non labellisé,0.002278,44.57242
Meublés,3 étoiles,Meublé Vigneau,27 Au Pont,,,33190,SAINT-HILAIRE-DE-LA-NOAILLE,+33 6 08 89 16 30,,Non labellisé,0.0059772,44.61035
Meublés,2 étoiles,Château de l'Hurbe,L'Hurbe,,,33240,SAINT-LAURENT-D'ARCE,+33 5 57 43 44 06,www.chateaudelhurbe.fr,Non labellisé,-0.4792356,45.037117
Meublés,2 étoiles,Meublé Fernandez,45 rue Montaigne,,,33240,SAINT-LAURENT-D'ARCE,+33 5 57 43 12 57,,Non labellisé,-0.4671871,45.029507
Meublés,2 étoiles,Appart Hôtel Les Tilleuls,16 allée des Tilleuls,Appt n° 1,,33490,SAINT-MACAIRE,+33 5 56 62 28 38,www.tilleul-medieval.com,Non labellisé,-0.226593,44.56557
Meublés,2 étoiles,Appart Hôtel Les Tilleuls,16 allée des Tilleuls,Appt n° 10,,33490,SAINT-MACAIRE,+33 5 56 62 28 38,www.tilleul-medieval.com,Non labellisé,-0.226593,44.56557
Meublés,2 étoiles,Appart Hôtel Les Tilleuls,16 allée des Tilleuls,Appt n° 11,,33490,SAINT-MACAIRE,+33 5 56 62 28 38,www.tilleul-medieval.com,Non labellisé,-0.226593,44.56557
Meublés,2 étoiles,Appart Hôtel Les Tilleuls,16 allée des Tilleuls,Appt n° 2,,33490,SAINT-MACAIRE,+33 5 56 62 28 38,www.tilleul-medieval.com,Non labellisé,-0.226593,44.56557
Meublés,2 étoiles,Appart Hôtel Les Tilleuls,16 allée des Tilleuls,Appt n° 3,,33490,SAINT-MACAIRE,+33 5 56 62 28 38,www.tilleul-medieval.com,Non labellisé,-0.226593,44.56557
Meublés,2 étoiles,Appart Hôtel Les Tilleuls,16 allée des Tilleuls,Appt n° 4,,33490,SAINT-MACAIRE,+33 5 56 62 28 38,www.tilleul-medieval.com,Non labellisé,-0.226593,44.56557
Meublés,2 étoiles,Appart Hôtel Les Tilleuls,16 allée des Tilleuls,Appt n° 7,,33490,SAINT-MACAIRE,+33 5 56 62 28 38,www.tilleul-medieval.com,Non labellisé,-0.226593,44.56557
Meublés,2 étoiles,Appart Hôtel Les Tilleuls,16 allée des Tilleuls,Appt n° 8,,33490,SAINT-MACAIRE,+33 5 56 62 28 38,www.tilleul-medieval.com,Non labellisé,-0.226593,44.56557
Meublés,2 étoiles,Appart Hôtel Les Tilleuls,16 allée des Tilleuls,Appt n° 9,,33490,SAINT-MACAIRE,+33 5 56 62 28 38,www.tilleul-medieval.com,Non labellisé,-0.226593,44.56557
Meublés,2 étoiles,Maison des Acacias,8 chemin du Viaduc,,,33490,SAINT-MACAIRE,+33 5 24 22 60 69,,Non labellisé,-0.2406941,44.56349
Meublés,2 étoiles,Meublé Cattini,12 lieu dit Grillet,,,33910,SAINT-MARTIN-DE-LAYE,+33 5 57 49 63 13,,Non labellisé,-0.2267,45.0361
Meublés,3 étoiles,Le petit Jodeau,Le petit jodeau,,,33910,SAINT-MARTIN-DE-LAYE,+33 6 87 02 60 08,,Non labellisé,-0.228619,45.04712
Meublés,2 étoiles,Meublé Lascaux,2 la Caillebosse,,,33910,SAINT-MARTIN-DU-BOIS,+33 5 57 84 72 16;+33 5 57 84 72 17,,Non labellisé,-0.265954,45.03933
Meublés,2 étoiles,Meublé Jean-Jacques,Les Davids,1 Pradeaux Ouest,,33390,SAINT-PAUL,+33 5 57 42 23 78,,Non labellisé,-0.619988,45.152386
Meublés,2 étoiles,Meublé Charbonnier,6 Grand Capron,,,33390,SAINT-PAUL,+33 6 89 89 63 30,celine.charbonnier.voila.net,Non labellisé,-0.6035849,45.154503
Meublés,2 étoiles,Meublé Perche,6 le Bourg Ouest,,,33350,SAINT-PHILIPPE-D'AIGUILLE,+33 5 57 40 60 07,,Non labellisé,-0.030998,44.912537
Meublés,2 étoiles,Meublé Moro,4 Champs de Mars,,,33350,SAINT-PHILIPPE-D'AIGUILLE,+33 5 57 40 63 49,,Non labellisé,-0.030998,44.912537
Meublés,2 étoiles,Meublé Wenger,90 rue du Lavoir,,,33220,SAINT-PHILIPPE-DU-SEIGNAL,+33 5 57 46 04 97,http://filipinne.free.fr,Non labellisé,0.210936,44.81743
Meublés,2 étoiles,Location Auche,6 place Maurice Fournier,,,33390,SAINT-SEURIN-DE-CURSAC,+33 5 57 64 44 66,http://filipinne.free.fr,Non labellisé,-0.62209,45.16075
Meublés,2 étoiles,Location Auche,64 route de St Malo,,,33390,SAINT-SEURIN-DE-CURSAC,+33 5 57 64 44 66,,Non labellisé,-0.622487,45.161354
Meublés,3 étoiles,Le Papillon,11 Le Bourg est,,,33580,SAINT-SULPICE-DE-GUILLERAGUES,+33 5 56 61 62 92,http://le-papillon.pagesperso-orange.fr/,Non labellisé,0.065036,44.62225
Meublés,2 étoiles,Location Courpon,114, les Allants,,,33920,SAINT-VIVIEN-DE-BLAYE,+33 5 57 42 53 21,,Non labellisé,-0.506731,45.101643
Meublés,2 étoiles,Location Courpon,114, les Allants,,,33920,SAINT-VIVIEN-DE-BLAYE,+33 5 57 42 53 21,,Non labellisé,-0.506731,45.101643
Meublés,2 étoiles,Meublé Prince,3 Le Pas de Méric,,,33920,SAINT-YZAN-DE-SOUDIAC,,,Non labellisé,-0.420998,45.151623
Meublés,2 étoiles,Meublé Delaporte,65 route de Laubertrie,,,33240,SALIGNAC,+33 5 57 43 52 75,,Non labellisé,-0.3644371,45.036488
Meublés,2 étoiles,Gîtes du Tchicoy,50 route de Caplanne,"Dorset",,33770,SALLES,+33 5 56 88 41 01,www.tchicoy.com,Non labellisé,-0.912681,44.552094
Meublés,2 étoiles,Gîtes du Tchicoy,50 route de Caplanne,"La Girondine",,33770,SALLES,+33 5 56 88 41 01,www.tchicoy.com,Non labellisé,-0.912681,44.552094
Meublés,2 étoiles,Gîtes du Tchicoy,50 route de Caplanne,"La Leyre",,33770,SALLES,+33 5 56 88 41 01,www.tchicoy.com,Non labellisé,-0.912681,44.552094
Meublés,2 étoiles,Gîtes du Tchicoy,50 route de Caplanne,"Weymouth",,33770,SALLES,+33 5 56 88 41 01,www.tchicoy.com,Non labellisé,-0.912681,44.552094
Meublés,2 étoiles,Meublé Blancquaert,17 bis chemin de Guérin,,,33770,SALLES,+33 5 56 88 41 97,,Non labellisé,-0.8770212,44.554344
Meublés,1 étoile,Meublé Martin,Résidence Grand Large,Appt n° 416,,33780,SOULAC-SUR-MER,+33 5 56 70 22 07,,Non labellisé,-1.1179018,45.52012
Meublés,1 étoile,SCI Villa Ausone,1 rue Trouche,Appt n° 1 - RDC gauche,,33780,SOULAC-SUR-MER,+33 5 57 88 70 81,,Non labellisé,-1.123547,45.51077
Meublés,1 étoile,Location Cox,5 boulevard d'Ospedaletti,Meublé n° 1,,33780,SOULAC-SUR-MER,+33 6 84 60 77 25,www.soulac.eu,Non labellisé,-1.1334096,45.506645
Meublés,1 étoile,Location Cox,5 boulevard d'Ospedaletti,Meublé n° 2,,33780,SOULAC-SUR-MER,+33 (0)5.56.09.23.59,www.soulac.eu,Non labellisé,-1.1334096,45.506645
Meublés,1 étoile,Location Leclerc,24 rue Willy Signoret,Appt n° 1 - RDC,,33780,SOULAC-SUR-MER,+33 5 56 36 73 24,,Non labellisé,-1.112948,45.50581
Meublés,1 étoile,Location Leclerc,24 rue Willy Signoret,Appt n° 2 - Etage,,33780,SOULAC-SUR-MER,+33 5 56 36 73 24,,Non labellisé,-1.112948,45.50581
Meublés,1 étoile,Résidence le Grand Large,4 avenue de la brigade du Médoc,Bât F - Appt n° 424,,33780,SOULAC-SUR-MER,+33 5 56 73 66 17,,Non labellisé,-1.1243605,45.517548
Meublés,1 étoile,Meublé Quodverte,1 rue Jean Mermoz,,,33780,SOULAC-SUR-MER,+33 2 38 22 58 53,,Non labellisé,-1.118976,45.50796
Meublés,1 étoile,Location Faugere,33 rue Saint-Exupéry,N° 2,,33780,SOULAC-SUR-MER,+33 5 56 91 97 27,,Non labellisé,-1.126077,45.502567
Meublés,1 étoile,Location Faugere,33 rue Saint-Exupéry,N° 2,,33780,SOULAC-SUR-MER,+33 5 56 91 97 27,,Non labellisé,-1.126077,45.502567
Meublés,1 étoile,Location Faugere,33 rue Saint-Exupéry,N° 3,,33780,SOULAC-SUR-MER,+33 5 56 91 97 27,,Non labellisé,-1.126077,45.502567
Meublés,1 étoile,Location Faugere,33 rue Saint-Exupéry,N° 4,,33780,SOULAC-SUR-MER,+33 5 56 91 97 27,,Non labellisé,-1.126077,45.502567
Meublés,1 étoile,Location Faugere,33 rue Saint-Exupéry,N° 5,,33780,SOULAC-SUR-MER,+33 5 56 91 97 27,,Non labellisé,-1.126077,45.502567
Meublés,1 étoile,Location Faugere,33 rue Saint-Exupéry,N° 7,,33780,SOULAC-SUR-MER,+33 5 56 91 97 27,,Non labellisé,-1.126077,45.502567
Meublés,2 étoiles,Agence Biran,45 rue Victor Hugo,,,33780,SOULAC-SUR-MER,+33 5 56 09 64 63,,Non labellisé,-1.139187,45.496338
Meublés,2 étoiles,Agence Biran,avenue de la Pointe de Grave,Résidence Océane,,33780,SOULAC-SUR-MER,+33 5 56 09 64 63,,Non labellisé,-1.139187,45.496338
Meublés,2 étoiles,Agence Immo-Plage,20, rue du Docteur Mourlan,,,33780,SOULAC-SUR-MER,+33 5 56 09 93 55,www.agence-immoplage.com,Non labellisé,-1.1226074,45.50244
Meublés,2 étoiles,Agence Immo-Plage,33, rue Félix Le Carvennec,,,33780,SOULAC-SUR-MER,+33 5 56 09 93 55,www.agence-immoplage.com,Non labellisé,-1.1152407,45.52364
Meublés,2 étoiles,Agence Immo-Plage,7, rue de Belgique,,,33780,SOULAC-SUR-MER,+33 5 56 09 93 55,www.agence-immoplage.com,Non labellisé,-1.1120284,45.518932
Meublés,2 étoiles,Agence Immo-Plage,Les Hameaux de l'Amélie,Lot n° 117,L'Amélie,33780,SOULAC-SUR-MER,+33 5 56 09 93 55,www.agence-immoplage.com,Non labellisé,-1.1464433,45.484653
Meublés,2 étoiles,Agence Immo-Plage,Résidence Cap Atlantic,Entrée B - Appt n° 24,,33780,SOULAC-SUR-MER,+33 5 56 09 93 55,www.agence-immoplage.com,Non labellisé,-1.123258,45.515125
Meublés,2 étoiles,Agence Immo-Plage,Résidence Cap Atlantic,rue Bignon,Entrée C - Appt n° 4,33780,SOULAC-SUR-MER,+33 5 56 09 93 55,www.agence-immoplage.com,Non labellisé,-1.123258,45.515125
Meublés,2 étoiles,Agence Immo-Plage,Résidence Le Signal,boulevard du Front de Mer,Entrée A - 2nd étage face,33780,SOULAC-SUR-MER,+33 5 56 09 93 55,www.agence-immoplage.com,Non labellisé,-1.123258,45.515125
Meublés,2 étoiles,Agence Immo-Plage,Résidence Marine,avenue de Cordouan,Entrée A - Appt n° 10,33780,SOULAC-SUR-MER,+33 5 56 09 93 55,www.agence-immoplage.com,Non labellisé,-1.123258,45.515125
Meublés,2 étoiles,Agence Immo-Plage,Résidence Marine,Entrée B - Appt n° 114,,33780,SOULAC-SUR-MER,+33 5 56 09 93 55,www.agence-immoplage.com,Non labellisé,-1.123258,45.515125
Meublés,2 étoiles,Meublé Broche,31 rue Brémontier,,,33780,SOULAC-SUR-MER,+33 6 18 77 26 52,,Non labellisé,-1.1267072,45.51199
Meublés,2 étoiles,Résidence Marine,23, avenue de la Pointe de Grave,Bât A - Appt n° 25,,33780,SOULAC-SUR-MER,+33 5 56 37 94 63;+33 5 56 09 82 45,,Non labellisé,-1.122204,45.518555
Meublés,2 étoiles,Résidence Cap Atlantique,rue Bignon,Bâtiment A - Appt n° 36,,33780,SOULAC-SUR-MER,+33 4 73 94 62 69,,Non labellisé,-1.123258,45.515125
Meublés,2 étoiles,Résidence les Arros,rue Félix Le Carvennec,lot n° 44,,33780,SOULAC-SUR-MER,+33 6 80 17 69 27,,Non labellisé,-1.123258,45.515125
Meublés,2 étoiles,Location Cox,5, boulevard d'Ospedaletti,Le Studio,,33780,SOULAC-SUR-MER,+33 6 84 60 77 25,www.soulac.eu,Non labellisé,-1.1330938,45.506348
Meublés,2 étoiles,Meublé Mande,Résidence Altariva,1, rue Jeanne d'Arc,,33780,SOULAC-SUR-MER,+33 6 07 41 31 62,www.martine-mande.com,Non labellisé,-1.1258625,45.516624
Meublés,2 étoiles,Meublé Cholet,88 rue Roland Dorgelés,,,33780,SOULAC-SUR-MER,+33 5 56 09 96 14,,Non labellisé,-1.1079454,45.508602
Meublés,2 étoiles,Meublé Faux,3 rue des Anciens Combattants,d'Afrique du Nord,,33780,SOULAC-SUR-MER,+33 5 56 09 70 54;+33 5 56 09 15 06,,Non labellisé,-1.1226117,45.503017
Meublés,2 étoiles,Meublé Sibelet,1 rue des 3 Mousquetaires,,,33780,SOULAC-SUR-MER,+33 5 56 96 65 16,,Non labellisé,-1.123258,45.515125
Meublés,2 étoiles,Le Georgeon,31 rue Thiers,Appt studio 1er étage,,33780,SOULAC-SUR-MER,+33 5 56 09 99 64,www.legeorgeon.com,Non labellisé,-1.125766,45.512985
Meublés,2 étoiles,Le Georgeon,31 rue Thiers,Appt T3 RDC,,33720,SOULAC-SUR-MER,+33 5 56 09 99 64,www.legeorgeon.com,Non labellisé,-1.126051,45.513203
Meublés,2 étoiles,Meublé Gazeau,88 boulevard Marsan de Montbrun,,,33780,SOULAC-SUR-MER,+33 5 56 30 71 40,http://francis.gazeau.free.fr,Non labellisé,-1.1343078,45.50283
Meublés,2 étoiles,Villa la Grange - N° 2,7 rue Charlevoix de Villiers,,,33780,SOULAC-SUR-MER,+33 5 56 09 81 82,,Non labellisé,-1.1203157,45.50867
Meublés,2 étoiles,Meublé Leturcq,58 rue du Cardinal Donnet,Appt RDC T3,,33780,SOULAC-SUR-MER,+33 5 56 73 72 36,,Non labellisé,-1.1278152,45.508873
Meublés,2 étoiles,Meublé Millet,23 b rue du Maquis des Vignes Oudides,,,33780,SOULAC-SUR-MER,+33 (0)9 81 44 70 18,,Non labellisé,-1.13249,45.503345
Meublés,2 étoiles,Meublé Lapouge,10 rue du Docteur Mourlon,,,33780,SOULAC-SUR-MER,+33 6 75 01 17 03,,Non labellisé,-1.1245,45.50294
Meublés,2 étoiles,Meublé Peiniau,2 boulevard de Casteléra,,,33780,SOULAC-SUR-MER,+33 2 99 69 50 64,,Non labellisé,-1.1310338,45.508564
Meublés,2 étoiles,Meublé Travers,2 rue Fontête,Appartement N°2 - Le skipper,,33780,SOULAC-SUR-MER,+ 33 (0)5.56.20.14.65,,Non labellisé,-1.1267745,45.516247
Meublés,2 étoiles,SCI Départ, Bourdeau et Fils,3, rue Bienaimé Coiffard,RDC droite,,33780,SOULAC-SUR-MER,+33 5 56 21 41 43,,Non labellisé,-1.1270119,45.515377
Meublés,3 étoiles,Agence Biran,10 rue Gambetta,,,33780,SOULAC-SUR-MER,+33 5 56 09 64 63,,Non labellisé,-1.139187,45.496338
Meublés,3 étoiles,Agence Biran,31 avenue de l'Europe,,,33780,SOULAC-SUR-MER,+33 5 56 09 64 63,,Non labellisé,-1.139187,45.496338
Meublés,3 étoiles,Agence Biran,Résidence Le Skipper,boulevard du Front de Mer,,33780,SOULAC-SUR-MER,+33 5 56 09 64 63,,Non labellisé,-1.139187,45.496338
Meublés,3 étoiles,Agence Immo-Plage,13, rue du Docteur Prioleau,,,33780,SOULAC-SUR-MER,+33 5 56 09 93 55,www.agence-immoplage.com,Non labellisé,-1.131809,45.504436
Meublés,3 étoiles,Meublé Gimet,22 Les Hameaux de l'Amélie,L'Amélie,,33780,SOULAC-SUR-MER,+33 5 56 95 84 08,http://soulac.over-blog.com,Non labellisé,-1.102646,45.49466
Meublés,3 étoiles,Villa Qu'es Aco,55 rue Trouche,,,33780,SOULAC-SUR-MER,+33 5 56 41 96 24,,Non labellisé,-1.1235773,45.51058
Meublés,2 étoiles,Château Sentout,Appt n° 1 Le Fournil,,,33550,TABANAC,+33 5 56 21 85 77,www.chateausentout.fr,Non labellisé,-0.406057,44.721027
Meublés,2 étoiles,Château Sentout,Appt n° 2 Le pigeonnier,,,33550,TABANAC,+33 5 56 21 85 77,www.chateausentout.fr,Non labellisé,-0.406057,44.721027
Meublés,2 étoiles,Château Sentout,Appt n° 3 La Remise,,,33550,TABANAC,+33 5 56 21 85 77,www.chateausentout.fr,Non labellisé,-0.406057,44.721027
Meublés,2 étoiles,Château Sentout,Appt n° 4 Le Tilbury,,,33550,TABANAC,+33 5 56 21 85 77,www.chateausentout.fr,Non labellisé,-0.406057,44.721027
Meublés,2 étoiles,Château Sentout,Appt n° 5 La Roseraie,,,33550,TABANAC,+33 5 56 21 85 77,www.chateausentout.fr,Non labellisé,-0.406057,44.721027
Meublés,2 étoiles,Château Sentout,Appt n° 6 La Tuilerie,,,33550,TABANAC,+33 5 56 21 85 77,,Non labellisé,-0.406057,44.721027
Meublés,2 étoiles,Château Sentout,Appt n° 7 Evêque,,,33550,TABANAC,+33 5 56 21 85 77,www.chateausentout.fr,Non labellisé,-0.406057,44.721027
Meublés,2 étoiles,Château Sentout,Appt n° 9 Le Pressoir,,,33550,TABANAC,+33 5 56 21 85 77,,Non labellisé,-0.406057,44.721027
Meublés,2 étoiles,Meublé Charre,1 Lapourchaud,,,33620,TIZAC-DE-LAPOUYADE,+33 5 57 49 42 72,http://www.a-gites.com/siteweb6189/,Non labellisé,-0.3120374,45.071655
Meublés,1 étoile,Meublé Dupuy,6 rue René Davidou,,,33930,VENDAYS-MONTALIVET,+33 1 42 08 24 64,,Non labellisé,-1.146932,45.37439
Meublés,2 étoiles,Location Darcos,5 rue Naujac,Appt n° 1,,33930,VENDAYS-MONTALIVET,+33 5 56 41 77 42,,Non labellisé,-1.1543169,45.377907
Meublés,2 étoiles,Location Darcos,5 rue Naujac,Appt n° 2,,33930,VENDAYS-MONTALIVET,+33 5 57 12 04 16;+33 5 56 41 77 42,,Non labellisé,-1.1543169,45.377907
Meublés,2 étoiles,Location Darcos,5 rue Naujac,Appt n° 3,,33930,VENDAYS-MONTALIVET,+33 5 56 41 77 42,,Non labellisé,-1.1543169,45.377907
Meublés,2 étoiles,Villa Petit Voisin,4 avenue des Vagues,,,33930,VENDAYS-MONTALIVET,+ 33 5 56 73 76 72,,Non labellisé,-1.153276,45.377384
Meublés,2 étoiles,Villa St Antoine,7 rue du Colonel Duchez,,,33930,VENDAYS-MONTALIVET,+ 33 5 56 73 76 72,,Non labellisé,-1.156062,45.379116
Meublés,2 étoiles,Meublé Moussiegt,14 rue Lucien Delvolve,,,33930,VENDAYS-MONTALIVET,+33 5 56 09 30 07,,Non labellisé,-1.1461153,45.378853
Meublés,2 étoiles,Meublé Noailletas,14 rue Jean Mermoz,,,33930,VENDAYS-MONTALIVET,+33 5 87 91 13 44,,Non labellisé,-1.151822,45.382298
Meublés,2 étoiles,Meublé Roger,2 route du Gueyt,,,33930,VENDAYS-MONTALIVET,+33 5 63 42 03 30,,Non labellisé,-1.096927,45.33785
Meublés,2 étoiles,Location During,23 avenue des Vagues,Montalivet,,33930,VENDAYS-MONTALIVET,+ 33 5 56 73 76 72,,Non labellisé,-1.096927,45.33785
Meublés,2 étoiles,Location During,5 rue Saint Isidore,Montalivet,,33930,VENDAYS-MONTALIVET,+ 33 5 56 73 76 72,,Non labellisé,-1.096927,45.33785
Meublés,2 étoiles,Location Lacombe,Lotissement les Pins de l'Océan,34 rue des Mimosas,Appt ST mezz,33930,VENDAYS-MONTALIVET,+33 5 53 27 55 25,,Non labellisé,-1.096927,45.33785
Meublés,2 étoiles,Location Lacombe,Lotissement les Pins de l'Océan,34 rue des Mimosas,Appt T3 mezz,33930,VENDAYS-MONTALIVET,+33 5 53 27 55 25,,Non labellisé,-1.096927,45.33785
Meublés,2 étoiles,Location Lacombe,Lotissement les Pins de l'Océan,34 rue des Mimosas,Montalivet,33930,VENDAYS-MONTALIVET,+33 5 53 27 55 25,,Non labellisé,-1.096927,45.33785
Meublés,2 étoiles,Meublé Laoue,60 avenue de la Plage,Montalivet,,33930,VENDAYS-MONTALIVET,+33 5 56 73 00 63,,Non labellisé,-1.153564,45.379227
Meublés,2 étoiles,Meublé Studont,29 rue Abbé Sursol,,,33930,VENDAYS-MONTALIVET,+33 5 56 09 31 59,,Non labellisé,-1.153182,45.38225
Meublés,3 étoiles,Meublé Brechou,25 rue Roland Dorgelès,,,33930,VENDAYS-MONTALIVET,+33 6 77 14 02 88;+33 6 08 60 39 14,,Non labellisé,-1.1445426,45.375114
Meublés,3 étoiles,Meublé Langford,27 rue de l'Espérance,,,33970,VENDAYS-MONTALIVET,+33 5 56 59 30 28,,Non labellisé,-1.149179,45.382374
Meublés,2 étoiles,Meublé Antoine,614 Bourg Ouest,,,33550,VILLENAVE-DE-RIONS,+33 5 56 72 10 34,,Non labellisé,-0.337771,44.69017
Meublés,2 étoiles,Meublé Dumec,24 allée des Papillons,La Hume,,33470,GUJAN-MESTRAS,+33 5 59 33 04 29,,Non labellisé,-1.1109941,44.64034
Meublés,2 étoiles,Maison Casa Rosa,69, rue Armand Daney,,,33470,GUJAN-MESTRAS,+33 5 56 66 12 78;+33 5 56 66 12 78,www.casarosa.fr,Non labellisé,-1.0807157,44.637882
Meublés,2 étoiles,Meublé Chouc,69 quinte avenue de la Liberté,,,33470,GUJAN-MESTRAS,+33 6 23 31 18 88;+33 6 71 90 77 51,,Non labellisé,-1.058036,44.636253
Meublés,2 étoiles,Les Jardins d'Eden,avenue de Césarée,Bâtiment D - Appt n° 201A,,33470,GUJAN-MESTRAS,+33 9 80 09 99 20,,Non labellisé,-1.072562,44.622967
Meublés,2 étoiles,Meublé Lacrampe,11 quai Port le Hume,La Hume,,33470,GUJAN-MESTRAS,+33 5 62 94 33 05,,Non labellisé,-1.1161875,44.64295
Meublés,2 étoiles,Résidence les Soulleilades,20, allée Jacques Bossuet,Appt A3 - RDC,,33470,GUJAN-MESTRAS,+33 6 62 77 26 30,,Non labellisé,-1.074407,44.621727
Meublés,2 étoiles,Meublé Coutantin,25 impasse des Marées,,,33470,GUJAN-MESTRAS,+33 5 56 31 69 88,,Non labellisé,-1.105364,44.643673
Meublés,2 étoiles,Location Martin,18 allée des Bruyères,Appt n° 1,,33470,GUJAN-MESTRAS,+33 5 56 22 12 19,http://location-bassin-arcachon.skyrock.com,Non labellisé,-1.1128863,44.637024
Meublés,2 étoiles,Location Martin,18 allée des Bruyères,Appt n° 2,,33470,GUJAN-MESTRAS,+33 5 56 22 12 19,http://location-bassin-arcachon.skyrock.com,Non labellisé,-1.113064,44.638298
Meublés,2 étoiles,Meublé Petrolini,13 allée du Sable,,,33470,GUJAN-MESTRAS,+33 5 56 66 41 41,www.celineetjoseph.com,Non labellisé,-1.0567512,44.63524
Meublés,2 étoiles,Résidence Penthièvre,Allée Jafeine,Bâtiment l'Optimiste - Appt n° 56,,33470,GUJAN-MESTRAS,+33 4 73 97 96 13,,Non labellisé,-1.070757,44.62795
Meublés,2 étoiles,Meublé Bouin,25 allée de Verdalle,La Hume,,33470,GUJAN-MESTRAS,+33 5 56 66 93 92,,Non labellisé,-1.109378,44.641582
Meublés,3 étoiles,Meublé Chateigner,31-5 allée du Bec,,,33470,GUJAN-MESTRAS,+33 6 83 92 59 81,,Non labellisé,-1.0964942,44.637302
Meublés,3 étoiles,Résidence Penthièvre,Allée Raphaël,Bat C L'Optimiste appt 42,,33470,GUJAN-MESTRAS,+ 33 6 83 13 34 19,,Non labellisé,-1.0711669,44.6369
Meublés,3 étoiles,Location Gailhard,1 bis allée Jules Ferry,Petit Meyran,,33470,GUJAN-MESTRAS,+33 5 56 66 96 41,,Non labellisé,-1.1018195,44.63656
Meublés,3 étoiles,Maison Murmure,1 allée Jules Ferry,,,33470,GUJAN-MESTRAS,+33 5 56 66 96 41,,Non labellisé,-1.1018195,44.63656
Meublés,3 étoiles,Meublé Etchegoyen,52 allée du Plaçot,,,33470,GUJAN-MESTRAS,+33 5 59 72 98 97,,Non labellisé,-1.0824824,44.63368
Meublés,3 étoiles,Meublé Borie,8 allée du Turc,La Hume,,33470,GUJAN-MESTRAS,+33 5 56 66 95 72,,Non labellisé,-1.1131301,44.634907
Meublés,3 étoiles,Meublé Bedos,128 Avenue Sainte-Marie,,,33470,GUJAN-MESTRAS,+33 6 63 58 41 81,,Non labellisé,-1.1106415,44.624954
Meublés,3 étoiles,Résidence Cap Sud - Appt n° 17,36, rue de la Liberté,,,33470,GUJAN-MESTRAS,+33 5 57 15 12 03,,Non labellisé,-1.058013,44.637726
Meublés,3 étoiles,Gîte la bergerie,La Bergerie,5 quartier des Arroudeys,,33125,HOSTENS,+33 5 56 88 15 82,www.arroudeya.com,Non labellisé,-0.5882787,44.51182
Meublés,3 étoiles,Meublé Bonnet,1 quartier Nauton,,,33125,HOSTENS,+33 5 56 88 67 90,,Non labellisé,-0.7131271,44.489574
Meublés,1 étoile,Meublé Laborde,90 rue du Lac,,,33990,HOURTIN,+33 6 76 01 97 85,,Non labellisé,-1.0725402,45.18246
Meublés,2 étoiles,Location Eyeraguibel ,15 avenue de Leyssaut,Lachanau,,33990,HOURTIN,+33 5 56 24 94 46,,Non labellisé,-1.073214,45.17221
Meublés,2 étoiles,Meublé Sauts,9 rue de la Côte d'Argent,,,33990,HOURTIN,+33 5 56 09 11 19,http://gitehourtin.blogspot.fr/,Non labellisé,-1.0594563,45.186596
Meublés,2 étoiles,Location Baudouin,9 bis rue des Atriplex,Hourtin Plage,,33990,HOURTIN,+33 5 56 58 82 40,,Non labellisé,-1.168825,45.22276
Meublés,2 étoiles,Meublé Boudon,4, rue des sables,Hourtin Plage,,33990,HOURTIN,+33 5 56 08 41 69,,Non labellisé,-1.16949,45.22287
Meublés,2 étoiles,Meublé Maffre,25 bis route de Lachanau,,,33990,HOURTIN,+33 5 56 50 50 91;+33 5 56 09 25 15,,Non labellisé,-1.063744,45.17639
Meublés,2 étoiles,Meublé Blondit,76 le Génois I,Hourtin Port,,33990,HOURTIN,+33 5 53 24 23 61,,Non labellisé,-1.0827905,45.181435
Meublés,2 étoiles,Résidence Tribord,Appt n° 287,Hourtin Port,,33990,HOURTIN,+33 5 57 83 11 52,http://locationhourtin.free.fr,Non labellisé,-1.0809169,45.18537
Meublés,2 étoiles,Meublé Jabaudon,33 avenue de la Côte d'Argent,,,33990,HOURTIN,+33 5 57 51 93 66,,Non labellisé,-1.0617828,45.188324
Meublés,2 étoiles,Meublé Glaudis,Les Villas du Port,Hourtin-Port,Bâtiment Saint-Estèphe,33990,HOURTIN,+33 6 08 98 63 60,,Non labellisé,-1.0854148,45.183216
Meublés,2 étoiles,Meublé Domingie,41 le Génois I,Hourtin Port,,33990,HOURTIN,+33 5 56 20 71 72,www.locahourtin.com,Non labellisé,-1.0826629,45.18155
Meublés,2 étoiles,Meublé Videau,3/4, place de l'Eglise,N° 2,,33990,HOURTIN,+33 5 56 09 15 23,,Non labellisé,-1.057811,45.185574
Meublés,2 étoiles,Meublé Dumartin,8 rue Chambrelent,,,33990,HOURTIN,+33 5 56 09 24 54,,Non labellisé,-1.057985,45.18416
Meublés,2 étoiles,Meublé Rodrigues,33 rue de la Plage,Lachanau,N° 1,33990,HOURTIN,+33 5 56 09 16 88,,Non labellisé,-1.0715961,45.165035
Meublés,2 étoiles,Le Clos du Mauricet,15 rue de Pinède,,,33990,HOURTIN,+32 49 89 63 453,www.rentacottage.be/hourtin,Non labellisé,-1.0759735,45.194923
Meublés,2 étoiles,Meublé Joubert,30 B Les Villas du Port,Hourtin Port,,33990,HOURTIN,+33 5 56 09 12 44,,Non labellisé,-1.055969,45.210167
Meublés,2 étoiles,Meublé Villatte,4 lotissement les Lucioles,,,33990,HOURTIN,+33 5 57 41 25 26,,Non labellisé,-1.0638284,45.19105
Meublés,3 étoiles,Meublé Palette,10 rue des Pins,Hourtin Plage,,33990,HOURTIN,+33 5 56 41 11 58,,Non labellisé,-1.1672541,45.223434
Meublés,3 étoiles,Meublé Capes,9 Lotissement les Gaillards,Hourtin Port,,33990,HOURTIN,+33 5 56 57 69 02,,Non labellisé,-1.0806083,45.187164
Meublés,3 étoiles,Meublé Claude,3 Lotissement les Gaillards,Hourtin Port,,33990,HOURTIN,+33 5 56 29 04 44,,Non labellisé,-1.055969,45.210167
Meublés,3 étoiles,Meublé Thiriat,121 Avenue du Lac,,,33990,HOURTIN,+33 5 56 96 06 83;+33 6 59 83 20 33,,Non labellisé,-1.0607982,45.185215
Meublés,3 étoiles,Meublé Thibaud,6 bis impasse des Fougères,,,33990,HOURTIN,+33 6 63 82 00 31,www.tiboloc.fr,Non labellisé,-1.0460186,45.18688
Meublés,2 étoiles,Location Chalmel,9 chemin le Clou,Jau,Appt n° 1,33390,JAU-DIGNAC-ET-LOIRAC,+33 1 45 69 39 72,,Non labellisé,-0.979698,45.418575
Meublés,2 étoiles,Location Chalmel,9 chemin le Clou,Jau,Appt n° 2,33390,JAU-DIGNAC-ET-LOIRAC,+33 1 45 69 39 72,,Non labellisé,-0.979698,45.418575
Meublés,2 étoiles,Meublé Mathieu,Résidence Jean Michelet,24, rue Jean Michelet,,33260,LA TESTE-DE-BUCH,+33 5 56 72 63 21,,Non labellisé,-1.146537,44.652115
Meublés,2 étoiles,Meublé Beyou,19 rue Guynemer,,,33260,LA TESTE-DE-BUCH,+33 5 56 97 09 67,,Non labellisé,-1.148816,44.625656
Meublés,2 étoiles,Meublé Demarcq,4 rue de la Marne,,,33260,LA TESTE-DE-BUCH,+33 6 83 93 62 69;+33 6 64 80 97 90,,Non labellisé,-1.1485111,44.63421
Meublés,2 étoiles,Résidence Villa Les Embruns,51, rue des Alliés - Appt. 107,,,33260,LA TESTE-DE-BUCH,+33 6 08 98 80 70;+33 6 86 40 15 56,,Non labellisé,-1.2088823,44.60228
Meublés,2 étoiles,Meublé Koeune,10 allée Marina,,,33260,LA TESTE-DE-BUCH,+33 5 56 54 69 89,,Non labellisé,-1.1343226,44.62225
Meublés,2 étoiles,Meublé Brunelle,6 rue du Paradis des Canards,Les Hauts de Bordes,,33260,LA TESTE-DE-BUCH,+33 6 85 52 13 76,,Non labellisé,-1.1327934,44.63904
Meublés,2 étoiles,Location Drubay,63 avenue du Général de Gaulle,,,33260,LA TESTE-DE-BUCH,+33 5 56 54 31 79,,Non labellisé,-1.1345046,44.63526
Meublés,2 étoiles,Location Drubay,63 avenue du Général de Gaulle,,,33260,LA TESTE-DE-BUCH,+33 5 56 54 31 79,,Non labellisé,-1.1345046,44.63526
Meublés,2 étoiles,Domaine de Bel Air,53, rue des Alliés,Appt n° 107,,33260,LA TESTE-DE-BUCH,+33 2 47 27 38 51,,Non labellisé,-1.1469125,44.62554
Meublés,2 étoiles,Meublé Château,14 rue de la Calandrelle,,,33260,LA TESTE-DE-BUCH,+33 6 61 18 37 16,,Non labellisé,-1.1513972,44.61772
Meublés,3 étoiles,Résidence Némo,20 rue de l'Aiguillon,Appt n° 10,,33260,LA TESTE-DE-BUCH,+33 6 82 71 41 17,,Non labellisé,-1.1432433,44.652122
Meublés,3 étoiles,Meublé Le Guen,11 rue Lody,,,33260,LA TESTE-DE-BUCH,+33 5 56 66 30 96,,Non labellisé,-1.1425352,44.632145
Meublés,1 étoile,Meublé Beziat,107 Résidence les Palombes,,,33680,LACANAU,+33 5 56 28 15 00,,Non labellisé,-1.1828112,45.006207
Meublés,1 étoile,Résidence Océanides,Rue Louis Pasteur,Bâtiment M - Appt n° 428,,33680,LACANAU,+33 5 56 09 13 27,,Non labellisé,-1.2009,45.000046
Meublés,2 étoiles,Résidence Bleu Marine,Rue Pasteur,Appt n° 17 - RDC - Bât C,,33680,LACANAU,+33 5 55 98 96 15,,Non labellisé,-1.1996018,44.996693
Meublés,2 étoiles,Résidence les Hélianthes,rue Jules Ferry,Appt n°10 - 1er étage,,33680,LACANAU,+33 5 56 05 45 51,,Non labellisé,-1.2004333,45.00324
Meublés,2 étoiles,Parc de la Dune - Appt n° 16,rue des Manchets,,,33680,LACANAU,+33 9 52 89 87 75,,Non labellisé,-1.075745,44.97846
Meublés,2 étoiles,Location Salques,8 avenue Poincaré,Meublé T2,,33680,LACANAU,+33 5 56 03 19 80,,Non labellisé,-1.1995487,45.003834
Meublés,2 étoiles,Location Salques,8 avenue Poincaré,Meublé T3,,33680,LACANAU,+33 5 56 03 19 80,,Non labellisé,-1.1995536,45.003735
Meublés,2 étoiles,Résidence les Terrasses de l'Atlantique,Rue Pasteur,Bâtiment A - Appt n° 16,,33680,LACANAU,+33 5 56 91 86 78,,Non labellisé,-1.2007713,44.997555
Meublés,2 étoiles,Meublé Mackenzie,63 avenue Marie Curie,,,33680,LACANAU,+33 6 08 78 47 91,http://web.me.com/nicolemackenzie,Non labellisé,-1.1917698,44.994484
Meublés,2 étoiles,Résidence Bleu Marine,Rue Pasteur,Bâtiment C - Appt n° 130,,33680,LACANAU,+33 5 56 06 77 85,,Non labellisé,-1.1996126,44.99671
Meublés,2 étoiles,Meublé Ballarin,16 Le Bidaou,,,33680,LACANAU,+33 5 56 20 61 33,http://lacanaubidaou.fr,Non labellisé,-1.1855095,45.003635
Meublés,2 étoiles,Monsieur Bernard DUPUIS,47, avenue Plantey,,,33680,LACANAU,+33 5 56 06 30 73,,Non labellisé,-1.1877787,45.00253
Meublés,2 étoiles,Résidence Ortal Océan,Allée Ortal,Appt n° 109,,33680,LACANAU,+33 5 56 03 30 72,,Non labellisé,-1.2012702,45.00169
Meublés,2 étoiles,Meublé Hauchecorne,24 Résidence les Cigalines,,,33680,LACANAU,+33 6 09 73 63 45;+33 6 29 97 51 28,,Non labellisé,-1.1804348,44.99642
Meublés,2 étoiles,Résidence Ortal - Appt n° 401,1 boulevard de la Plage,,,33680,LACANAU,+33 6 67 64 83 13,,Non labellisé,-1.2012809,45.00169
Meublés,2 étoiles,Vitalparc,Route du Baganais,Appt n° 716,,33680,LACANAU,+33 6 08 78 99 16,,Non labellisé,-1.075745,44.97846
Meublés,2 étoiles,Résidence Domaine du Golf,Bâtiment Saint-Julien,Appt n° 5001,,33680,LACANAU,+33 5 56 94 04 55,www.amivac.com/site33749,Non labellisé,-1.075745,44.97846
Meublés,2 étoiles,Meublé Sirventon,69 avenue Marie Curie,,,33680,LACANAU,+33 5 56 06 34 66,,Non labellisé,-1.1883168,44.99648
Meublés,2 étoiles,Les Maisons de l'Océan,Bâtiment H - Appt n° 23,,,33680,LACANAU,+33 5 58 09 50 40,,Non labellisé,-1.2009912,44.99684
Meublés,2 étoiles,Résidence Horizon Marin - Rue Pasteur,Bât D - Appt 80,Lacanau Océan,,33680,LACANAU,+33 5 57 68 83 74,,Non labellisé,-1.2005513,44.997242
Meublés,2 étoiles,Villa Georges,4 allée du petit Moutchic,,,33680,LACANAU,+33 5 56 03 06 87,www.villa-georges.com,Non labellisé,-1.1264526,45.004078
Meublés,2 étoiles,Les Maisons de la Forêt 3,Appt C3,,,33680,LACANAU,+33 6 12 40 16 73,,Non labellisé,-1.1853754,45.00408
Meublés,2 étoiles,Les Jardins de Lacanau,chemin des Manchets,Appt n° 56,,33680,LACANAU,+33 5 56 05 83 58,,Non labellisé,-1.1845868,44.99862
Meublés,2 étoiles,Résidence les Terrasses de l'Atlantique,rue Pasteur,Bâtiment C - Appt n° 70,,33680,LACANAU,+33 5 56 72 94 74,,Non labellisé,-1.2007927,44.996864
Meublés,2 étoiles,Meublé Muller,10 Les Hauts du Golf,,,33680,LACANAU,+33 1 34 16 13 98,,Non labellisé,-1.17087,44.999428
Meublés,2 étoiles,Meublé Vachin,43 Lotissement Les Jardins de la Pinède,Chemin des Manchets,Lacanau Océan,33680,LACANAU,+33 5 56 05 16 30;+33 9 50 26 52 53,,Non labellisé,-1.1842489,44.998196
Meublés,2 étoiles,Silver Immobilier,25 Parc de la Dune,Chemin des Manchets,,33680,LACANAU,+33 6 15 59 63 01,,Non labellisé,-1.1840784,44.99648
Meublés,3 étoiles,Meublé Dabadie,7 rue du Repos,,,33680,LACANAU,+33 5 56 57 51 19,http://gites.ocean.pagesperso-orange.fr,Non labellisé,-1.1935132,45.00753
Meublés,3 étoiles,Meublé Boscher,Les Bambous,Ceinture de Talaris,,33680,LACANAU,+33 6 73 52 95 59,,Non labellisé,-1.075745,44.97846
Meublés,3 étoiles,Meublé Botsch,43 allée de Planquehaute,Lacanau Lac,,33680,LACANAU,+49 303 101 68 52,http://lacanau.botsch-family.de,Non labellisé,-1.0963046,44.983025
Meublés,3 étoiles,Meublé Laleve,10 Allée du Petit Moutchic,,,33680,LACANAU,+ 33 6 65 44 87 10,,Non labellisé,-1.127152,45.004166
Meublés,3 étoiles,Meublé Sevic,14 rue Toulouse Lautrec,La Gringue Nord,,33680,LACANAU,+33 5 53 41 31 08,,Non labellisé,-1.190831,45.004482
Meublés,3 étoiles,Location Vanleeuwe,14 route du Lion,,,33680,LACANAU,+32 276 721 24,,Non labellisé,-1.1985343,44.99487
Meublés,3 étoiles,Meublé Bellard,46 Résidence les Palombes,,,33680,LACANAU,+33 6 87 51 80 66,,Non labellisé,-1.1855007,45.004166
Meublés,3 étoiles,Meublé Gachet,2 rue Armand Mollard,,,33680,LACANAU,+33 6 08 37 55 01;+33 6 78 82 13 09,,Non labellisé,-1.1936151,45.004177
Meublés,4 étoiles,Meublé Sevic,8 rue Paul Gauguin,,,33680,LACANAU,+33 5 53 48 61 95,,Non labellisé,-1.1920005,45.004356
Meublés,4 étoiles,Meublé Berthoux,4 Résidence Eden Parc,,,33680,LACANAU,+33 7 86 25 36 90,,Non labellisé,-1.1689871,44.993008
Meublés,2 étoiles,Domaine de Leydet,Leydet,,,33230,LAGORCE,+33 6 08 60 75 54,http://domainedeleydet.com,Non labellisé,-0.1724954,45.08183
Meublés,3 étoiles,Meublé Jacquart,15 Lainier,,,33230,LAGORCE,+33 5 57 49 32 28,,Non labellisé,-0.1780557,45.072247
Meublés,2 étoiles,Domaine Les Massiots,60 Les Massiots,,,33190,LAMOTHE-LANDERRON,+33 5 56 61 71 76,www.domaine-massiots.fr,Non labellisé,0.0499144,44.562202
Meublés,2 étoiles,Gîte Abel,30 bis rue Abel Gourgues,,,33210,LANGON,+33 5 56 63 01 07,www.gite-langon-30abel.sitew.com,Non labellisé,-0.2536806,44.553555
Meublés,2 étoiles,Gîte Chez Martine,77 avenue René cassin,,,33210,LANGON,+33 9 50 777 909,,Non labellisé,-0.2604746,44.53942
Meublés,1 étoile,Meublé Boyrie,5 avenue Charles Gounod,Cassy,,33138,LANTON,+33 5 56 12 09 05,,Non labellisé,-1.0767691,44.736454
Meublés,2 étoiles,L'hippocampe,5 bis rue Maurice Utrillo,,,33138,LANTON,+33 5 57 76 08 32,,Non labellisé,-1.0400962,44.701584
Meublés,2 étoiles,Meublé Donis,7 allée Gabrielle,Taussat,,33138,LANTON,+33 5 53 89 55 93,,Non labellisé,-1.071967,44.72152
Meublés,2 étoiles,Meublé Nadal,2 avenue de la République,,,33138,LANTON,+33 5 53 09 18 86,,Non labellisé,-1.0618374,44.7153
Meublés,2 étoiles,Meublé Dequick,8 rue de la Saussine,,,33138,LANTON,+33 5 49 70 24 99,,Non labellisé,-1.0439008,44.704464
Meublés,2 étoiles,Location Georgelin,4 allée de Marsalat,,,33138,LANTON,+33 5 56 82 06 01,www.hotel-de-la-plage.fr,Non labellisé,-1.04043,44.70459
Meublés,3 étoiles,Meublé Boussin,Lotissement Elzide II,7, allée Claude Debussy,,33138,LANTON,+33 5 57 70 26 84,,Non labellisé,-1.0414431,44.70928
Meublés,3 étoiles,Location Bournaud,5 avenue de l'Amiral Larrieu,Cassy,,33138,LANTON,+33 5 56 82 14 16,http://marinette.bournaud.pagesperso-orange.fr,Non labellisé,-1.035469,44.702377
Meublés,3 étoiles,Location Bournaud,9 avenue Richardson,Cassy,,33138,LANTON,+33 5 56 82 14 16,http://marinette.bournaud.pagesperso-orange.fr,Non labellisé,-1.051052,44.708485
Meublés,3 étoiles,Location Bournaud,Les Marinas de Cassy,avenue de la République,Bâtiment B - Appt n° 31,33138,LANTON,+33 5 56 82 14 16,http://marinette.bournaud.pagesperso-orange.fr,Non labellisé,-1.053991,44.710884
Meublés,2 étoiles,Meublé Gomis,Chai Vendange,Appt n° 2,,33620,LARUSCADE,+33 6 10 47 43 02,,Non labellisé,-0.341585,45.108063
Meublés,2 étoiles,Meublé Pillon,120 avenue du Bassin d'Arcachon,,,33680,LE PORGE,+33 5 56 26 56 12,,Non labellisé,-1.1131314,44.845856
Meublés,1 étoile,Meublé Ponts,62 rue des Pins,,,33470,LE TEICH,+33 5 56 22 81 15,www.leteich-tourisme.com,Non labellisé,-1.0270221,44.625603
Meublés,2 étoiles,Meublé Mallet,34 rue des Castaings,,,33470,LE TEICH,+33 (0)6 72 74 56 19,www.location-leteich.fr,Non labellisé,-1.0281872,44.635483
Meublés,2 étoiles,Meublé Chollet,26 rue du Pont Neuf,,,33470,LE TEICH,+33 5 56 22 69 11,www.leteich-tourisme.com,Non labellisé,-1.016407,44.63788
Meublés,2 étoiles,Villa Cigogne,3 allée des Papillons,,,33470,LE TEICH,+33 9 63 61 19 83,www.locationenaquitaine.com;www.leteich-tourisme.com,Non labellisé,-1.0120296,44.62725
Meublés,2 étoiles,Meublé Maubois,124 ter avenue de Camps,,,33470,LE TEICH,+33 5 56 59 88 02,www.leteich-tourisme.com,Non labellisé,-1.04332,44.622257
Meublés,2 étoiles,Meublé Brillouet,22D avenue de la Gare,,,33470,LE TEICH,+33 5 56 98 42 98,www.leteich-tourisme.com,Non labellisé,-1.024103,44.632076
Meublés,3 étoiles,Meublé Pigeard,3 impasse de la Chênaie,,,33470,LE TEICH,+33 5 57 40 06 15,www.leteich-tourisme.com,Non labellisé,-1.0261922,44.62969
Meublés,3 étoiles,Meublé Château,21, rue de la Chêneraie,,,33470,LE TEICH,+33 6 16 74 30 65,,Non labellisé,-1.0347296,44.634624
Meublés,3 étoiles,Meublé Lartigue,49 bis rue des Plaines,,,33470,LE TEICH,+33 5 56 22 85 35,www.leteich-tourisme.com,Non labellisé,-1.015833,44.63197
Meublés,2 étoiles,Agence Biran,21 rue Ausone,,,33123,LE VERDON-SUR-MER,+33 5 56 09 64 63,,Non labellisé,-1.139187,45.496338
Meublés,2 étoiles,Meublé Duran,52 rue de la Batterie,,,33123,LE VERDON-SUR-MER,+33 5 56 05 03 90,,Non labellisé,-1.062074,45.55117
Meublés,2 étoiles,Meublé Drouet,6 passage Jean Parès,,,33123,LE VERDON-SUR-MER,+33 5 56 63 01 89;+33 5 56 09 62 19,,Non labellisé,-1.064406,45.543743
Meublés,1 étoile,La Maison Bleue,4 rue de la Plage,Cap Ferret,,33970,LEGE-CAP FERRET,+33 5 56 60 68 36;+33 9 65 15 85 73,,Non labellisé,-1.2414979,44.655872
Meublés,1 étoile,Meublé Lepore,2 avenue des Hérons,Claouey,Jane de Boy,33950,LEGE-CAP FERRET,+33 6 01 73 20 77,,Non labellisé,-1.1800428,44.75623
Meublés,1 étoile,Meublé Prevot,11 avenue du Port,Claouey,,33950,LEGE-CAP FERRET,+33 5 56 60 73 14,,Non labellisé,-1.1794722,44.744957
Meublés,1 étoile,Résidence La Caravelle - Appt n° 5,Cap Ferret,41, avenue Est,,33970,LEGE-CAP FERRET,+33 6 87 33 52 15;+33 6 83 17 43 92,,Non labellisé,-1.2473616,44.623085
Meublés,2 étoiles,Location Torres,17 bis allée des Bouvreuils,Cap Ferret,Appt T2,33970,LEGE-CAP FERRET,+33 6 20 14 35 94,,Non labellisé,-1.2457898,44.651585
Meublés,2 étoiles,Location Torres,17 bis allée des Bouvreuils,Cap Ferret,Appt T3,33970,LEGE-CAP FERRET,+33 6 20 14 35 94,,Non labellisé,-1.2521839,44.653877
Meublés,2 étoiles,Meublé Descot,54 chemin de la Carasse,Lège,,33950,LEGE-CAP FERRET,+33 5 56 60 04 26,,Non labellisé,-1.143691,44.794273
Meublés,2 étoiles,Meublé Bareyt,30 bi, chemin du Bourgeon,Lège,,33950,LEGE-CAP FERRET,+33 5 56 60 12 20,,Non labellisé,-1.151795,44.787884
Meublés,2 étoiles,Meublé Lagarde,8 impasse des Platanes,Lège,,33950,LEGE-CAP FERRET,+33 5 56 01 09 59,,Non labellisé,-1.139011,44.796997
Meublés,2 étoiles,Meublé Dignan,2 allée de la Jetée,Cap Ferret,Appt n° 1,33970,LEGE-CAP FERRET,+33 5 56 60 68 36,,Non labellisé,-1.240766,44.656204
Meublés,2 étoiles,Meublé Tauran,Résidence les Canonniers,Le Canon,13 rue de l'Océan,33950,LEGE-CAP FERRET,+33 5 56 60 87 49,,Non labellisé,-1.2296719,44.703148
Meublés,2 étoiles,Meublé Meril,9 ciel route du Moulin,Lège,,33950,LEGE-CAP FERRET,+33 5 56 87 46 82,,Non labellisé,-1.137896,44.79341
Meublés,2 étoiles,Meublé Bideran,86 boulevard de la Plage,Cap Ferret,"Le studio",33970,LEGE-CAP FERRET,+33 6 81 25 93 56,,Non labellisé,-1.2454195,44.647278
Meublés,2 étoiles,Location Chastenet,1 place Max Dubroc,Le Canon,Appt n° 1,33950,LEGE-CAP FERRET,+33 6 17 64 16 83,,Non labellisé,-1.227994,44.702187
Meublés,2 étoiles,Location Chastenet,1 place Max Dubroc,Le Canon,Appt n° 2,33950,LEGE-CAP FERRET,+33 6 17 64 16 83,,Non labellisé,-1.227994,44.702187
Meublés,2 étoiles,Meublé Cassaigne,1 rue des Mouettes,Cap Ferret,,33970,LEGE-CAP FERRET,+33 5 40 12 87 27,,Non labellisé,-1.2466293,44.65151
Meublés,2 étoiles,Résidence la Caravelle - Appt n° 3,41 avenue Est,,,33970,LEGE-CAP FERRET,+33 6 24 31 68 88,,Non labellisé,-1.2457898,44.651585
Meublés,2 étoiles,Résidence Cap Forêt,Appartement 52,23 avenue Edouard Branly,,33950,LEGE-CAP FERRET,+33 6 72 14 25 85,,Non labellisé,-1.1833006,44.751205
Meublés,2 étoiles,Location Gourdon,6 bis rue des Mouettes,Cap Ferret,,33970,LEGE-CAP FERRET,+33 5 56 03 79 32,,Non labellisé,-1.249322,44.651237
Meublés,2 étoiles,Location Gourdon,6 bis rue des Mouettes,Cap Ferret,,33970,LEGE-CAP FERRET,+33 5 56 03 79 32,,Non labellisé,-1.249322,44.651237
Meublés,2 étoiles,Meublé Ragot,3 rue de l'Océan,Le Canon,,33950,LEGE-CAP FERRET,+33 7 86 15 79 49,,Non labellisé,-1.2287039,44.702168
Meublés,2 étoiles,Résidence La Forestière - Appt n° 50,Cap Ferret,Rue des Cormorans,,33970,LEGE-CAP FERRET,+33 5 53 53 46 52,,Non labellisé,-1.247706,44.649445
Meublés,2 étoiles,Résidence les Goëlands - Appt n°9,Cap Ferret,31, rue des Goëlands,,33970,LEGE-CAP FERRET,+33 5 53 53 46 52,,Non labellisé,-1.251368,44.647163
Meublés,2 étoiles,Location Gozalbes,8 allée des Grives,Cap Ferret,,33970,LEGE-CAP FERRET,+33 5 57 92 64 24,,Non labellisé,-1.252083,44.64147
Meublés,2 étoiles,Meublé Vaguener,4 route du Cap Ferret,Grand Piquey,,33950,LEGE-CAP FERRET,+33 5 56 08 01 65,,Non labellisé,-1.225811,44.704803
Meublés,2 étoiles,Meublé Bos,26 avenue Michelet,Claouey,,33950,LEGE-CAP FERRET,+33 6 07 86 17 31,,Non labellisé,-1.17638,44.74776
Meublés,2 étoiles,Résidence Cap Forêt - Appartement 71,Avenue Edouard Branly,Claouey,,33950,LEGE-CAP FERRET,+33 6 07 86 17 31,,Non labellisé,-1.1841201,44.750755
Meublés,2 étoiles,Résidence les Pinasses - Lot n° 2,Petit Piquey,7, impasse de la Source,,33950,LEGE-CAP FERRET,+33 5 24 60 84 03;+33 9 61 31 06 84,,Non labellisé,-1.200541,44.724464
Meublés,2 étoiles,Meublé Archambault,2 bis rue des Cormorans,Cap Ferret,,33970,LEGE-CAP FERRET,+33 5 56 60 66 78,,Non labellisé,-1.247706,44.649445
Meublés,2 étoiles,Meublé Matignon,Lotissement Le Barrail,Lège,6, avenue Magellan,33950,LEGE-CAP FERRET,+33 5 56 05 11 14,,Non labellisé,-1.156515,44.792805
Meublés,2 étoiles,Meublé Laugenie,28 avenue du Monument Saliens,Cap Ferret,1er étage,33970,LEGE-CAP FERRET,+33 5 56 87 01 06,,Non labellisé,-1.245767,44.652752
Meublés,2 étoiles,Résidence de la Plage,Cap-Ferret,3, rue des Rossignols - Appt n° 6,,33970,LEGE-CAP FERRET,+33 6 59 35 03 27,,Non labellisé,-1.2457898,44.651585
Meublés,2 étoiles,Résidence la Forestière - Appt n° 21,Cap Ferret,Rue des Cormorans,,33970,LEGE-CAP FERRET,+33 5 56 47 99 34,,Non labellisé,-1.246058,44.648815
Meublés,3 étoiles,La Villa des Hérons,16 raquette des Hérons,Cap Ferret,Appt T2 RDC,33970,LEGE-CAP FERRET,+33 5 56 60 50 26,www.villacaroline.com,Non labellisé,-1.2457898,44.651585
Meublés,3 étoiles,La Villa des Hérons,16 raquette des Hérons,Cap Ferret,,33970,LEGE-CAP FERRET,+33 5 56 60 50 26,www.villacaroline.com,Non labellisé,-1.2457898,44.651585
Meublés,3 étoiles,Meublé Buret,24 avenue du Bassin,Piraillan,,33950,LEGE-CAP FERRET,+33 5 56 03 21 06,,Non labellisé,-1.2225092,44.707394
Meublés,3 étoiles,Meublé Saubadu,18 bis avenue du Sémaphore,Cap Ferret,,33970,LEGE-CAP FERRET,+33 5 40 71 48 65,,Non labellisé,-1.248926,44.629375
Meublés,3 étoiles,Meublé Bedin,50 avenue du Général de Gaulle,Claouey,,33950,LEGE-CAP FERRET,+33 5 56 60 30 64,,Non labellisé,-1.1838626,44.7407
Meublés,3 étoiles,Meublé Denechaud,12 allée des Sauges,Grand-Piquey,,33950,LEGE-CAP FERRET,+33 5 57 68 53 54,,Non labellisé,-1.2177441,44.713715
Meublés,3 étoiles,La maison de la Plage,Lotissement les Tourterelles,L'Herbe,19 avenue du Pied Tendre,33950,LEGE-CAP FERRET,+33 5 56 90 05 05,maison-de-la-plage.blogspot.com/,Non labellisé,-1.240092,44.68399
Meublés,3 étoiles,Meublé Larrea,53 avenue de l'Océan,Le Canon,,33950,LEGE-CAP FERRET,+33 6 23 11 18 94;+33 6 13 43 68 50,,Non labellisé,-1.2351528,44.705383
Meublés,3 étoiles,Meublé Archambault,2 bis rue des Cormorans,Cap Ferret,,33970,LEGE-CAP FERRET,+33 5 56 60 66 78,,Non labellisé,-1.247706,44.649445
Meublés,3 étoiles,Meublé Grall,15 rue de l'Océan,Le Canon,,33950,LEGE-CAP FERRET,+33 5 56 87 28 40,,Non labellisé,-1.2297207,44.70323
Meublés,3 étoiles,Meublé Martin,29 avenue des Régates,Lège,,33950,LEGE-CAP FERRET,+33 6 83 17 43 92,,Non labellisé,-1.1586284,44.795055
Meublés,3 étoiles,Location Ducourneau,39 avenue de la Musicienne,Petit-Piquey,,33950,LEGE-CAP FERRET,+33 5 56 78 25 89,,Non labellisé,-1.2109497,44.722134
Meublés,4 étoiles,Meublé Benmergui,65 avenue de l'Océan,Cap Ferret,,33970,LEGE-CAP FERRET,+33 1 77 20 12 86,,Non labellisé,-1.246025,44.655914
Meublés,2 étoiles,Gîte Bert et Blu,5 la Porte,,,33190,LES ESSEINTES,+33 5 56 71 41 79,,Non labellisé,-0.0320136,44.58469
Meublés,2 étoiles,Domaine Jean Got,La Tour,,,33420,LUGAIGNAC,+33 5 57 74 57 56,www.jean-got.fr,Non labellisé,-0.1946498,44.817448
Meublés,2 étoiles,Domaine Jean Got,Le Moulin,,,33420,LUGAIGNAC,+33 5 57 74 57 56,www.jean-got.fr,Non labellisé,-0.1946498,44.817448
Meublés,2 étoiles,Gîte L'Atelier d'Artistes,5 La Bergerie,Les Ferchauds,,33220,MARGUERON,+33 5 57 41 39 18,http://www.gitelatelierdartistes.com,Non labellisé,0.2644029,44.764137
Meublés,3 étoiles,Meublé Klein,3 Guillebeaux,,,33220,MARGUERON,+33 5 57 41 25 04,,Non labellisé,0.210936,44.81743
Meublés,3 étoiles,Gîte de la Bernarde,La Bernarde,,,33620,MARSAS,,,Non labellisé,-0.3834418,45.067665
Meublés,2 étoiles,La Maison Douard,n° 2, le Douard,,,33540,MAURIAC,+33 5 56 71 89 93,,Non labellisé,-0.0317649,44.756195
Meublés,2 étoiles,Les locations du Lac,49 route de Curchade,,,33380,MIOS,+33 5 56 26 66 64,www.leslocationsdulac.com,Non labellisé,-0.930959,44.575127
Meublés,2 étoiles,Location Argano,Font Bernard,,,33570,MONTAGNE,+33 6 86 80 57 69,,Non labellisé,-0.083434,44.95231
Meublés,2 étoiles,Indivision Chovin,3 Huneau,,,33190,MORIZES,+33 5 56 71 44 27,,Non labellisé,-0.11,44.6074
Meublés,2 étoiles,Gîte de Naulet,Naulet,,,33410,MOURENS,+33 5 56 61 96 26,www.gite-naulet.com,Non labellisé,-0.241005,44.660606
Meublés,2 étoiles,Location Petit,28 rue de l'Eglise,,,33500,NEAC,+33 5 57 25 11 29,,Non labellisé,-0.1893424,44.937523
Meublés,4 étoiles,Location Petit,24 rue de l'Eglise,,,33500,NEAC,+33 5 57 25 11 29,,Non labellisé,-0.1999866,44.931004
Meublés,2 étoiles,Les Althéas,La Boix du Sud,,,33790,PELLEGRUE,+33 5 56 71 06 48,www.gitedelaboixsud.com,Non labellisé,0.103911,44.717068
Meublés,2 étoiles,Les Lilas,La Boix du Sud,,,33790,PELLEGRUE,+33 5 56 71 06 48,www.gitedelaboixsud.com,Non labellisé,0.103911,44.717068
Meublés,1 étoile,Château de Vacques,6 Vacques,,,33220,PINEUILH,+33 5 57 46 15 01,,Non labellisé,0.210936,44.81743
Meublés,2 étoiles,Meublé Neyrac,3 rue des Cabeauzes,,,33220,PINEUILH,+33 6 32 22 30 63,,Non labellisé,0.2054164,44.82199
Meublés,2 étoiles,Meublé Beal,26 rue de Chopine,,,33390,PLASSAC,+33 5 57 42 12 76,,Non labellisé,-0.641692,45.10497
Meublés,2 étoiles,Meublé Herranz,13 rue des Anciennes Tuilières,,,33720,PODENSAC,+33 5 56 27 03 21,,Non labellisé,-0.3650735,44.660023
Meublés,2 étoiles,Elevage de la Treille,La Treille,,,33660,PORCHERES,+33 5 57 49 63 78,www.elevagedelatreille.com,Non labellisé,-0.0006866,45.036655
Meublés,4 étoiles,Meublé Eschapasse,4 Hameau de Bayens,,,33570,PUISSEGUIN,+33 5 57 74 68 62,,Non labellisé,-0.083434,44.95231
Meublés,2 étoiles,Location Lorblanchet,59 boulevard Louis Lignon,,,33115,PYLA-SUR-MER,+33 5 56 54 04 32,,Non labellisé,-1.193875,44.632347
Meublés,3 étoiles,Résidence du Soleil,9, avenue Saint-Thomas d'Aquin,Appartement n° 3,,33115,PYLA-SUR-MER,+33 5 53 90 75 51,,Non labellisé,-1.197309,44.6386
Meublés,2 étoiles,Domaine de Rameyre,,,,33350,RUCH,+33 5 57 40 50 17,,Non labellisé,-0.026413,44.770107
Meublés,2 étoiles,Location Riviere,Lieu dit Vincent,,,33126,SAINT-AIGNAN,+33 6 30 89 72 57,http://gitedefronsac.free.fr,Non labellisé,-0.287524,44.945583
Meublés,2 étoiles,Château l'Insoumise,360, chemin de Peyrot,,,33240,SAINT-ANDRE-DE-CUBZAC,+33 5 57 43 17 82,www.chateaulinsoumise.com,Non labellisé,-0.465331,45.0011
Meublés,2 étoiles,Villa Bon Temps,36/38 rue Dantagnan,Appt Etage,,33240,SAINT-ANDRE-DE-CUBZAC,+33 6 81 45 99 46;+33 6 32 67 40 22,www.villabontemps.jimdo.com,Non labellisé,-0.4446136,44.994625
Meublés,2 étoiles,Villa Bon Temps,36/38 rue Dantagnan,Appt RDC,,33240,SAINT-ANDRE-DE-CUBZAC,+33 6 81 45 99 46;+33 6 32 67 40 22,www.villabontemps.jimdo.com,Non labellisé,-0.4446136,44.994625
Meublés,3 étoiles,Meublé Berniard,Côteau de Montalon,3, rue des Moulins,,33240,SAINT-ANDRE-DE-CUBZAC,+33 5 57 43 99 44,,Non labellisé,-0.4521077,44.99716
Meublés,3 étoiles,Location Lado,700 chemin de Fontdeville,Gastineau,,33240,SAINT-ANDRE-DE-CUBZAC,+33 5 57 58 29 60,www.homelado.com,Non labellisé,-0.409449,44.97466
Meublés,3 étoiles,Château Perayne,Lieu-dit Perayne,,,33490,SAINT-ANDRE-DU-BOIS,+33 5 57 98 16 20,wwww.airbnb.com,Non labellisé,-0.1752314,44.609173
Meublés,2 étoiles,Meublé Paille,3, le Maine de la Riade,Appt A,,33390,SAINT-ANDRONY,+33 6 72 99 62 58,,Non labellisé,-0.6376496,45.182377
Meublés,3 étoiles,Location Andrews,1, Les Caillards,,,33390,SAINT-ANDRONY,+33 5 57 64 46 21,www.andrewsinfrance.co.uk,Non labellisé,-0.635146,45.18955
