TYPE,CATEGORIE,RAISON_SOCIALE,ADRESSE,ADRESSE_SUITE_1,ADRESSE_SUITE_2,CODE_POSTAL,COMMUNE,TEL__INFORMATIONS,SITE_WEB,LABEL,CLASSEMENT_LABEL,THEMES_LABEL,TOURISME_ET_HANDICAP,LONGITUDE,LATITUDE
Meublés,Non classé,Gîte Les Chênes,Maharans,Les Chênes,,33840,CAPTIEUX,+33 5 56 81 54 23,www.gites33.fr,Gîtes de France,3 épis (Gîtes de France),Gîtes Nature;Gîte écocitoyen;Gîtes Bébé,,-0.214869,44.28886
Meublés,Non classé,Gîte Les Fougères,Maharans,Les Fougères,,33840,CAPTIEUX,+33 5 56 81 54 23,www.gites33.fr,Gîtes de France,3 épis (Gîtes de France),Gîtes Nature;Gîte écocitoyen;Gîtes Bébé,,-0.214869,44.28886
Meublés,Non classé,Gîte Les Pins,Maharans,Les Pins,,33840,CAPTIEUX,+33 5 56 81 54 23,www.gites33.fr,Gîtes de France,3 épis (Gîtes de France),Gîtes Nature;Gîte écocitoyen;Gîtes Bébé,,-0.214869,44.28886
Meublés,Non classé,Gîte Les Roches Blanches,19 rue Jean Jaurès,,,33560,CARBON-BLANC,+33 5 56 81 54 23,www.gites33.fr,Gîtes de France,2 épis (Gîtes de France),,,-0.5010256,44.898827
Meublés,Non classé,Les Coquelicots,18 rue Frédéric Chopin,,,33560,CARBON-BLANC,+33 6 74 50 50 16,http://gite-rural-bordeaux.com,Gîtes de France,2 épis (Gîtes de France),Gîtes Bébé,,-0.513803,44.88979
Meublés,3 étoiles,Gîte de Carcans n°1196,20 route de la Crastille,,,33121,CARCANS,+33 5 56 81 54 23,www.gites33.fr,Gîtes de France,3 épis (Gîtes de France),Gîtes Bébé,,-0.9972538,45.07882
Meublés,Non classé,Gîte de Carcans n°1036,Couyras,,,33121,CARCANS,+33 5 56 81 54 23,www.gites33.fr,Gîtes de France,2 épis (Gîtes de France),Gîtes Bébé,,-1.000063,45.104183
Meublés,Non classé,Gîte de Carcans n°1138,59 route du Lac,,,33121,CARCANS,+33 5 56 81 54 23,www.gites33.fr,Gîtes de France,2 épis (Gîtes de France),Gîtes Bébé,,-1.051402,45.077545
Meublés,Non classé,Gîte à La Conteau,3 route du Lion d'Or,,,33390,CARTELEGUE,+33 5 56 81 54 23,www.gites33.fr,Gîtes de France,3 épis (Gîtes de France),Gîtes Bébé,,-0.5769642,45.19124
Meublés,Non classé,Gîte de Perrin,4 impasse Perrin,,,33390,CARTELEGUE,+33 5 56 81 54 23,www.gites33.fr,Gîtes de France,3 épis (Gîtes de France),Bienvenue aux motards;Gîtes Bébé,,-0.583624,45.170235
Meublés,Non classé,Gîte n°4182,19 La Croix,,,33390,CARTELEGUE,+33 5 56 81 54 23,www.gites33.fr,Gîtes de France,2 épis (Gîtes de France),Gîtes Bébé,,-0.585754,45.186165
Meublés,Non classé,Gîte n°4290,4 bis impasse de Perrin,,,33390,CARTELEGUE,+33 5 56 81 54 23,www.gites33.fr,Gîtes de France,3 épis (Gîtes de France),Bienvenue aux motards;Gîtes Bébé,,-0.583624,45.170235
Meublés,Non classé,Gîte n°3013,Le Bourg,,,33540,CASTELVIEL,+33 5 56 81 54 23,www.gites33.fr,Gîtes de France,2 épis (Gîtes de France),,,-0.16,44.67
Meublés,Non classé,Meublé communal,,,,33350,CASTILLON-LA-BATAILLE,+33 5 57 40 00 06,,Gîtes de France,1 épi (Gîtes de France),Gîtes Bébé,,-0.043008,44.852066
Meublés,Non classé,Meublé communal,,,,33350,CASTILLON-LA-BATAILLE,+33 5 57 40 00 06,,Gîtes de France,1 épi (Gîtes de France),Gîtes Bébé,,-0.043008,44.852066
Meublés,Non classé,Meublé communal,,,,33350,CASTILLON-LA-BATAILLE,+33 5 57 40 00 06,,Gîtes de France,1 épi (Gîtes de France),Gîtes Bébé,,-0.043008,44.852066
Meublés,Non classé,Meublé communal,,,,33350,CASTILLON-LA-BATAILLE,+33 5 57 40 00 06,,Gîtes de France,1 épi (Gîtes de France),Gîtes Bébé,,-0.043008,44.852066
Meublés,Non classé,Meublé communal,,,,33350,CASTILLON-LA-BATAILLE,+33 5 57 40 00 06,,Gîtes de France,1 épi (Gîtes de France),Gîtes Bébé,,-0.043008,44.852066
Meublés,Non classé,Meublé communal,,,,33350,CASTILLON-LA-BATAILLE,+33 5 57 40 00 06,,Gîtes de France,1 épi (Gîtes de France),Gîtes Bébé,,-0.043008,44.852066
Meublés,Non classé,Meublé communal,,,,33350,CASTILLON-LA-BATAILLE,+33 5 57 40 00 06,,Gîtes de France,1 épi (Gîtes de France),Gîtes Bébé,,-0.043008,44.852066
Meublés,Non classé,Meublé communal,,,,33350,CASTILLON-LA-BATAILLE,+33 5 57 40 00 06,,Gîtes de France,1 épi (Gîtes de France),Gîtes Bébé,,-0.043008,44.852066
Meublés,Non classé,Meublé communal,,,,33350,CASTILLON-LA-BATAILLE,+33 5 57 40 00 06,,Gîtes de France,1 épi (Gîtes de France),Gîtes Bébé,,-0.043008,44.852066
Meublés,Non classé,Meublé communal,,,,33350,CASTILLON-LA-BATAILLE,+33 5 57 40 00 06,,Gîtes de France,1 épi (Gîtes de France),Gîtes Bébé,,-0.043008,44.852066
Meublés,Non classé,Logis de la Périchère,,,,33640,CASTRES-GIRONDE,+33 5 56 81 54 23,www.gites33.fr,Gîtes de France,3 épis (Gîtes de France),Gîtes de France vignoble,,-0.438963,44.69555
Meublés,Non classé,Gîte de Caumont,Robineau,,,33540,CAUMONT,+33 5 56 81 54 23,www.gites33.fr,Gîtes de France,4 épis (Gîtes de France),Charme Gîtes de France;Gîtes Bébé,,0.005982,44.69813
Meublés,Non classé,Gîte La Grange,Chon,,,33113,CAZALIS,+33 5 56 81 54 23,www.gites-de-france-gironde.com/gite-location-cazalis-2-epis-sud-gironde-chan-seng-2121.html,Gîtes de France,2 épis (Gîtes de France),Gîtes et Vélo,,-0.4136086,44.361084
Meublés,Non classé,Gîte de Parpaioun,lieu-dit Panon,,,33430,CAZATS,+33 5 56 81 54 23,www.gites33.fr,Gîtes de France,2 épis (Gîtes de France),Gîtes Bébé;Gîtes et Cheval,,-0.1942782,44.47766
Meublés,2 étoiles,Gîte de l'Acoba,Toctoucau,,,33610,CESTAS,+33 5 56 81 54 23,www.gites33.fr,Gîtes de France,2 épis (Gîtes de France),Gîtes Bébé,,-0.740827,44.750137
Meublés,Non classé,Gîte de Monsalut,Domaine de Monsalut,,,33610,CESTAS,+33 5 56 81 54 23,www.gites33.fr,Gîtes de France,3 épis (Gîtes de France),Charme Gîtes de France;Gîtes Bébé,,-0.697181,44.76228
Meublés,Non classé,Gîte de Cézac n°4255,16 Briand,,,33620,CEZAC,+33 5 56 81 54 23,www.gites33.fr,Gîtes de France,3 épis (Gîtes de France),Gîtes Bébé,,-0.425361,45.095215
Meublés,Non classé,Gîte de Cézac n°4270,16 ter Brian,,,33620,CEZAC,+33 5 56 81 54 23,www.gites33.fr,Gîtes de France,2 épis (Gîtes de France),Gîtes Bébé,,-0.615494,45.161957
Meublés,Non classé,Domaine des Faures,,,,33920,CIVRAC-DE-BLAYE,+33 5 57 58 00 24,www.domaine-des-faures.fr,Gîtes de France,3 épis (Gîtes de France),Hébergement à la ferme;Gîtes Bébé;Gîtes et Vélo,,-0.4794,45.148445
Meublés,Non classé,Gîte de Fenouil,2 Le Fenouil,,,33920,CIVRAC-DE-BLAYE,+33 5 56 81 54 23,www.gites33.fr,Gîtes de France,3 épis (Gîtes de France),,,-0.4335479,45.10597
Meublés,Non classé,Gîte la Grange de Mercier,Mercier Nord,,,33920,CIVRAC-DE-BLAYE,+33 5 57 58 00 24,www.domaine-des-faures.fr,Gîtes de France,4 épis (Gîtes de France),Hébergement à la ferme;Charme Gîtes de France;Gîtes Bébé,,-0.4794,45.148445
Meublés,Non classé,Gîte La Maison de Mercier,Mercier Nord,,,33920,CIVRAC-DE-BLAYE,+33 5 57 58 00 24,www.domaine-des-faures.fr,Gîtes de France,4 épis (Gîtes de France),Hébergement à la ferme;Charme Gîtes de France;Gîtes et Vélo,,-0.4794,45.148445
Meublés,Non classé,Le petit gîte du Fenouil,2 Le Fenouil,,,33920,CIVRAC-DE-BLAYE,+33 5 56 81 54 23,www.gites33.fr,Gîtes de France,3 épis (Gîtes de France),,,-0.4335479,45.10597
Meublés,3 étoiles,Gîte de Civrac-en-Médoc n°80,8 chemin de la Cure,,,33340,CIVRAC-EN-MEDOC,+33 5 56 81 54 23,www.gites33.fr,Gîtes de France,3 épis (Gîtes de France),,,-0.898956,45.337822
Meublés,Non classé,Gîte de Civrac-en-Médoc n°1035,Le Sablona,,,33340,CIVRAC-EN-MEDOC,+33 5 56 81 54 23,www.gites33.fr,Gîtes de France,3 épis (Gîtes de France),Gîtes Bébé;Gîtes et Vélo,,-0.928827,45.352615
Meublés,Non classé,Gîte de Civrac-en-Médoc n°70,La Cure,,,33340,CIVRAC-EN-MEDOC,+33 5 56 81 54 23,www.gites33.fr,Gîtes de France,2 épis (Gîtes de France),,,-0.89825,45.33877
Meublés,Non classé,Gîte de Civrac-en-Médoc n°71,La Cure,,,33340,CIVRAC-EN-MEDOC,+33 5 56 81 54 23,www.gites33.fr,Gîtes de France,2 épis (Gîtes de France),Gîtes Bébé,,-0.912964,45.30664
Meublés,Non classé,Gîte de Goury,Le Sablona,Goury,,33340,CIVRAC-EN-MEDOC,+33 5 56 81 54 23,www.gites33.fr,Gîtes de France,3 épis (Gîtes de France),Gîtes Bébé,,-0.928827,45.352615
Meublés,Non classé,Gîte de la Grande Métairie,4, Domaine de la Grande Métairie,,,33230,COUTRAS,+33 5 57 49 13 00,,Gîtes de France,2 épis (Gîtes de France),Hébergement à la ferme,,-0.130282,45.041046
Meublés,Non classé,Gîte Les Marronniers,8 bis La Gilletterie,,,33230,COUTRAS,+33 5 56 81 54 23,www.gites33.fr,Gîtes de France,2 épis (Gîtes de France),Gîtes Bébé,,-0.1244776,45.055183
Meublés,Non classé,Gîte de Bellevue,42 rue de la Gare,,,33240,CUBZAC-LES-PONTS,+33 5 56 81 54 23,www.gites33.fr,Gîtes de France,3 épis (Gîtes de France),Gîtes Bébé,,-0.4610014,44.972244
Meublés,Non classé,Gîte du Château Micalet,Château Micalet,,,33460,CUSSAC-FORT-MEDOC,+33 5 56 81 54 23,www.gites33.fr,Gîtes de France,2 épis (Gîtes de France),Gîtes de France vignoble;Gîte écocitoyen,,-0.73,45.12
Meublés,Non classé,Gîte de Daignac,,,,33420,DAIGNAC,+33 5 56 81 54 23,www.gites33.fr,Gîtes de France,3 épis (Gîtes de France),Gîtes de France vignoble;Gîtes Bébé,,-0.203915,44.82699
Meublés,Non classé,Gîte n°4024,Le Pas de l'Espic,,,33860,DONNEZAC,+33 5 56 81 54 23,www.gites33.fr,Gîtes de France,3 épis (Gîtes de France),Gîtes Bébé;Gîtes et Cheval,,-0.44,45.25
Meublés,Non classé,Gîte Tournesol,Lieu-dit Ferron,,,33860,DONNEZAC,+33 5 56 81 54 23,www.gites33.fr,Gîtes de France,2 épis (Gîtes de France),Gîtes Bébé,,-0.4484432,45.241905
Meublés,Non classé,L'Orée des Bois,21 Arsonneau,,,33860,DONNEZAC,+33 5 56 81 54 23,www.gites33.fr,Gîtes de France,2 épis (Gîtes de France),Gîtes Bébé,,-0.460542,45.25137
Meublés,3 étoiles,Gîte Les deux Salamandres,Gambade,,,33410,DONZAC,+33 5 56 81 54 23,www.gites33.fr,Gîtes de France,2 épis (Gîtes de France),Gîte écocitoyen;Gîtes Bébé,,-0.2705673,44.65436
Meublés,Non classé,Gîte au Domaine de Diodet,Diodet,,,33350,DOULEZON,+33 5 56 81 54 23,www.gites33.fr,Gîtes de France,3 épis (Gîtes de France),Gîtes Bébé,,-0.0169348,44.792355
Meublés,Non classé,Gîte au Grand Chai de Diodet,Diodet 2,,,33350,DOULEZON,+33 5 56 81 54 23,www.gites33.fr,Gîtes de France,3 épis (Gîtes de France),Gîtes Bébé,,-0.0169348,44.792355
Meublés,Non classé,Gîte du Grand Pas,1, le Bourg,,,33350,DOULEZON,+33 5 56 81 54 23,www.gites33.fr,Gîtes de France,2 épis (Gîtes de France),Gîtes Bébé,,-0.004808,44.792065
Meublés,Non classé,Gîte Chamoulaud,Barbeau,,,33390,EYRANS,+33 5 57 64 60 58,,Gîtes de France,1 épi (Gîtes de France),Gîtes Bébé,,-0.617113,45.192127
Meublés,Non classé,Gîte de Tilot,6 route de Saint-Germain,,,33760,FALEYRAS,+33 5 56 81 54 23,www.gites33.fr,Gîtes de France,3 épis (Gîtes de France),Gîtes Bébé;Taste vin,,-0.2266717,44.771687
Meublés,3 étoiles,Gîte La Galoche,27 bis avenue Gaston Cabannes,,,33270,FLOIRAC,+33 5 56 81 54 23,www.gites33.fr;www.lagaloche-bordeaux-floirac.fr,Gîtes de France,2 épis (Gîtes de France),Gîtes Bébé,,-0.525526,44.829506
Meublés,Non classé,Au Couchant,le Bourg,,,33190,FOSSES-ET-BALEYSSAC,+33 5 56 81 54 23,www.gites33.fr,Gîtes de France,3 épis (Gîtes de France),,,0.060672,44.59119
Meublés,Non classé,Gîte de Fours,Le Chay,,,33390,FOURS,+33 5 56 81 54 23,www.gites33.fr,Gîtes de France,3 épis (Gîtes de France),Gîtes Bébé;Gîtes et Vélo,,-0.63244,45.167767
Meublés,Non classé,Le Chay,,,,33390,FOURS,+33 5 57 32 94 43,www.chateau-haur-du-chay.com,Gîtes de France,2 épis (Gîtes de France),,,-0.6324397,45.167767
Meublés,Non classé,Gîte n°4208,Château Coustolle,Merlot,,33126,FRONSAC,+33 5 56 81 54 23,www.gites33.fr,Gîtes de France,2 épis (Gîtes de France),Gîtes Bébé,,-0.278922,44.94054
Meublés,Non classé,Gîte n°4212,Château Coustolle,Pressac,,33126,FRONSAC,+33 5 56 81 54 23,www.gites33.fr,Gîtes de France,2 épis (Gîtes de France),Gîtes Bébé,,-0.278922,44.94054
Meublés,Non classé,Gîte Les Rhododendrons,Les Rhododendrons,,,33340,GAILLAN-EN-MEDOC,+33 5 56 81 54 23,www.gites33.fr,Gîtes de France,3 épis (Gîtes de France),Gîtes Bébé,,-0.94,45.32
Meublés,Non classé,Gîte Petit ,Girard,,,33133,GALGON,+33 5 57 84 37 13,,Gîtes de France,1 épi (Gîtes de France),,,-0.251368,44.98126
Meublés,Non classé,Gîte La Maison des Vignes,Bujan,,,33710,GAURIAC,+33 5 56 81 54 23,www.gites33.fr,Gîtes de France,5 épis (Gîtes de France),Gîtes de France vignoble;Charme Gîtes de France;Gîtes Bébé,,-0.602418,45.075874
Meublés,Non classé,Gîte n°4146,Le Rigalet,,,33710,GAURIAC,+33 5 56 81 54 23,www.gites33.fr,Gîtes de France,2 épis (Gîtes de France),Gîtes et Vélo,,-0.620276,45.06019
Meublés,Non classé,Gîte Blanc ,Le Flouret,,,33710,GAURIAC,+33 5 57 64 80 77,,Gîtes de France,2 épis (Gîtes de France),,,-0.62,45.07
Meublés,2 étoiles,Gîte de Grayan-et-l'Hôpital,21 route du Port de Saint-Vivien,,,33590,GRAYAN-ET-L'HOPITAL,+33 5 56 81 54 23,www.gites33.fr,Gîtes de France,2 épis (Gîtes de France),,,-1.063227,45.442036
Meublés,Non classé,Gîte Cluzeau ,58 route de Saint-Vivien,,,33590,GRAYAN-ET-L'HOPITAL,+33 5 53 82 01 43,,Gîtes de France,2 épis (Gîtes de France),Gîtes Bébé,,-1.075336,45.443493
Meublés,Non classé,Gîte des Coccinelles,La Hume,,,33470,GUJAN-MESTRAS,+33 5 56 66 34 76,,Gîtes de France,3 épis (Gîtes de France),Gîtes Bébé,,-1.116002,44.639896
Meublés,Non classé,La Pinassotte,22 allée de la Forêt,,,33470,GUJAN-MESTRAS,+33 6 87 24 10 79,www.lapinassotte.sitew.com,Gîtes de France,2 épis (Gîtes de France),Gîtes Bébé;Gîtes et Vélo,,-1.0611535,44.6356
Meublés,Non classé,Gîte d'Hostens,2 quartier Rétis,,,33125,HOSTENS,+33 5 56 81 54 23,www.gites33.fr,Gîtes de France,3 épis (Gîtes de France),Gîtes Bébé,,-0.717245,44.47542
Meublés,Non classé,Gîte l'Airial,1 Le Frayot,,,33125,HOSTENS,+33 5 56 81 54 23,www.gites33.fr,Gîtes de France,3 épis (Gîtes de France),Gîtes Bébé;Gîtes forestiers,,-0.7073653,44.50931
Meublés,Non classé,Gîte de Mauricet,631 rue de Mauricet,,,33990,HOURTIN,+33 6 81 73 47 85,,Gîtes de France,3 épis (Gîtes de France),Gîtes de pêche;Gîtes et Vélo;Gîtes Bébé,,-1.091144,45.200478
Meublés,Non classé,La Fournière,60 Barrouil Ouest,,,33720,ILLATS,+33 5 56 81 54 23,www.gites33.fr,Gîtes de France,2 épis (Gîtes de France),Gîtes Bébé;Gîtes et Vélo,Handicap auditif;Handicap mental;Handicap moteur;Handicap visuel,-0.3732465,44.620316
Meublés,Non classé,Gîte Delpit,5 impasse Delpit,,,33450,IZON,+33 5 56 81 54 23,www.gites33.fr,Gîtes de France,2 épis (Gîtes de France),Gîtes Bébé,,-0.3647994,44.927353
Meublés,Non classé,Gîte n°4177,Pierre Blanche,96 avenue du Général de Gaulle,,33450,IZON,+33 5 56 81 54 23,www.gites33.fr,Gîtes de France,2 épis (Gîtes de France),Taste vin;Gîtes Bébé,,-0.359277,44.922173
Meublés,Non classé,Gîte n°4178,Maucaillou,96 avenue du Général de Gaulle,,33450,IZON,+33 5 56 81 54 23,www.gites33.fr,Gîtes de France,2 épis (Gîtes de France),Taste vin,,-0.392759,44.911278
Meublés,Non classé,L'Aubarède,73 avenue des Prades,,,33450,IZON,+33 5 56 81 54 23,www.gites33.fr,Gîtes de France,2 épis (Gîtes de France),Gîtes et Vélo,,-0.3247,44.923103
Meublés,Non classé,Le Mascaret,73 avenue des Prades,,,33450,IZON,+33 5 56 81 54 23,www.gites33.fr,Gîtes de France,3 épis (Gîtes de France),Gîtes et Vélo,,-0.3247,44.923103
Meublés,Non classé,Gîte du Perey,chemin du Perey,,,33590,JAU-DIGNAC-ET-LOIRAC,+33 5 56 09 42 63,,Gîtes de France,2 épis (Gîtes de France),Hébergement à la ferme;Gîtes Bébé,,-0.948412,45.41508
Meublés,Non classé,Le Gîte de Goulée,Port de Goulée,,,33590,JAU-DIGNAC-ET-LOIRAC,+33 5 56 81 54 23,www.gites33.fr,Gîtes de France,3 épis (Gîtes de France),Gîtes Bébé,,-0.911749,45.40603
Meublés,Non classé,Le Perey,chemin du Perey,,,33590,JAU-DIGNAC-ET-LOIRAC,+33 5 56 09 42 63,,Gîtes de France,2 épis (Gîtes de France),Hébergement à la ferme;Gîtes Bébé,,-0.948956,45.415268
Meublés,Non classé,Gîte n°4152,350 chemin de Faugère,,,33240,LA LANDE-DE-FRONSAC,+33 5 56 81 54 23,www.gites33.fr,Gîtes de France,2 épis (Gîtes de France),Gîtes Bébé;Bienvenue aux motards;Gîtes et Vélo,,-0.391326,44.98111
Meublés,Non classé,La Seurinière,975 chemin de Guillebeau,,,33240,LA LANDE-DE-FRONSAC,+33 5 56 81 54 23,www.gites33.fr,Gîtes de France,3 épis (Gîtes de France),Gîtes Bébé,,-0.3716922,44.99632
Meublés,Non classé,Château Le Luc Régula,Au Luc,,,33190,LA REOLE,+33 6 68 22 38 60;+33 5 56 81 54 23,www.location-chateau-bordeaux.com;www.rent-castle-bordeaux.com;www.gites-de-france-gironde.com,Gîtes de France,4 épis (Gîtes de France),,,-0.013105,44.577606
Meublés,Non classé,Gîte n°4226,Les Joubins,,,33220,LA ROQUILLE,+33 5 56 81 54 23,www.gites33.fr,Gîtes de France,3 épis (Gîtes de France),Gîtes Bébé;Gîtes de France vignoble,,0.217581,44.786526
Meublés,3 étoiles,Gîte Octavie,26 rue du Captalat,,,33260,LA TESTE-DE-BUCH,+33 5 56 81 54 23,www.gites33.fr,Gîtes de France,3 épis (Gîtes de France),Charme Gîtes de France;Gîtes Bébé;Gîtes et Vélo,,-1.1427112,44.631996
Meublés,Non classé,Les Myosotis,14 allée des Myosotis,Cazaux,,33260,LA TESTE-DE-BUCH,+33 5 56 81 54 23,www.gites33.fr,Gîtes de France,3 épis (Gîtes de France),Gîtes Bébé;Gîtes et Vélo,,-1.1553071,44.54398
Meublés,Non classé,Le Chalet de Siran,19 route du Port de Labastide,,,33460,LABARDE,+33 5 56 81 54 23,www.gites33.fr,Gîtes de France,3 épis (Gîtes de France),,,-0.6274554,45.021236
Meublés,Non classé,La Cabane du Forestier,Méogas,,,33680,LACANAU,+33 5 56 81 54 23,www.gites33.fr,Gîtes de France,4 épis (Gîtes de France),,,-1.016507,45.00452
Meublés,Non classé,Gîte du Moulin de Thomas,2 Moulin de Thomas,,,33230,LAGORCE,+33 5 57 69 14 50,,Gîtes de France,2 épis (Gîtes de France),,,-0.125222,45.04418
Meublés,Non classé,Gîte n°4179,27 Ardouin,,,33230,LAGORCE,+33 5 56 81 54 23,www.gites33.fr,Gîtes de France,2 épis (Gîtes de France),Gîtes Bébé,,-0.12,45.07
Meublés,Non classé,Haras de la Tour,3 Les Murailles,,,33190,LAMOTHE-LANDERRON,+33 5 56 71 63 26,www.harastour.com,Gîtes de France,3 épis (Gîtes de France),,,0.077239,44.578743
Meublés,Non classé,Gîte de Langoiran,Château La Peyruche,,,33550,LANGOIRAN,+33 5 56 81 54 23,www.gites33.fr,Gîtes de France,2 épis (Gîtes de France),Gîtes Bébé,,-0.383363,44.717213
Meublés,Non classé,Gîte de Lanton,15 route de l'Eglise,,,33138,LANTON,+33 5 56 81 54 23,www.gites33.fr,Gîtes de France,3 épis (Gîtes de France),,,-1.033983,44.700085
Meublés,Non classé,Gîte n°4234,4 Brois Ouest,,,33620,LAPOUYADE,+33 5 56 81 54 23,www.gites33.fr,Gîtes de France,2 épis (Gîtes de France),,,-0.361745,45.107124
Meublés,Non classé,Gîte de Laruscade,Potié, 2,,,33620,LARUSCADE,+33 5 56 81 54 23,www.gites33.fr,Gîtes de France,3 épis (Gîtes de France),,,-0.341911,45.10725
Meublés,Non classé,Gîte du Domaine de Pannetier,Domaine de Panetier,,,33360,LATRESNE,+33 5 56 81 54 23,www.gites33.fr,Gîtes de France,3 épis (Gîtes de France),,,-0.4965942,44.78517
Meublés,Non classé,Gîte Delas,La Grave,,,33690,LAVAZAN,+33 5 56 25 52 78,,Gîtes de France,3 épis (Gîtes de France),Gîtes et Vélo,,-0.09,44.38
Meublés,Non classé,Gîte des Gargails,Les Gargails,,,33114,LE BARP,+33 5 56 81 54 23,www.gites33.fr,Gîtes de France,2 épis (Gîtes de France),Gîtes Bébé,,-0.790774,44.668236
Meublés,Non classé,Gîte du Paddock,route de la Forêt,,,33114,LE BARP,+33 5 56 81 54 23,www.gites33.fr,Gîtes de France,3 épis (Gîtes de France),Gîtes et Cheval;Gîtes et Vélo,,-0.7627095,44.605186
Meublés,Non classé,Gîte La Forestière,route de la Forêt,,,33114,LE BARP,+33 5 56 81 54 23,www.gites33.fr,Gîtes de France,3 épis (Gîtes de France),Gîtes et Cheval;Gîtes et Vélo,,-0.7627095,44.605186
Meublés,Non classé,Gîte n°2015,31 rue de la Forêt,,,33114,LE BARP,+33 5 56 81 54 23,www.gites33.fr,Gîtes de France,2 épis (Gîtes de France),,,-0.7587277,44.606415
Meublés,Non classé,Château La Piolette 1,,,,33490,LE PIAN-SUR-GARONNE,+33 5 56 81 54 23,www.gites33.fr,Gîtes de France,2 épis (Gîtes de France),Gîtes de France vignoble,,-0.199711,44.60295
Meublés,Non classé,Château La Piolette 2,,,,33490,LE PIAN-SUR-GARONNE,+33 5 56 81 54 23,www.gites33.fr,Gîtes de France,3 épis (Gîtes de France),Gîtes de France vignoble,,-0.199711,44.60295
Meublés,Non classé,Château La Piolette 3,,,,33490,LE PIAN-SUR-GARONNE,+33 5 56 81 54 23,www.gites33.fr,Gîtes de France,2 épis (Gîtes de France),Gîtes de France vignoble,,-0.199711,44.60295
Meublés,Non classé,Gîte du Puy,,,,33580,LE PUY,+33 5 56 81 54 23,www.gites33.fr,Gîtes de France,3 épis (Gîtes de France),Gîtes Bébé;Gîte écocitoyen,,0.082404,44.65918
Meublés,2 étoiles,Le Relais de la Bohème,2 route du Clot Arriou,,,33680,LE TEMPLE,+33 5 56 81 54 23,www.gites33.fr,Gîtes de France,2 épis (Gîtes de France),Gîtes et Cheval,,-0.970321,44.87353
Meublés,3 étoiles,Gîte Noailles ,186 route du Cap Ferret,Le Canon,,33970,LEGE-CAP FERRET,+33 5 56 81 54 23,www.gites33.fr,Gîtes de France,2 épis (Gîtes de France),Gîtes Bébé,,-1.229746,44.699966
Meublés,Non classé,La Villa Pimprenelle,Clos du Bourgeon,route d'Ignac,,33950,LEGE-CAP FERRET,+33 5 56 81 54 23,www.gites33.fr,Gîtes de France,3 épis (Gîtes de France),Gîtes Bébé,,-1.15,44.8
Meublés,Non classé,Villa Les Pins,41 avenue du Médoc,,,33950,LEGE-CAP FERRET,+33 5 56 81 54 23,www.gites33.fr,Gîtes de France,3 épis (Gîtes de France),Gîtes Bébé,,-1.141648,44.799038
Meublés,Non classé,Gîte n°4112,Pagaud 2,,,33570,LES ARTIGUES-DE-LUSSAC,+33 5 56 81 54 23,www.gites33.fr,Gîtes de France,2 épis (Gîtes de France),Gîtes de France vignoble;Gîtes Bébé,,-0.14057,44.97133
Meublés,Non classé,Gîte n°4121,Pagaud 3,,,33570,LES ARTIGUES-DE-LUSSAC,+33 5 56 81 54 23,www.gites33.fr,Gîtes de France,3 épis (Gîtes de France),Gîtes de France vignoble;Gîtes Bébé,,-0.132172,44.96496
Meublés,Non classé,Gîte n°4082,Le Peyrail,,,33220,LES LEVES-ET-THOUMEYRAGUES,+33 5 56 81 54 23,www.gites33.fr,Gîtes de France,2 épis (Gîtes de France),,,0.161912,44.796474
Meublés,3 étoiles,Gîte de la Mondette,,,,33350,LES SALLES-DE-CASTILLON,+33 5 57 40 45 56,http://lamondette.e-monsite.com,Gîtes de France,3 épis (Gîtes de France),Gîtes Bébé,,0.002524,44.91137
Meublés,3 étoiles,Grand Gîte de la Mondette,La Mondette,,,33350,LES SALLES-DE-CASTILLON,+33 5 57 40 45 56,http://lamondette.e-monsite.com,Gîtes de France,3 épis (Gîtes de France),Gîtes Bébé,,-0.0087005,44.921326
Meublés,Non classé,Gîte de Canquillac,15 route de Pauillac,,,33340,LESPARRE-MEDOC,+33 5 56 81 54 23,www.gites33.fr,Gîtes de France,2 épis (Gîtes de France),Gîtes Bébé,,-0.9044146,45.288784
Meublés,Non classé,Gîte de Canquillac,Canquillac,,,33340,LESPARRE-MEDOC,+33 2 40 91 76 22;+33 5 56 41 10 30,,Gîtes de France,3 épis (Gîtes de France),,,-0.902944,45.288025
Meublés,Non classé,Gîte de Bernones,6 B chemin de Bernones,,,33480,LISTRAC-MEDOC,+33 5 56 81 54 23,www.gites33.fr,Gîtes de France,2 épis (Gîtes de France),Gîtes Bébé,,-0.802801,45.030365
Meublés,Non classé,Gîte n°4160,Le Port du Mât,,,33230,ABZAC,+33 5 56 81 54 23,www.gites33.fr,Gîtes de France,3 épis (Gîtes de France),Gîtes de pêche;Gîtes Bébé;Gîtes et Vélo,,-0.10091,45.015686
Meublés,Non classé,Gîtes d'Abzac,4 rue Henri Rozier,,,33230,ABZAC,+33 5 57 69 45 25,http://locatgite-gironde.perso.sfr.fr,Gîtes de France,3 épis (Gîtes de France),Gîtes Bébé,,-0.117357,45.056038
Meublés,Non classé,Gîtes d'Abzac,4 rue Henri Rozier,,,33230,ABZAC,+33 5 57 69 45 25,http://locatgite-gironde.perso.sfr.fr,Gîtes de France,3 épis (Gîtes de France),Gîtes Bébé,,-0.12,45.02
Meublés,2 étoiles,Gîte d'Aillas,La Métairie d'Aillas le Vieux,,,33124,AILLAS,+33 5 56 81 54 23,www.gites33.fr,Gîtes de France,2 épis (Gîtes de France),Gîtes et Vélo;Gîtes Bébé,,-0.073154,44.473976
Meublés,Non classé,Gîte de Perey,Perey,,,33124,AILLAS,+33 5 56 65 34 05,http://gite.perey.free.fr,Gîtes de France,4 épis (Gîtes de France),Gîtes Bébé,,-0.0701503,44.487793
Meublés,4 étoiles,La Résinière,5 allée de la Chalosse,,,33510,ANDERNOS-LES-BAINS,+33 5 56 82 04 46,,Gîtes de France,3 épis (Gîtes de France),Gîtes Bébé,,-1.0731634,44.730865
Meublés,Non classé,Gîte des Hères,15 avenue des Hères,,,33510,ANDERNOS-LES-BAINS,+33 9 63 60 83 74,,Gîtes de France,3 épis (Gîtes de France),Gîtes Bébé,,-1.094956,44.751602
Meublés,Non classé,Gîte Les Aigrettes,18 rue des Bouvreuils,,,33510,ANDERNOS-LES-BAINS,+33 6 82 65 84 46;+33 6 85 56 83 88;+33 6 88 11 78 67,www.gites-de-france-gironde.com/gite-location-andernos-les-bains-3-epis-arcachon-audoin-kraft-2122.html,Gîtes de France,3 épis (Gîtes de France),Bienvenue aux motards;Gîtes Bébé,,-1.1016407,44.752792
Meublés,Non classé,Gîte Les Bernaches,18 rue des Bouvreuils,,,33510,ANDERNOS-LES-BAINS,+33 5 56 81 54 23,www.gites-de-france-gironde.com/gite-location-andernos-les-bains-3-epis-arcachon-audoin-kraft-2120.html,Gîtes de France,3 épis (Gîtes de France),Bienvenue aux motards;Gîtes Bébé,,-1.0874608,44.75668
Meublés,Non classé,Gîte Les Oyats,20 boulevard du Page,,,33510,ANDERNOS-LES-BAINS,+33 5 56 82 47 14,www.lesoyats.com,Gîtes de France,2 épis (Gîtes de France),,,-1.086503,44.75698
Meublés,Non classé,Gîte Les Sternes,18 rue des Bouvreuils,,,33510,ANDERNOS-LES-BAINS,+33 6 82 65 84 46;+33 6 85 56 83 88;+33 6 88 11 78 67,http://www.gites-de-france-gironde.com/gite-location-andernos-les-bains-3-epis-arcachon-audoin-kraft-2123.html,Gîtes de France,3 épis (Gîtes de France),Bienvenue aux motards;Gîtes Bébé,,-1.1016407,44.752792
Meublés,Non classé,La Lézardière,4 impasse du Page,,,33510,ANDERNOS-LES-BAINS,+33 5 56 81 54 23,www.gites33.fr,Gîtes de France,2 épis (Gîtes de France),Gîtes Bébé;Gîtes et Vélo,,-1.0874608,44.75668
Meublés,Non classé,Gîte du Petit Lieu Dit,22 bis, le Bouil,,,33390,ANGLADE,+33 5 56 81 54 23,www.gites33.fr,Gîtes de France,2 épis (Gîtes de France),Gîtes et Vélo;Gîtes Bébé,,-0.6428137,45.195175
Meublés,3 étoiles,Villa Saint-Georges,135 bis boulevard de la Plage,,,33120,ARCACHON,+33 5 56 83 99 75,http://pagesperso-orange.fr/villa-napoleon,Gîtes de France,3 épis (Gîtes de France),Gîtes Bébé,,-1.16402,44.662548
Meublés,Non classé,City Break Appartement Zephyr,48 ter boulevard Deganne,,,33120,ARCACHON,+33 5 56 81 54 23,www.gites33.fr,Gîtes de France,3 épis (Gîtes de France),City break Confort;Gîtes et Vélo,,-1.151409,44.65507
Meublés,Non classé,City Break de Barkhanes,1B place Roger Expert,,,33120,ARCACHON,+33 5 56 81 54 23,www.gites33.fr,Gîtes de France,3 épis (Gîtes de France),City break Confort;Gîtes Bébé,,-1.1697885,44.663116
Meublés,Non classé,Villa Symphonie,41 cours Héricart de Thury,,,33120,ARCACHON,+33 5 56 81 54 23,www.gites33.fr,Gîtes de France,3 épis (Gîtes de France),City break Confort;Gîtes Bébé,,-1.1649342,44.6607
Meublés,Non classé,Gîte Alberola,allée de la Pinède,,,33740,ARES,+33 9 54 74 79 56,,Gîtes de France,3 épis (Gîtes de France),Gîtes Bébé,,-1.114765,44.758076
Meublés,Non classé,Château Saint Leu,,,,33370,ARTIGUES-PRES-BORDEAUX,+33 5 56 86 54 84,,Gîtes de France,2 épis (Gîtes de France),Gîtes Bébé,,-0.490935,44.86045
Meublés,Non classé,Gîte Franc Tillède,102 route de Tillède,,,33500,ARVEYRES,+33 5 56 81 54 23,www.gites33.fr,Gîtes de France,2 épis (Gîtes de France),Gîtes Bébé,,-0.2901125,44.876328
Meublés,Non classé,Gîte n°52,Moulin de l'Eau,,,33240,AUBIE-ET-ESPESSAS,+33 5 56 81 54 23,www.gites33.fr,Gîtes de France,2 épis (Gîtes de France),Gîte écocitoyen,,-0.388064,45.02312
Meublés,Non classé,Gîte n°53,Moulin de l'Eau,,,33240,AUBIE-ET-ESPESSAS,+33 5 56 81 54 23,www.gites33.fr,Gîtes de France,2 épis (Gîtes de France),Gîte écocitoyen,,-0.388064,45.02312
Meublés,Non classé,Gîte n°54,Moulin de l'Eau,,,33240,AUBIE-ET-ESPESSAS,+33 5 56 81 54 23,www.gites33.fr,Gîtes de France,2 épis (Gîtes de France),Gîte écocitoyen,,-0.388064,45.02312
Meublés,Non classé,Gîte n°55,Moulin de l'Eau,,,33240,AUBIE-ET-ESPESSAS,+33 5 56 81 54 23,www.gites33.fr,Gîtes de France,1 épi (Gîtes de France),Gîte écocitoyen,,-0.388064,45.02312
Meublés,Non classé,Gîte n°56,Moulin de l'Eau,,,33240,AUBIE-ET-ESPESSAS,+33 5 56 81 54 23,www.gites33.fr,Gîtes de France,1 épi (Gîtes de France),Gîte écocitoyen,,-0.388064,45.02312
Meublés,Non classé,Gîte n°57,Moulin de l'Eau,,,33240,AUBIE-ET-ESPESSAS,+33 5 56 81 54 23,www.gites33.fr,Gîtes de France,1 épi (Gîtes de France),Gîte écocitoyen,,-0.388064,45.02312
Meublés,Non classé,Les Ecogîtes Floréale 2102,Hougeyra,Chalet Soleil,,33980,AUDENGE,+33 5 56 81 54 23,www.gites33.fr,Gîtes de France,2 épis (Gîtes de France),Ecogîte;Gîtes Bébé;Gîtes Côté Jardin;Gîte écocitoyen,Handicap auditif;Handicap mental;Handicap moteur;Handicap visuel,-0.95344,44.713097
Meublés,Non classé,Les Ecogîtes Floréale 2103,Hougueyra,Chalet Aqua,,33980,AUDENGE,+33 5 56 81 54 23,www.gites33.fr,Gîtes de France,2 épis (Gîtes de France),Ecogîte;Gîtes Bébé;Gîtes Côté Jardin;Gîte écocitoyen,Handicap auditif;Handicap mental;Handicap moteur;Handicap visuel,-0.95344,44.713097
Meublés,Non classé,Les Ecogîtes Floréale 2104,Hougeyra,Chalet Papillon,,33980,AUDENGE,+33 5 56 82 25 18,www.lesecogitesfloreale.com,Gîtes de France,2 épis (Gîtes de France),Ecogîte;Gîtes Bébé;Gîtes Côté Jardin;Gîte écocitoyen,Handicap auditif;Handicap mental;Handicap moteur;Handicap visuel,-0.95344,44.713097
Meublés,Non classé,Gîte Dumora,14 rue Saint-Yves,,,33980,AUDENGE,+33 5 56 26 84 52,http://dumoragite.monsite.wanadoo.fr,Gîtes de France,2 épis (Gîtes de France),,,-1.011735,44.679363
Meublés,Non classé,Domaine Moulin du Pont,,,,33124,AUROS,+33 5 56 81 54 23,www.gites33.fr,Gîtes de France,2 épis (Gîtes de France),,,-0.108048,44.49174
Meublés,Non classé,Gîte d'Avensan n°1162,chemin de Romefort,,,33480,AVENSAN,+33 5 56 81 54 23,www.gites33.fr,Gîtes de France,3 épis (Gîtes de France),Gîtes Bébé;Bienvenue aux motards;Gîte écocitoyen,,-0.765447,45.025635
Meublés,Non classé,Gîte d'Avensan n°1164,Le Sourbey,,,33480,AVENSAN,+33 5 56 81 54 23,www.gites33.fr,Gîtes de France,2 épis (Gîtes de France),Gîtes Bébé;Gîtes et Cheval,,-0.753484,45.017666
Meublés,2 étoiles,Gîte La Grange,6 route de Lusseau,,,33640,AYGUEMORTE-LES-GRAVES,+33 5 56 81 54 23,www.gites33.fr,Gîtes de France,2 épis (Gîtes de France),Gîtes Bébé,,-0.4820566,44.694073
Meublés,Non classé,Château Dudon,,,,33720,BARSAC,+33 5 57 98 65 01;+33 5 56 27 29 38,www.chateau-dudon.fr,Gîtes de France,3 épis (Gîtes de France),Gîtes de France vignoble,,-0.32401,44.59954
Meublés,Non classé,Le Pradel Constantin,,,,33880,BAURECH,+33 9 51 89 60 32,,Gîtes de France,1 épi (Gîtes de France),,,-0.45,44.72
Meublés,Non classé,Gîte de Bayon-sur-Gironde,14 Les Espaliers,,,33710,BAYON-SUR-GIRONDE,+33 5 56 81 54 23,www.gites33.fr,Gîtes de France,2 épis (Gîtes de France),,,-0.598455,45.052174
Meublés,Non classé,Gîte Barraud ,Le Plisseau,,,33710,BAYON-SUR-GIRONDE,+33 5 57 64 93 65,,Gîtes de France,2 épis (Gîtes de France),Gîtes Bébé,,-0.61134,45.05766
Meublés,Non classé,Gîte n°1046,6 rue de Bégadanet,,,33340,BEGADAN,+33 5 56 81 54 23,www.gites33.fr,Gîtes de France,2 épis (Gîtes de France),Gîtes Bébé,,-0.89737,45.339348
Meublés,Non classé,Gîte n°1134,8 rue du Port de By,,,33340,BEGADAN,+33 5 56 81 54 23,www.gites33.fr,Gîtes de France,3 épis (Gîtes de France),,,-0.89,45.35
Meublés,Non classé,Gîte de Caverne,24 route de Caverne,,,33830,BELIN-BELIET,+33 5 56 81 54 23,www.gites33.fr,Gîtes de France,2 épis (Gîtes de France),,,-0.78,44.5
Meublés,Non classé,Gîte La Peyre,51 route d'Hostens,Joué,,33830,BELIN-BELIET,+33 5 56 81 54 23,www.gites33.fr,Gîtes de France,2 épis (Gîtes de France),,,-0.719416,44.473335
Meublés,Non classé,Gîte n°6,Joué,,,33830,BELIN-BELIET,+33 5 56 81 54 23,www.gites33.fr,Gîtes de France,2 épis (Gîtes de France),Gîtes Bébé;Gîtes et Vélo,,-0.734404,44.472984
Meublés,Non classé,Gîte n°7,Mons,,,33830,BELIN-BELIET,+33 5 56 81 54 23,www.gites33.fr,Gîtes de France,3 épis (Gîtes de France),Gîtes Bébé,,-0.809766,44.469044
Meublés,Non classé,La Bruyère,48 bis route de l'Ameliet,,,33830,BELIN-BELIET,+33 5 56 81 54 23,www.gites33.fr,Gîtes de France,2 épis (Gîtes de France),Gîtes Bébé;Gîtes et Cheval,,-0.7272979,44.463356
Meublés,Non classé,La Fougère,48 route de l'Ameliet,,,33830,BELIN-BELIET,+33 5 56 81 54 23,www.gites33.fr,Gîtes de France,2 épis (Gîtes de France),Gîtes Bébé;Gîtes et Cheval,,-0.7272979,44.463356
Meublés,Non classé,Gîte de l'Eau-Vergne,l'Eau-Vergne,,,33430,BERNOS-BEAULAC,+33 5 56 81 54 23,www.gites33.fr,Gîtes de France,3 épis (Gîtes de France),Gîtes Bébé;Gîte écocitoyen,Handicap moteur,-0.2894203,44.377697
Meublés,5 étoiles,Château La France,,,,33750,BEYCHAC-ET-CAILLAU,+33 5 56 81 54 23,www.gites33.fr,Gîtes de France,4 épis (Gîtes de France),Gîtes de France vignoble;Charme Gîtes de France;Gîtes Bébé;Gîte au Château;Gîtes et Vélo,,-0.330448,44.845078
Meublés,Non classé,Domaine de Teynac,Teynac,,,33750,BEYCHAC-ET-CAILLAU,+33 5 56 81 54 23,www.gites33.fr,Gîtes de France,3 épis (Gîtes de France),Gîtes Bébé,,-0.365605,44.858913
Meublés,Non classé,Gîte du Domaine Chemin Rouge,9 ter chemin Rouge,,,33750,BEYCHAC-ET-CAILLAU,+33 5 56 81 54 23,www.gites33.fr,Gîtes de France,3 épis (Gîtes de France),Gîtes Bébé,,-0.375187,44.872402
Meublés,Non classé,Gîte de Blasimon,12 Guilhembourg,,,33540,BLASIMON,+33 5 56 81 54 23,www.gites33.fr,Gîtes de France,2 épis (Gîtes de France),,,-0.07689,44.750256
Meublés,3 étoiles,City Break Bord de Garonne,Résidence Atria,21 rue Jardel,Entrée B - Appt n° 407,33000,BORDEAUX,+33 5 56 81 54 23,www.gites33.fr,Gîtes de France,3 épis (Gîtes de France),Gîtes Bébé;City break Confort,,-0.587269,44.83501
Meublés,Non classé,Appart Square Pey Berland,6 rue de Belfort,,,33000,BORDEAUX,+33 5 56 81 54 23,www.gites33.fr,Gîtes de France,3 épis (Gîtes de France),City break Confort;Gîtes Bébé,,-0.5823455,44.83574
Meublés,Non classé,City Break Alamanda,120 rue Bernard Adour,,,33000,BORDEAUX,+33 5 56 81 54 23,http://www.gites-de-france-gironde.com/liste?&lno=5005&critinit=O,Gîtes de France,3 épis (Gîtes de France),City break Confort,,-0.6054968,44.83847
Meublés,Non classé,City Break du Médoc,129 cours du Médoc,,,33000,BORDEAUX,+33 5 56 81 54 23,www.gites33.fr,Gîtes de France,3 épis (Gîtes de France),City break Confort;Gîtes Bébé,,-0.5710218,44.861923
Meublés,Non classé,La Maison Bordelaise,22 rue de Colmar,,,33000,BORDEAUX,+33 5 56 81 54 23,www.gites-de-france-gironde.com,Gîtes de France,4 épis (Gîtes de France),City break Confort,,-0.5979634,44.844166
Meublés,Non classé,Don des Flots,17 Pain de Sucre,,,33710,BOURG,+33 5 56 81 54 23,www.gites33.fr,Gîtes de France,2 épis (Gîtes de France),Gîtes Bébé,,-0.5852945,45.041203
Meublés,Non classé,Gîte des Cabanes,7 Les Cabanes,,,33710,BOURG,+33 5 56 81 54 23,www.gites33.fr,Gîtes de France,2 épis (Gîtes de France),,,-0.5751324,45.04291
Meublés,Non classé,Gîte Monplaisir,Pain de Sucre,,,33710,BOURG,+33 5 57 68 23 42,http://guerin.gite.free.fr,Gîtes de France,2 épis (Gîtes de France),Gîtes Bébé,,-0.5852945,45.041203
Meublés,Non classé,L'Escale,17 bis Pain de Sucre,,,33710,BOURG,+33 5 56 81 54 23,www.gites33.fr,Gîtes de France,2 épis (Gîtes de France),Gîtes Bébé,,-0.5852945,45.041203
Meublés,Non classé,Gîte Lutard,,,,33710,BOURG,+33 5 57 64 82 44,,Gîtes de France,3 épis (Gîtes de France),,,-0.48,45.05
Meublés,Non classé,Gîte de Bourideys,Capdarieux,,,33113,BOURIDEYS,+33 5 56 81 54 23,www.gites33.fr,Gîtes de France,2 épis (Gîtes de France),,,-0.491023,44.409096
Meublés,Non classé,Gîte Grellier ,Le Buchaud,,,33820,BRAUD-ET-SAINT-LOUIS,+33 5 57 64 78 86,,Gîtes de France,1 épi (Gîtes de France),,,-0.630839,45.24682
Meublés,Non classé,Gîte de Carabit,260 rue de Baulos,,,33140,CADAUJAC,+33 5 56 81 54 23,www.gites-de-france-gironde.com/gite-location-cadaujac-3-epis-pres-bordeaux-marion-2099.html,Gîtes de France,3 épis (Gîtes de France),Taste vin;Gîtes Bébé,,-0.5403982,44.73757
Meublés,3 étoiles,Gîte du Domaine de Saint Amand,Saint Amand,,,33880,CAMBES,+33 5 56 81 54 23,www.gites33.fr,Gîtes de France,3 épis (Gîtes de France),Gîtes de France vignoble,Handicap auditif;Handicap mental,-0.4574935,44.741035
Meublés,Non classé,Gîte Côté Château,22 chemin du Jonc,,,33360,CAMBLANES-ET-MEYNAC,+33 5 56 81 54 23,www.gites33.fr,Gîtes de France,3 épis (Gîtes de France),Gîtes Bébé;Gîtes de France vignoble,,-0.474738,44.772396
Meublés,Non classé,Gîte Lamy ,55 route de Morillon,,,33360,CAMBLANES-ET-MEYNAC,+33 5 56 20 77 50,,Gîtes de France,2 épis (Gîtes de France),,,-0.476446,44.764267
Meublés,Non classé,Gîte Lamy ,55 route de Morillon,,,33360,CAMBLANES-ET-MEYNAC,+33 5 56 20 77 50,,Gîtes de France,2 épis (Gîtes de France),Gîtes Bébé,,-0.477262,44.764477
Meublés,2 étoiles,Gîte de Camiran,14 Jean de Marie,,,33190,CAMIRAN,+33 5 56 81 54 23,www.gites33.fr,Gîtes de France,2 épis (Gîtes de France),Gîtes Bébé,,-0.079315,44.62846
Meublés,3 étoiles,Gîte du Petit Ruisseau,263 bis Bourg Nord,,,33760,CANTOIS,+33 5 56 23 65 23,,Gîtes de France,3 épis (Gîtes de France),Gîtes Bébé,,-0.2293871,44.69429
Meublés,2 étoiles,Gîte de La Hausse,La Hausse,,,33840,CAPTIEUX,+33 5 56 81 54 23,www.gites33.fr,Gîtes de France,2 épis (Gîtes de France),Gîtes Bébé,,-0.251826,44.310043
Meublés,Non classé,Gîte du Domaine de Londeix,,,,33840,CAPTIEUX,+33 5 56 65 68 83,www.londeix.com,Gîtes de France,3 épis (Gîtes de France),Séjour bien-être;Gîtes Bébé,,-0.214869,44.28886
Meublés,Non classé,Gîte Les Acacias,Maharans,Les Acacias,,33840,CAPTIEUX,+33 5 56 81 54 23,www.gites33.fr,Gîtes de France,3 épis (Gîtes de France),Gîtes Nature;Gîte écocitoyen;Gîtes Bébé,,-0.214869,44.28886
Meublés,Non classé,Gîte Les Bruyères,Maharans,Les Bruyères,,33840,CAPTIEUX,+33 5 56 81 54 23,www.gites33.fr,Gîtes de France,3 épis (Gîtes de France),Gîtes Nature;Gîte écocitoyen;Gîte écocitoyen,,-0.214869,44.28886
Meublés,Non classé,Gîte de Saint-Vivien-de-Médoc,15 rue du Général de Gaulle,,,33590,SAINT-VIVIEN-DE-MEDOC,+33 5 56 81 54 23,www.gites33.fr,Gîtes de France,2 épis (Gîtes de France),Gîtes Bébé,,-1.041078,45.43171
Meublés,Non classé,Gîte Le Murier,2 chemin de Cabanieux,,,33590,SAINT-VIVIEN-DE-MEDOC,+33 5 56 81 54 23,www.gites33.fr,Gîtes de France,2 épis (Gîtes de France),,,-1.029147,45.450794
Meublés,Non classé,Gîte Lussac ,2 chemin de Cabanieux,,,33590,SAINT-VIVIEN-DE-MEDOC,+33 5 56 81 54 23,www.gites33.fr,Gîtes de France,2 épis (Gîtes de France),,,-1.0409109,45.450035
Meublés,Non classé,Gîte Lussac ,2 chemin de Cabanieux,,,33590,SAINT-VIVIEN-DE-MEDOC,+33 5 56 81 54 23,www.gites33.fr,Gîtes de France,2 épis (Gîtes de France),,,-1.0409109,45.450035
Meublés,Non classé,Gîte de Saint-Yzans-de-Médoc,,,,33340,SAINT-YZANS-DE-MEDOC,+33 5 56 81 54 23,www.gites33.fr,Gîtes de France,2 épis (Gîtes de France),,,-0.894869,45.32131
Meublés,3 étoiles,Domaine de Laubertrie,3 Laubertrie,,,33240,SALIGNAC,+33 5 56 81 54 23,www.gites33.fr,Gîtes de France,3 épis (Gîtes de France),Gîtes de France vignoble;Gîtes Bébé,,-0.367295,45.033222
Meublés,Non classé,Gîte de Salignac,Le Logis d'Hortense,54 avenue de la République,,33240,SALIGNAC,+33 5 56 81 54 23,www.gites33.fr,Gîtes de France,2 épis (Gîtes de France),Gîtes Bébé,,-0.387111,45.01525
Meublés,2 étoiles,Château Vacquey,,,,33370,SALLEBOEUF,+33 5 56 72 85 31,,Gîtes de France,2 épis (Gîtes de France),Gîtes Bébé;Gîtes et Vélo,,-0.432935,44.847935
Meublés,Non classé,Gîte de Salleboeuf n°3053,6 allée de Cardet,,,33370,SALLEBOEUF,+33 5 56 81 54 23,www.gites33.fr,Gîtes de France,1 épi (Gîtes de France),Gîtes Bébé,,-0.385779,44.839867
Meublés,Non classé,Gîte de Salleboeuf n°3054,33 route de la Forêt,,,33370,SALLEBOEUF,+33 5 56 81 54 23,www.gites33.fr,Gîtes de France,2 épis (Gîtes de France),,,-0.387621,44.83611
Meublés,Non classé,Gîte de Badet,16 bis route de Badet,,,33770,SALLES,+33 5 56 81 54 23,www.gites-de-france-gironde.com/listeheb?LNO=2129,Gîtes de France,2 épis (Gîtes de France),,,-0.8612993,44.547916
Meublés,Non classé,Gîte La Bastide de Salles,58 rue de la Croix Blanche,,,33770,SALLES,+33 5 56 81 54 23,http://www.gites-de-france-gironde.com/gite-location-salles-3-epis-sud-gironde-dutas-2081.html,Gîtes de France,3 épis (Gîtes de France),Gîtes Bébé;Gîtes Côté Jardin,,-0.8604244,44.551502
Meublés,Non classé,Le Pradéou,26 chemin du Pujeau,,,33770,SALLES,+33 5 53 87 85 52,http://lepradeou.wifeo.com,Gîtes de France,2 épis (Gîtes de France),Gîtes Bébé,,-0.8539651,44.548935
Meublés,Non classé,Gîte de Samonac,Le Vallon de Fonviel,,,33710,SAMONAC,+33 5 56 81 54 23,www.gites33.fr,Gîtes de France,3 épis (Gîtes de France),Gîtes Bébé,,-0.569537,45.073875
Meublés,Non classé,Gîte du Castenet,Castenet,,,33710,SAMONAC,+33 5 56 81 54 23,www.gites33.fr,Gîtes de France,2 épis (Gîtes de France),Gîtes Bébé,,-0.580334,45.07828
Meublés,Non classé,Gîte Bacchanal,Lacousse,,,33540,SAUVETERRE-DE-GUYENNE,+33 5 56 81 54 23,www.gites33.fr,Gîtes de France,3 épis (Gîtes de France),Gîtes de France vignoble;Gîtes Bébé,,-0.096397,44.701534
Meublés,Non classé,Gîte du Levraut,Balestard,,,33540,SAUVETERRE-DE-GUYENNE,+33 5 56 81 54 23,www.gites33.fr,Gîtes de France,2 épis (Gîtes de France),Gîtes Bébé,,-0.0843449,44.675034
Meublés,Non classé,Gîte Cerise,7 bis Boyer,,,33910,SAVIGNAC-DE-L'ISLE,+33 5 56 81 54 23,www.gites33.fr,Gîtes de France,3 épis (Gîtes de France),,,-0.2425683,44.997047
Meublés,Non classé,Gîte de Savignac-de-l'Isle,7 bis Boyer,,,33910,SAVIGNAC-DE-L'ISLE,+33 5 56 81 54 23,www.gites33.fr,Gîtes de France,3 épis (Gîtes de France),,,-0.242372,44.9964
Meublés,Non classé,Gîte n°2089,Broustic,,,33690,SILLAS,+33 5 56 81 54 23,www.gites33.fr,Gîtes de France,3 épis (Gîtes de France),Gîtes Bébé,,-0.063563,44.368813
Meublés,3 étoiles,Gîte Arnaud ,24 route de Lestage,,,33550,TABANAC,+33 5 56 81 54 23,www.gites33.fr,Gîtes de France,3 épis (Gîtes de France),Gîtes Bébé;Charme Gîtes de France,,-0.4043919,44.719227
Meublés,Non classé,Gîte de Talais,212 Passe Castillonnaise,,,33590,TALAIS,+33 5 56 81 54 23,www.gites33.fr,Gîtes de France,2 épis (Gîtes de France),Gîtes Bébé,,-1.0476708,45.482506
Meublés,Non classé,Château Brulesecaille,,,,33710,TAURIAC,+33 5 57 68 40 31,www.brulesecaille.com,Gîtes de France,2 épis (Gîtes de France),Gîtes de France vignoble;Gîtes Bébé,,-0.555645,45.0642
Meublés,Non classé,Gîte de Tauriac,chemin de Talet,,,33710,TAURIAC,+33 5 56 81 54 23,www.gites33.fr,Gîtes de France,2 épis (Gîtes de France),Gîtes Bébé,,-0.501693,45.04931
Meublés,Non classé,Gîte n°4063,,,,33710,TAURIAC,+33 5 56 81 54 23,www.gites33.fr,Gîtes de France,2 épis (Gîtes de France),,,-0.502442,45.049377
Meublés,Non classé,Gîte n°4210,Violet,,,33710,TEUILLAC,+33 5 56 81 54 23,www.gites33.fr,Gîtes de France,3 épis (Gîtes de France),Gîtes Bébé,,-0.537871,45.10774
Meublés,Non classé,Chez Marie-Jo,10 route de Préchac,,,33730,UZESTE,+33 5 56 81 54 23,www.gites33.fr,Gîtes de France,2 épis (Gîtes de France),Gîtes Bébé,,-0.3585807,44.394783
Meublés,Non classé,Gîte de l'Argileyre n°2037,l'Argileyre,,,33730,UZESTE,+33 5 56 81 54 23,www.gites33.fr,Gîtes de France,2 épis (Gîtes de France),Gîtes et Cheval,,-0.315284,44.4391
Meublés,Non classé,Gîte de l'Argileyre n°2043,l'Argileyre,,,33730,UZESTE,+33 5 56 81 54 23,www.gites33.fr,Gîtes de France,2 épis (Gîtes de France),Gîtes et Cheval,,-0.315284,44.4391
Meublés,Non classé,Gîte d'Uzeste,Le Moulin,,,33730,UZESTE,+33 5 56 81 54 23,www.gites33.fr,Gîtes de France,3 épis (Gîtes de France),Gîtes Bébé;Gîtes et Vélo,,-0.329414,44.440804
Meublés,Non classé,La Gare,,,,33730,UZESTE,+33 5 56 81 54 23,www.gites33.fr,Gîtes de France,2 épis (Gîtes de France),,,-0.385505,44.42922
Meublés,Non classé,Le Presbytère,,,,33730,UZESTE,+33 5 56 81 54 23,www.gites33.fr,Gîtes de France,2 épis (Gîtes de France),,,-0.385505,44.42922
Meublés,Non classé,Gîte Les Cotoniers,4 route du Poteau Vert,,,33340,VALEYRAC,+33 5 56 81 54 23,www.gites33.fr,Gîtes de France,3 épis (Gîtes de France),Gîtes Bébé,,-0.886382,45.379227
Meublés,Non classé,Gîte n°1178,13 bis route de Troussas,,,33340,VALEYRAC,+33 5 56 81 54 23,www.gites33.fr,Gîtes de France,2 épis (Gîtes de France),Gîtes Bébé;Gîtes et Vélo,,-0.890043,45.383297
Meublés,Non classé,Gîte Ducos ,2 rue de Lafon,,,33340,VALEYRAC,+33 5 56 41 59 71,,Gîtes de France,1 épi (Gîtes de France),,,-0.902354,45.39247
Meublés,Non classé,Gîte de Bétaille,impasse Bétaille,,,33870,VAYRES,+33 5 56 81 54 23,www.gites33.fr,Gîtes de France,3 épis (Gîtes de France),Gîtes Bébé,Handicap auditif;Handicap mental;Handicap moteur,-0.318762,44.90689
Meublés,2 étoiles,Gîte de Courreau,109 route de Courreau,Courreau,,33930,VENDAYS-MONTALIVET,+33 5 56 81 54 23,www.gites33.fr,Gîtes de France,2 épis (Gîtes de France),Gîtes Bébé,,-1.0620325,45.35771
Meublés,Non classé,Gîte de Vendays-Montalivet n°1153,Le Dehes,,,33930,VENDAYS-MONTALIVET,+33 5 56 81 54 23,www.gites33.fr,Gîtes de France,3 épis (Gîtes de France),Gîtes et Vélo,,-1.053412,45.33644
Meublés,Non classé,Gîte de Vendays-Montalivet n°1170,La Cadichonne,18 Le Dehes,,33930,VENDAYS-MONTALIVET,+33 5 56 81 54 23,www.gites33.fr,Gîtes de France,4 épis (Gîtes de France),Charme Gîtes de France,,-1.053412,45.33644
Meublés,Non classé,Gîte La Mordorée,route d'Hourtin,4 Le pré de Justine,,33930,VENDAYS-MONTALIVET,+33 5 56 81 54 23,www.gites-de-france-gironde.com/gite-location-vendays-montalivet-4-epis-medoc-castillon-1205.html,Gîtes de France,4 épis (Gîtes de France),Gîtes Bébé,,-1.599167,45.35605
Meublés,Non classé,Gîte n°1012,Le Mérin,,,33930,VENDAYS-MONTALIVET,+33 5 56 81 54 23,www.gites33.fr,Gîtes de France,2 épis (Gîtes de France),,,-1.101954,45.36667
Meublés,Non classé,Gîte n°1023,Le Mérin,,,33930,VENDAYS-MONTALIVET,+33 5 56 81 54 23,www.gites33.fr,Gîtes de France,2 épis (Gîtes de France),,,-1.098562,45.3678
Meublés,Non classé,Le Moulin de Goulée,54 Le Moulin de Goulée,,,33930,VENDAYS-MONTALIVET,+33 5 56 81 54 23,www.gites33.fr,Gîtes de France,2 épis (Gîtes de France),,,-1.041969,45.313126
Meublés,Non classé,Gîte Bernard ,300 Les Pigaux,,,33930,VENDAYS-MONTALIVET,+33 5 56 41 76 09,,Gîtes de France,2 épis (Gîtes de France),Gîtes Bébé,,-1.038018,45.317616
Meublés,3 étoiles,Gîte Chez Catherine,21 route de Gaudin,,,33590,VENSAC,+33 5 56 81 54 23,www.gites33.fr,Gîtes de France,3 épis (Gîtes de France),Gîtes Bébé;Bienvenue aux motards;Gîtes et Vélo;Séjour bien-être,,-1.0357782,45.405113
Meublés,Non classé,Gîte de Malabut,9 rue de Loustauneuf,,,33590,VENSAC,+33 5 56 81 54 23,www.gites33.fr,Gîtes de France,3 épis (Gîtes de France),,,-1.0406588,45.40282
Meublés,Non classé,Gîte de Vensac n°1150,32 Les Arrestieux,,,33590,VENSAC,+33 5 56 81 54 23,www.gites33.fr,Gîtes de France,3 épis (Gîtes de France),Gîtes et Vélo;Gîte écocitoyen,,-1.076626,45.419174
Meublés,Non classé,Gîte de Vensac n°1152,rue du Moulin,,,33590,VENSAC,+33 5 56 81 54 23,www.gites33.fr,Gîtes de France,2 épis (Gîtes de France),Gîtes Bébé,,-1.075293,45.431423
Meublés,Non classé,Gîte de Vensac n°1167,2 route du Moulin,,,33590,VENSAC,+33 5 56 81 54 23,www.gites33.fr,Gîtes de France,2 épis (Gîtes de France),,,-1.075293,45.431423
Meublés,Non classé,Gîte de Vensac n°1172,2 route du Moulin,,,33590,VENSAC,+33 5 56 81 54 23,www.gites33.fr,Gîtes de France,2 épis (Gîtes de France),Gîtes Bébé,,-1.075293,45.431423
Meublés,Non classé,Gîte de Vensac n°1177,As Gagna't,2 chemin des Fourgères,,33590,VENSAC,+33 5 56 81 54 23,www.gites33.fr,Gîtes de France,2 épis (Gîtes de France),Gîtes Bébé;Gîtes et Vélo,,-1.041545,45.398045
Meublés,Non classé,Gîte de Vensac n°1199,2 route du Moulin,,,33590,VENSAC,+33 5 56 81 54 23,www.gites33.fr,Gîtes de France,2 épis (Gîtes de France),Gîtes Bébé;Gîtes et Vélo,,-1.0436393,45.398056
Meublés,Non classé,Gîte Tsic a Tsic,2 bis, chemin des Fougères,,,33590,VENSAC,+33 5 56 81 54 23,www.gites33.fr,Gîtes de France,2 épis (Gîtes de France),Gîtes et Vélo;Gîtes Bébé,,-1.8701282,46.822365
Meublés,Non classé,Gîte Gomez,Les Arrestieux,,,33590,VENSAC,+33 5 56 59 08 24,,Gîtes de France,2 épis (Gîtes de France),Gîtes Bébé,,-1.063153,45.389996
Meublés,Non classé,Gîte de la Ferme de Vérac,Maison Neuve,,,33240,VERAC,+33 5 56 81 54 23,www.gites33.fr,Gîtes de France,2 épis (Gîtes de France),Gîtes Bébé;Gîtes et Cheval,,-0.340012,45.00381
Meublés,Non classé,Gîte n°4243,Maison Neuve,,,33240,VERAC,+33 5 56 81 54 23,www.gites33.fr,Gîtes de France,3 épis (Gîtes de France),Gîtes Bébé;Gîtes et Cheval,,-0.33993,45.003834
Meublés,Non classé,Gîte n°4158,Pezat,,,33330,VIGNONET,+33 5 56 81 54 23,www.gites33.fr,Gîtes de France,2 épis (Gîtes de France),Gîtes Bébé,,-0.155174,44.85473
Meublés,Non classé,Gîte Le Chêne,5, Privaillet,,,33730,VILLANDRAUT,+33 5 56 81 54 23,www.gites33.fr,Gîtes de France,2 épis (Gîtes de France),Gîtes Bébé,,-0.4056485,44.438004
Meublés,Non classé,Gîte de Villegouge,2 bis route de Vérac,Fayol,,33141,VILLEGOUGE,+33 5 56 81 54 23,www.gites33.fr,Gîtes de France,2 épis (Gîtes de France),,,-0.297802,44.96748
Meublés,Non classé,Gîte Léocadie,8 bis, lieu-dit Lagarenne,,,33141,VILLEGOUGE,+33 5 56 81 54 23,www.gites33.fr,Gîtes de France,2 épis (Gîtes de France),Gîtes Bébé,,-0.3057706,44.97788
Meublés,Non classé,Gîte n°4110,le Bourg,,,33710,VILLENEUVE,+33 5 56 81 54 23,www.gites33.fr,Gîtes de France,3 épis (Gîtes de France),Gîtes et Vélo,,-0.568206,45.060852
Meublés,Non classé,Gîte de Louchats n°2064,28 allée des Bergeries,,,33125,LOUCHATS,+33 5 56 81 54 23,www.gites33.fr,Gîtes de France,3 épis (Gîtes de France),,,-0.588012,44.511642
Meublés,Non classé,Gîte de Louchats n°2065,28 allée des Bergeries,,,33125,LOUCHATS,+33 5 56 81 54 23,www.gites33.fr,Gîtes de France,3 épis (Gîtes de France),,,-0.588012,44.511642
Meublés,Non classé,Gîte n°1166,rue du Général de Gaulle,,,33290,LUDON-MEDOC,+33 5 56 81 54 23,www.gites33.fr,Gîtes de France,2 épis (Gîtes de France),Gîtes Bébé,,-0.604067,44.980965
Meublés,2 étoiles,Gîte de Lugasson,8 le Bourg,,,33760,LUGASSON,+33 5 56 81 54 23,www.gites33.fr,Gîtes de France,2 épis (Gîtes de France),,,-0.184868,44.751728
Meublés,2 étoiles,Gîte de Lafleur Terrien,Lafleur Terrien,,,33570,LUSSAC,+33 5 56 81 54 23,www.gites33.fr,Gîtes de France,2 épis (Gîtes de France),Gîtes Bébé,,-0.096263,44.94903
Meublés,Non classé,Gîte n°1020,Guittot,,,33460,MACAU,+33 5 56 81 54 23,www.gites33.fr,Gîtes de France,3 épis (Gîtes de France),,,-0.62816,44.9958
Meublés,Non classé,Gîte n°1151,Guittot,,,33460,MACAU,+33 5 56 81 54 23,www.gites33.fr,Gîtes de France,3 épis (Gîtes de France),,,-0.62816,44.9958
Meublés,Non classé,Gîte n°1192,Guittot,Château Guittot Fellonneau,,33460,MACAU,+33 5 56 81 54 23,www.gites33.fr,Gîtes de France,En cours de labellisation,,,-0.6288166,44.99589
Meublés,Non classé,Gîte n°4164,Moulin Borgne,,,33620,MARCENAIS,+33 5 56 81 54 23,www.gites33.fr,Gîtes de France,3 épis (Gîtes de France),Gîtes de France vignoble;Gîtes Bébé,,-0.33,45.07
Meublés,Non classé,Gîte n°4156,La Touille,,,33860,MARCILLAC,+33 5 56 81 54 23,www.gites33.fr,Gîtes de France,3 épis (Gîtes de France),,,-0.485472,45.25421
Meublés,3 étoiles,Gîte de Margueron n°4218,La Mousse,,,33220,MARGUERON,+33 5 56 81 54 23,www.gites33.fr,Gîtes de France,3 épis (Gîtes de France),Gîtes Bébé;Gîtes et Vélo,,0.264629,44.751606
Meublés,Non classé,Gîte de Margueron n°4209,,,,33220,MARGUERON,+33 5 56 81 54 23,www.gites33.fr,Gîtes de France,3 épis (Gîtes de France),Gîtes Bébé,,0.210935,44.81743
Meublés,4 étoiles,Les Monges,,,,33690,MARIONS,+33 5 56 65 00 80,www.lesmonges.fr.st,Gîtes de France,4 épis (Gîtes de France),Séjour bien-être;Gîtes Bébé,,-0.05444,44.414032
Meublés,Non classé,Gîte Le Cuvier,5-7 route de la Dîme,,,33650,MARTILLAC,+33 5 56 81 54 23,www.gites-de-france-gironde.com/gite-location-martillac-3-epis-sud-gironde-ruggiero-2101.html;http://www.gitelecuvier.free.fr,Gîtes de France,3 épis (Gîtes de France),Gîtes Bébé;Gîtes et Cheval,,-0.5514349,44.713528
Meublés,Non classé,Visit in Bordeaux,29 route de Mirebeau,,,33650,MARTILLAC,+33 5 56 72 58 68,www.bordeaux-location-appartement.com,Gîtes de France,2 épis (Gîtes de France),Gîtes Bébé;Taste vin,,-0.545328,44.71259
Meublés,Non classé,Chez Maria,5 le Bourg,,,33690,MASSEILLES,+33 5 56 81 54 23,www.gites33.fr,Gîtes de France,3 épis (Gîtes de France),Gîtes Bébé;Gîte écocitoyen,,-0.055376,44.40578
Meublés,Non classé,Gîte du Petit Rançon,allée Grand Rançon,,,33210,MAZERES,+33 5 56 81 54 23,www.gites33.fr,Gîtes de France,2 épis (Gîtes de France),Taste vin;Gîtes Bébé;Gîtes et Vélo,,-0.2520096,44.508717
Meublés,Non classé,Gîte de Mazion,12 le bourg,,,33390,MAZION,+33 5 56 81 54 23,www.gites33.fr,Gîtes de France,4 épis (Gîtes de France),Charme Gîtes de France;Gîtes Bébé;Séjour bien-être,,-0.6169987,45.188534
Meublés,Non classé,Gîte Bonneil ,11 rue Emile Combes,,,33700,MERIGNAC,+33 5 56 81 54 23,www.gites-de-france-gironde.com/gite-location-bordeaux-confort-pres-bordeaux-bonneil-5006.html,Gîtes de France,3 épis (Gîtes de France),City break Confort,,-0.6070733,44.836933
Meublés,2 étoiles,Le Benguey,,,,33350,MERIGNAS,+33 5 56 81 54 23,www.gites33.fr,Gîtes de France,2 épis (Gîtes de France),,,-0.087148,44.78388
Meublés,Non classé,Gîte de Mios,,,,33380,MIOS,+33 5 56 81 54 23,www.gites33.fr,Gîtes de France,2 épis (Gîtes de France),Gîtes Bébé;Gîtes et Cheval;Gîtes et Vélo,,-0.901976,44.62363
Meublés,Non classé,Gîte de Paulon,Paulon,,,33380,MIOS,+33 5 56 81 54 23,www.gites33.fr,Gîtes de France,2 épis (Gîtes de France),Gîtes Bébé,,-0.870147,44.64786
Meublés,Non classé,Gîte du Grand Plantier,Château du Grand Plantier,,,33410,MONPRIMBLANC,+33 5 56 81 54 23,www.gites33.fr,Gîtes de France,3 épis (Gîtes de France),Charme Gîtes de France;Gîtes de France vignoble;Gîtes Bébé,,-0.276075,44.6385
Meublés,Non classé,Gîte de Montussan,12 route des Mimosas,,,33450,MONTUSSAN,+33 5 56 81 54 23,www.gites33.fr,Gîtes de France,2 épis (Gîtes de France),Gîtes Bébé,,-0.416874,44.884205
Meublés,Non classé,Gîte La Croix,La Croix,,,33480,MOULIS-EN-MEDOC,+33 5 56 98 04 05,,Gîtes de France,2 épis (Gîtes de France),,,-0.797267,45.066616
Meublés,Non classé,Gîte de Lasserre,5 Lasserre,,,33420,MOULON,+33 5 57 51 79 62,http://5lasserre.com,Gîtes de France,5 épis (Gîtes de France),Séjour bien-être,,-0.227535,44.83851
Meublés,2 étoiles,Gîte de Naujac,8 rue de Taste Corneille,,,33990,NAUJAC-SUR-MER,+33 5 56 73 00 16,,Gîtes de France,2 épis (Gîtes de France),,,-1.0527858,45.300262
Meublés,2 étoiles,Gîte La Jauguette,Le Pin Sec,,,33990,NAUJAC-SUR-MER,+33 5 56 81 54 23,www.gites33.fr,Gîtes de France,2 épis (Gîtes de France),Gîtes Bébé;Gîtes et Vélo,,-1.162213,45.26739
Meublés,Non classé,Gîte Jean Petit,Le Pin Sec,,,33990,NAUJAC-SUR-MER,+33 5 56 81 54 23,www.gites33.fr,Gîtes de France,2 épis (Gîtes de France),Gîtes Bébé;Gîtes et Vélo,,-1.1433185,45.266956
Meublés,Non classé,Gîte Plaisance,Le Pin Sec,,,33990,NAUJAC-SUR-MER,+33 5 56 81 54 23,www.gites33.fr,Gîtes de France,2 épis (Gîtes de France),Gîtes Bébé;Gîtes et Vélo,,-1.1433185,45.266956
Meublés,Non classé,Gîte de Naujan-et-Postiac,Girolatte,,,33420,NAUJAN-ET-POSTIAC,+33 5 56 81 54 23,www.gites33.fr,Gîtes de France,3 épis (Gîtes de France),Gîtes Bébé,,-0.184338,44.79454
Meublés,Non classé,Les Vendangeurs,2 place de l'Eglise,,,33420,NAUJAN-ET-POSTIAC,+33 5 57 74 90 60,www.beau-sejour.net,Gîtes de France,3 épis (Gîtes de France),Gîtes Bébé,,-0.1859863,44.830536
Meublés,Non classé,Gîte de Noaillan n°2047,Le Château,,,33730,NOAILLAN,+33 5 56 81 54 23,www.gites33.fr,Gîtes de France,2 épis (Gîtes de France),Gîtes Bébé;Gîtes et Vélo,,-0.37,44.48
Meublés,Non classé,Gîte de Noaillan n°2097,1 Nané,,,33730,NOAILLAN,+33 5 56 81 54 23,www.gites33.fr,Gîtes de France,3 épis (Gîtes de France),Gîtes Bébé;Gîtes et Vélo;Gîtes Côté Jardin,,-0.352815,44.469006
Meublés,Non classé,Gîte d'Ordonnac n°1158,Lussan,,,33340,ORDONNAC,+33 5 56 81 54 23,www.gites33.fr,Gîtes de France,3 épis (Gîtes de France),,,-0.839957,45.299137
Meublés,Non classé,Gîte d'Ordonnac n°1159,Potensac,,,33340,ORDONNAC,+33 5 56 81 54 23,www.gites33.fr,Gîtes de France,2 épis (Gîtes de France),Gîtes Bébé,,-0.858889,45.306633
Meublés,Non classé,Gîte de Périssac,La Moulinasse,,,33240,PERISSAC,+33 5 56 81 54 23,www.gites33.fr,Gîtes de France,3 épis (Gîtes de France),,,-0.315271,45.03138
Meublés,Non classé,Gîte n°4221,4 Guérin,,,33240,PERISSAC,+33 5 56 81 54 23,www.gites33.fr,Gîtes de France,3 épis (Gîtes de France),Gîtes Bébé,,-0.313159,45.016907
Meublés,Non classé,Le Clos du Lavoir,25 Lamothe,,,33570,PETIT-PALAIS-ET-CORNEMPS,+33 5 56 81 54 23,www.gites33.fr,Gîtes de France,2 épis (Gîtes de France),Gîtes Bébé,,-0.0773912,44.99944
Meublés,Non classé,Gîte n°4171,3 La Rayre,,,33220,PINEUILH,+33 5 56 81 54 23,www.gites33.fr,Gîtes de France,3 épis (Gîtes de France),Gîtes Bébé;Bienvenue aux motards,,0.231185,44.80046
Meublés,Non classé,Gîte n°4174,3 La Rayre,,,33220,PINEUILH,+33 5 56 81 54 23,www.gites33.fr,Gîtes de France,3 épis (Gîtes de France),Gîtes Bébé;Bienvenue aux motards,,0.231185,44.80046
Meublés,Non classé,Gîte n°4189,3 La Rayre,,,33220,PINEUILH,+33 5 56 81 54 23,www.gites33.fr,Gîtes de France,3 épis (Gîtes de France),Gîtes Bébé;Bienvenue aux motards,Handicap mental;Handicap moteur,0.231185,44.80046
Meublés,Non classé,Gîte de Plassac,Montuzet,,,33390,PLASSAC,+33 5 56 81 54 23,www.gites33.fr,Gîtes de France,3 épis (Gîtes de France),Gîtes de France vignoble,,-0.628406,45.10297
Meublés,Non classé,Gîte La Ferme Rose,chemin de Bon Ange,,,33370,POMPIGNAC,+33 5 56 81 54 23,www.gites33.fr,Gîtes de France,3 épis (Gîtes de France),Charme Gîtes de France,,-0.4121234,44.85715
Meublés,Non classé,La Villa Saint-Hilaire,1 Placot Tardieu,,,33640,PORTETS,+33 5 56 81 54 23,www.gites33.fr,Gîtes de France,3 épis (Gîtes de France),Charme Gîtes de France,,-0.42,44.7
Meublés,Non classé,Gîte n°4115,5 chemin de Christoly,,,33710,PRIGNAC-ET-MARCAMPS,+33 5 56 81 54 23,www.gites33.fr,Gîtes de France,2 épis (Gîtes de France),Gîtes Bébé;Gîtes et Vélo,,-0.494182,45.03064
Meublés,Non classé,Gîte n°4188,22 chemin du Puy,,,33710,PRIGNAC-ET-MARCAMPS,+33 5 56 81 54 23,www.gites33.fr,Gîtes de France,3 épis (Gîtes de France),Gîtes Bébé;Gîtes et Vélo,,-0.486214,45.0252
Meublés,Non classé,Gîte n°4222,16 Rabot,,,33710,PUGNAC,+33 5 56 81 54 23,www.gites33.fr,Gîtes de France,2 épis (Gîtes de France),,,-0.482612,45.081432
Meublés,Non classé,La Maison de Pradier,1 Pradier,,,33710,PUGNAC,+33 5 56 81 54 23,www.gites33.fr,Gîtes de France,4 épis (Gîtes de France),Charme Gîtes de France;Gîtes Bébé,,-0.504556,45.072876
Meublés,Non classé,Gîte de Puisseguin,Gironde 2,,,33570,PUISSEGUIN,+33 5 56 81 54 23,www.gites33.fr,Gîtes de France,2 épis (Gîtes de France),Gîtes Bébé,,-0.073293,44.917564
Meublés,Non classé,Gîte du Château Guibeau,Château Guibeau,,,33570,PUISSEGUIN,+33 5 56 81 54 23,www.gites33.fr,Gîtes de France,3 épis (Gîtes de France),Gîtes Bébé,Handicap auditif;Handicap mental;Handicap visuel,-0.0588463,44.943153
Meublés,Non classé,Le Clos de l'Eglise,41 bis le Bourg,,,33570,PUISSEGUIN,+33 5 56 81 54 23,www.gites33.fr,Gîtes de France,4 épis (Gîtes de France),Gîtes Bébé,,-0.072549,44.923344
Meublés,3 étoiles,A la Grande Maison,rue du Stade,,,33350,PUJOLS,+33 5 56 81 54 23,www.gites33.fr,Gîtes de France,3 épis (Gîtes de France),Gîtes Bébé;Séjour bien-être;Gîte écocitoyen;Gîtes et Vélo;Bienvenue aux motards,,-0.033798,44.80341
Meublés,Non classé,Les Pampres,4 Fourcat,,,33350,PUJOLS,+33 5 56 81 54 23,www.gites33.fr,Gîtes de France,2 épis (Gîtes de France),Gîtes Bébé,,-0.0435604,44.806892
Meublés,Non classé,Gîte de Pujols-sur-Ciron n°2073,18 route de la Vierge,,,33210,PUJOLS-SUR-CIRON,+33 5 56 81 54 23,www.gites33.fr,Gîtes de France,2 épis (Gîtes de France),Gîtes et Vélo,,-0.353592,44.562687
Meublés,Non classé,Gîte de Pujols-sur-Ciron n°2074,18 route de la Vierge,,,33210,PUJOLS-SUR-CIRON,+33 5 56 81 54 23,www.gites33.fr,Gîtes de France,2 épis (Gîtes de France),Gîtes et Vélo,,-0.353592,44.562687
Meublés,3 étoiles,Gîte du Moulin de Varaillon,15 chemin du Moulin,,,33340,QUEYRAC,+33 5 56 81 54 23,www.gites33.fr,Gîtes de France,3 épis (Gîtes de France),Gîtes Bébé;Gîtes et Vélo;Charme Gîtes de France;Gîte écocitoyen,,-0.9921474,45.363987
Meublés,Non classé,Gîte Seurin ,35 route des Ourmes,,,33340,QUEYRAC,+33 5 56 81 54 23,www.gites33.fr,Gîtes de France,2 épis (Gîtes de France),,,-1.0059229,45.34206
Meublés,Non classé,La Cabane de Beauchamps,101 chemin de Beauchamps,,,33360,QUINSAC,+33 5 56 81 54 23,www.gites33.fr,Gîtes de France,3 épis (Gîtes de France),Gîtes et Vélo;Gîtes Bébé,,-0.470994,44.753067
Meublés,3 étoiles,La Grangeotte des Vignes,La Grangeotte,,,33420,RAUZAN,+33 5 56 81 54 23,www.gites33.fr,Gîtes de France,3 épis (Gîtes de France),Gîtes Bébé;Gîtes de France vignoble,,-0.1340447,44.77798
Meublés,Non classé,La Tour des Cabernets,Château Villotte,,,33420,RAUZAN,+33 5 56 81 54 23,www.gites33.fr,Gîtes de France,3 épis (Gîtes de France),Gîte au Château;Gîtes Bébé;Gîtes de France vignoble,,-0.1113224,44.777477
Meublés,Non classé,Gîte de la Baraque,1, la Baraque,,,33860,REIGNAC,+33 5 56 81 54 23,www.gites33.fr,Gîtes de France,2 épis (Gîtes de France),Hébergement à la ferme,,-0.55361,45.233974
Meublés,Non classé,Gîte de Rimons,Le Bourg Nord,,,33580,RIMONS,+33 5 56 81 54 23,www.gites33.fr,Gîtes de France,2 épis (Gîtes de France),Gîtes Bébé,,0.004121,44.671967
Meublés,Non classé,La Tour de Rimons,le Bourg,,,33580,RIMONS,+33 5 56 81 54 23,www.gites33.fr,Gîtes de France,2 épis (Gîtes de France),,,0.0041212,44.671967
Meublés,Non classé,Rimons Nord n°49,le Bourg,,,33580,RIMONS,+33 5 56 81 54 23,www.gites33.fr,Gîtes de France,3 épis (Gîtes de France),,,0.0041212,44.671967
Meublés,Non classé,Rimons Nord n°50,le Bourg,,,33580,RIMONS,+33 5 56 81 54 23,www.gites33.fr,Gîtes de France,3 épis (Gîtes de France),,,0.0041212,44.671967
Meublés,Non classé,Rimons Sud n°3,le Bourg,,,33580,RIMONS,+33 5 56 81 54 23,www.gites33.fr,Gîtes de France,3 épis (Gîtes de France),,,0.0041212,44.671967
Meublés,Non classé,Rimons Sud n°4,le Bourg,,,33580,RIMONS,+33 5 56 81 54 23,www.gites33.fr,Gîtes de France,3 épis (Gîtes de France),,,0.0041212,44.671967
Meublés,Non classé,Domaine de Martet,,,,33410,RIONS,+33 5 56 81 54 23,www.gites33.fr,Gîtes de France,2 épis (Gîtes de France),Gîtes Bébé,,-0.276075,44.6385
Meublés,Non classé,Domaine des Salins,,,,33410,RIONS,+33 5 56 81 54 23,www.gites33.fr,Gîtes de France,3 épis (Gîtes de France),Gîtes Bébé;Gîtes de France vignoble;Gîtes et Cheval,,-0.276075,44.6385
Meublés,Non classé,Gîte de Roquebrune,le Bourg,,,33580,ROQUEBRUNE,+33 5 56 81 54 23,www.gites33.fr,Gîtes de France,3 épis (Gîtes de France),Gîtes Bébé,,0.022543,44.629364
Meublés,Non classé,Gîte de l'Estebot,L'Estebot,,,33350,RUCH,+33 5 57 40 75 86;+33 5 56 81 54 23,www.gite-lestebot-gironde.com;www.gites33.fr,Gîtes de France,2 épis (Gîtes de France),Gîtes Bébé,,-0.0236078,44.766968
Meublés,Non classé,Gîte de Ruch,Guillon,,,33350,RUCH,+33 5 56 81 54 23,www.gites33.fr,Gîtes de France,2 épis (Gîtes de France),,,-0.028606,44.789173
Meublés,Non classé,Le Prieuré de Mouquet,6 chemin de Mouquet,,,33670,SADIRAC,+33 5 56 23 26 57,www.prieure-de-mouquet.com,Gîtes de France,3 épis (Gîtes de France),Gîtes Bébé;Gîtes et Vélo,,-0.35949,44.781334
Meublés,Non classé,Gîte n°4192,Bicot,,,33126,SAINT-AIGNAN,+33 5 56 81 54 23,www.gites33.fr,Gîtes de France,3 épis (Gîtes de France),Gîtes Bébé,,-0.307073,44.94797
Meublés,Non classé,Gîte de Pineau,125, chemin de Pineau,,,33240,SAINT-ANDRE-DE-CUBZAC,+33 5 56 81 54 23,www.gites33.fr,Gîtes de France,2 épis (Gîtes de France),Gîtes Bébé,,-0.4636252,45.006184
Meublés,Non classé,Gîte n°4123,Bois Milon,,,33240,SAINT-ANDRE-DE-CUBZAC,+33 5 56 81 54 23,www.gites33.fr,Gîtes de France,1 épi (Gîtes de France),Gîtes Bébé,,-0.430904,44.987946
Meublés,Non classé,Gîte n°4165,Château Peyrot Rigaud,,,33240,SAINT-ANDRE-DE-CUBZAC,+33 5 56 81 54 23,www.gites33.fr,Gîtes de France,3 épis (Gîtes de France),Charme Gîtes de France;Gîtes Bébé,,-0.443556,44.99453
Meublés,Non classé,Gîte de Saint-André-du-Bois,Jardinet,,,33490,SAINT-ANDRE-DU-BOIS,+33 5 56 81 54 23,www.gites33.fr,Gîtes de France,2 épis (Gîtes de France),Gîtes Bébé;Hébergement à la ferme,,-0.176684,44.615543
Meublés,Non classé,Gîte de Saint-Aubin-de-Branne,La Hâge,,,33420,SAINT-AUBIN-DE-BRANNE,+33 5 56 81 54 23,www.gites33.fr,Gîtes de France,2 épis (Gîtes de France),Gîtes Bébé,,-0.178475,44.817886
Meublés,Non classé,Gîte Le Courtil,Meyney,,,33420,SAINT-AUBIN-DE-BRANNE,+33 5 56 81 54 23,www.gites33.fr,Gîtes de France,2 épis (Gîtes de France),Gîtes et Vélo;Gîtes Bébé,,-0.1760912,44.803726
Meublés,Non classé,La Maison Bleue,La Hâge,,,33420,SAINT-AUBIN-DE-BRANNE,+33 5 56 81 54 23,www.gites33.fr,Gîtes de France,3 épis (Gîtes de France),Gîtes et Vélo;Gîtes Bébé,,-0.178475,44.817886
Meublés,2 étoiles,Gîte du Château du Bru,Château du Bru,1 Grande Font,,33220,SAINT-AVIT-SAINT-NAZAIRE,+33 5 56 81 54 23,www.gites33.fr,Gîtes de France,2 épis (Gîtes de France),,,0.260248,44.85053
Meublés,Non classé,Penot,Penot,,,33540,SAINT-BRICE,+33 5 56 81 54 23,www.gites33.fr,Gîtes de France,2 épis (Gîtes de France),,,-0.142357,44.700497
Meublés,Non classé,Gîte Darrieu ,6 Les Quints,,,33920,SAINT-CHRISTOLY-DE-BLAYE,+33 5 57 42 57 25,,Gîtes de France,2 épis (Gîtes de France),,,-0.519546,45.123882
Meublés,Non classé,Gîte de l'Etang,L'Etang,,,33920,SAINT-CHRISTOLY-DE-BLAYE,+33 5 56 81 54 23,http://www.gites-de-france-gironde.com/gite-location-saint-christoly-de-blaye-2-epis-haute-gironde-lacaussague-4129.html,Gîtes de France,2 épis (Gîtes de France),Gîtes Bébé,,-0.507082,45.127586
Meublés,Non classé,Gîte de Saint-Christophe-des-Bardes,4 Haut Lavallade,,,33330,SAINT-CHRISTOPHE-DES-BARDES,+33 5 56 81 54 23,www.gites33.fr,Gîtes de France,3 épis (Gîtes de France),Gîtes Bébé,,-0.122217,44.89722
Meublés,Non classé,Gîte n°4162,Sarpe,,,33330,SAINT-CHRISTOPHE-DES-BARDES,+33 5 56 81 54 23,www.gites33.fr,Gîtes de France,3 épis (Gîtes de France),Gîtes Bébé,,-0.142354,44.881958
Meublés,Non classé,Gîte n°4195,2 Toynet,,,33330,SAINT-CHRISTOPHE-DES-BARDES,+33 5 56 81 54 23,www.gites33.fr,Gîtes de France,3 épis (Gîtes de France),Charme Gîtes de France;Gîtes Bébé;Gîtes et Vélo,,-0.1,44.88
Meublés,Non classé,Gîte n°4206,Robin,,,33330,SAINT-CHRISTOPHE-DES-BARDES,+33 5 56 81 54 23,www.gites33.fr,Gîtes de France,3 épis (Gîtes de France),Gîtes Bébé,,-0.113801,44.90353
Meublés,Non classé,Gîte de la Maison de Bujean,1 bis Bujean,,,33710,SAINT-CIERS-DE-CANESSE,+33 5 56 81 54 23,www.gites33.fr,Gîtes de France,4 épis (Gîtes de France),Charme Gîtes de France;Gîtes Bébé;Séjour bien-être;Gîtes de France vignoble,,-0.601467,45.074905
Meublés,Non classé,Gîte de Saint-Denis-de-Pile,La Luzerniere,Dallau,6 route de Lamarche,33910,SAINT-DENIS-DE-PILE,+33 5 56 81 54 23,www.gites33.fr,Gîtes de France,3 épis (Gîtes de France),Gîtes Bébé,,-0.175258,44.971775
Meublés,Non classé,Gîte de Moya,Château Moya,Pereyre,,33350,SAINTE-COLOMBE,+33 5 56 81 54 23,www.gites33.fr,Gîtes de France,3 épis (Gîtes de France),,,-0.0688824,44.878494
Meublés,Non classé,Château Beausite,1931 rue de la Tour Gueyreau,,,33560,SAINTE-EULALIE,+33 5 56 06 05 74;+33 5 56 52 19 20,,Gîtes de France,2 épis (Gîtes de France),Gîtes Bébé,,-0.48,44.92
Meublés,Non classé,Gîte de Sainte-Eulalie,74, avenue Gustave Eiffel,,,33560,SAINTE-EULALIE,+33 5 56 81 54 23,www.gites33.fr,Gîtes de France,3 épis (Gîtes de France),Gîtes Bébé;Gîtes Côté Jardin,,-0.484569,44.898518
Meublés,Non classé,Château Beausite,1931 rue de la Tour Gueyreau,,,33560,SAINTE-EULALIE,+33 5 56 06 05 74;+33 5 56 52 19 20,,Gîtes de France,2 épis (Gîtes de France),Gîtes Bébé,,-0.48,44.92
Meublés,Non classé,Gîte Damiselle,Château de Damis,,,33490,SAINTE-FOY-LA-LONGUE,+33 5 56 81 54 23,www.gites33.fr,Gîtes de France,3 épis (Gîtes de France),Gîtes Bébé;Gîtes et Vélo,,-0.130633,44.61388
Meublés,Non classé,Peydoucet,Peydoucet-Beaulieu,,,33490,SAINTE-FOY-LA-LONGUE,+33 5 56 81 54 23,www.gites33.fr,Gîtes de France,3 épis (Gîtes de France),Gîtes Bébé;Gîtes et Vélo,,-0.1659965,44.596825
Meublés,2 étoiles,Gîte de Sainte-Hélène,11 Sadouillan,,,33480,SAINTE-HELENE,+33 5 56 81 54 23,www.gites33.fr;http://lecourtiou.jimdo.com,Gîtes de France,2 épis (Gîtes de France),Gîtes Bébé;Gîtes et Cheval;Gîtes et Vélo,,-0.8591962,44.98497
Meublés,3 étoiles,Gîte Le Courtiou,11 Sadouillan,,,33480,SAINTE-HELENE,+33 5 56 81 54 23,www.gites33.fr;http://lecourtiou.jimdo.com,Gîtes de France,3 épis (Gîtes de France),Gîtes Bébé;Gîtes et Cheval;Gîtes et Vélo,Handicap mental;Handicap moteur,-0.8591962,44.98497
Meublés,Non classé,Gîte Castaing,Le Grand Ludée,,,33480,SAINTE-HELENE,+33 5 56 58 10 92,,Gîtes de France,1 épi (Gîtes de France),,,-0.934593,45.01018
Meublés,Non classé,Gîte de Fortin,Fortin,,,33330,SAINT-EMILION,+33 5 56 81 54 23,www.gites33.fr,Gîtes de France,3 épis (Gîtes de France),Charme Gîtes de France;Gîtes Bébé,,-0.181195,44.914093
Meublés,Non classé,Gîte du Port,avenue du Littoral,,,33180,SAINT-ESTEPHE,+33 5 56 81 54 23,www.gites33.fr,Gîtes de France,2 épis (Gîtes de France),,,-0.7717756,45.26475
Meublés,Non classé,Gîte Prat ,Lavagnac,,,33350,SAINTE-TERRE,+33 5 57 47 13 74,,Gîtes de France,3 épis (Gîtes de France),,,-0.133729,44.82215
Meublés,Non classé,Gîte de Saint-Félix-de-Foncaude,3 chez Ducos,,,33540,SAINT-FELIX-DE-FONCAUDE,+33 5 56 81 54 23,www.gites33.fr,Gîtes de France,3 épis (Gîtes de France),Gîtes Bébé,,-0.098513,44.648544
Meublés,Non classé,Gîte de Montval,12 route de Los,,,33670,SAINT-GENES-DE-LOMBAUD,+33 5 56 81 54 23,www.gites33.fr,Gîtes de France,3 épis (Gîtes de France),Gîtes Bébé,Handicap auditif;Handicap mental;Handicap moteur,-0.39213,44.74299
Meublés,Non classé,Gîte de Saint-Germain-d'Esteuil n°22,,,,33340,SAINT-GERMAIN-D'ESTEUIL,+33 5 56 09 02 07,,Gîtes de France,2 épis (Gîtes de France),Gîtes Bébé,,-0.894869,45.32131
Meublés,Non classé,Gîte de Saint-Germain-d'Esteuil n°23,,,,33340,SAINT-GERMAIN-D'ESTEUIL,+33 5 56 09 02 07,,Gîtes de France,2 épis (Gîtes de France),Gîtes Bébé,,-0.894869,45.32131
Meublés,Non classé,Gîte de Saint-Germain-d'Esteuil n°24,,,,33340,SAINT-GERMAIN-D'ESTEUIL,+33 5 56 09 02 07,,Gîtes de France,2 épis (Gîtes de France),Gîtes Bébé,,-0.894869,45.32131
Meublés,Non classé,Gîte de Saint-Germain-d'Esteuil n°25,,,,33340,SAINT-GERMAIN-D'ESTEUIL,+33 5 56 09 02 07,,Gîtes de France,2 épis (Gîtes de France),Gîtes Bébé,,-0.894869,45.32131
Meublés,2 étoiles,Gîte de la Crémallière,2 les Erits,,,33920,SAINT-GIRONS-D'AIGUEVIVES,+33 5 56 81 54 23,www.gites33.fr,Gîtes de France,2 épis (Gîtes de France),Gîtes Bébé;Gîtes Côté Jardin,,-0.5336792,45.13813
Meublés,Non classé,Gîte des Grands Sables,Les Grands Sables,,,33330,SAINT-HIPPOLYTE,+33 5 56 81 54 23,www.gites33.fr,Gîtes de France,2 épis (Gîtes de France),,,-0.125831,44.880764
Meublés,Non classé,Gîte n°4141,Billeron,,,33330,SAINT-HIPPOLYTE,+33 5 56 81 54 23,www.gites33.fr,Gîtes de France,2 épis (Gîtes de France),,,-0.123821,44.864616
Meublés,4 étoiles,La Désirade,9 route de Cablanc,,,33240,SAINT-LAURENT-D'ARCE,+33 5 56 81 54 23,www.gites33.fr,Gîtes de France,4 épis (Gîtes de France),Gîtes Bébé;Charme Gîtes de France,,-0.4681451,45.03465
Meublés,Non classé,Gîte Château de la Barde,Château de la Barde,,,33330,SAINT-LAURENT-DES-COMBES,+33 5 56 81 54 23,www.gites33.fr,Gîtes de France,3 épis (Gîtes de France),Gîte au Château;Gîtes Bébé;Gîtes et Vélo,,-0.113384,44.85789
Meublés,3 étoiles,Gîte de Saint-Loubès,Barbeyrat,,,33450,SAINT-LOUBES,+33 5 56 81 54 23,www.gites33.fr,Gîtes de France,3 épis (Gîtes de France),Gîtes Bébé,,-0.392191,44.91011
Meublés,Non classé,Gîte Boulet ,15 chemin de Ferran,,,33450,SAINT-LOUBES,+33 6 79 69 38 26,,Gîtes de France,4 épis (Gîtes de France),Gîtes Bébé;Gîtes et Vélo,,-0.4426702,44.8942
Meublés,Non classé,Château La Lande Saint-Jean,10 chemin de Terrefort,,,33450,SAINT-LOUBES,+33 5 56 38 00 06,www.chateau-lalande-stjean.blogspot.com,Gîtes de France,2 épis (Gîtes de France),Gîtes Bébé,,-0.451773,44.905556
Meublés,3 étoiles,Gîte de l'Aliénor,2 rue Gaston Bourceau,,,33440,SAINT-LOUIS-DE-MONTFERRAND,+33 5 56 81 54 23,www.gites33.fr,Gîtes de France,3 épis (Gîtes de France),,,-0.5375785,44.98332
Meublés,Non classé,Gîte Château Peyau Plantagenet,Lieu dit Gereyme,,,33440,SAINT-LOUIS-DE-MONTFERRAND,+33 5 56 81 54 23,www.gites33.fr,Gîtes de France,3 épis (Gîtes de France),,,-0.5345372,44.95299
Meublés,Non classé,Gîte Lamaud,Récappé,,,33620,SAINT-MARIENS,+33 5 57 68 64 03,http://raymondepierrelamaud.unblog.fr/,Gîtes de France,2 épis (Gîtes de France),,,-0.418873,45.11954
Meublés,Non classé,Gîte Petit Verdot,7 Malfard,,,33910,SAINT-MARTIN-DE-LAYE,+33 5 56 81 54 23,www.gites33.fr,Gîtes de France,3 épis (Gîtes de France),Gîtes Bébé,,-0.2266667,45.03611
Meublés,Non classé,Gîte Semillon,7 bis Malfard,,,33910,SAINT-MARTIN-DE-LAYE,+33 5 56 81 54 23,www.gites33.fr,Gîtes de France,3 épis (Gîtes de France),Gîtes Bébé,,-0.235594,45.01344
Meublés,Non classé,Le Papillon Bleu,Les Gabauriauds,,,33540,SAINT-MARTIN-DE-LERM,+33 5 57 31 07 12,,Gîtes de France,3 épis (Gîtes de France),Gîtes Bébé,,-0.0438809,44.63933
Meublés,2 étoiles,Gîte de Saint-Martin-du-Bois n°12,Le Bourg,,,33910,SAINT-MARTIN-DU-BOIS,+33 5 57 84 71 33;+33 5 57 49 46 78,,Gîtes de France,2 épis (Gîtes de France),,,-0.2066039,44.99288
Meublés,Non classé,Gîte de Saint-Martin-du-Bois n°4239,Terrien,,,33910,SAINT-MARTIN-DU-BOIS,+33 5 56 81 54 23,www.gites33.fr,Gîtes de France,2 épis (Gîtes de France),Gîtes Bébé,,-0.266737,45.003002
Meublés,Non classé,Gîte de Saint-Michel-de-Castelnau,,,,33840,SAINT-MICHEL-DE-CASTELNAU,+33 5 56 81 54 23,www.gites33.fr,Gîtes de France,3 épis (Gîtes de France),,,-0.214869,44.28886
Meublés,Non classé,La Grange de l'Abbé Rambaud,16 le Bourg,,,33126,SAINT-MICHEL-DE-FRONSAC,+33 5 56 81 54 23,www.gites33.fr,Gîtes de France,2 épis (Gîtes de France),Gîtes Bébé,,-0.3017303,44.92954
Meublés,Non classé,La Ferme de Marie,485 lieu-dit Pitan,,,33650,SAINT-MORILLON,+33 5 56 81 54 23,www.gites33.fr,Gîtes de France,4 épis (Gîtes de France),Gîtes de France vignoble;Gîtes et Vélo;Gîtes Bébé,,-0.5007843,44.64126
Meublés,Non classé,Gîte du Grand Capron,Grand Capron,,,33390,SAINT-PAUL,+33 6 89 89 63 30,,Gîtes de France,2 épis (Gîtes de France),Gîtes Bébé,,-93.113888,44.954166
Meublés,Non classé,Gîte n°4175,Château Cablanc,Loustalet,,33350,SAINT-PEY-DE-CASTETS,+33 5 56 81 54 23,www.gites33.fr,Gîtes de France,4 épis (Gîtes de France),Charme Gîtes de France;Gîtes de France vignoble;Gîtes Bébé,,-0.077746,44.802567
Meublés,Non classé,Domaine de la Houze,,,,33350,SAINT-PEY-DE-CASTETS,+33 5 57 40 53 22,,Gîtes de France,2 épis (Gîtes de France),Gîtes Bébé,,-0.05,44.82
Meublés,2 étoiles,Gîte Le Havre du Vignoble,4 Parichon,,,33350,SAINT-PHILIPPE-D'AIGUILLE,+33 5 57 40 68 33,www.lehavreduvignoble.com,Gîtes de France,2 épis (Gîtes de France),Bienvenue aux motards,,-0.030998,44.912537
Meublés,Non classé,Gîte de Saint-Pierre-d'Aurillac n°60,3 route des Bords de Garonne,,,33490,SAINT-PIERRE-D'AURILLAC,+33 5 56 63 30 27,,Gîtes de France,1 épi (Gîtes de France),,,-0.18,44.57
Meublés,Non classé,Gîte de Saint-Pierre-d'Aurillac n°61,3 route des Bords de Garonne,,,33490,SAINT-PIERRE-D'AURILLAC,+33 5 56 63 30 27,,Gîtes de France,1 épi (Gîtes de France),,,-0.191907,44.57175
Meublés,Non classé,Gîte de Saint-Pierre-d'Aurillac n°62,3 route des Bords de Garonne,,,33490,SAINT-PIERRE-D'AURILLAC,+33 5 56 63 30 27,,Gîtes de France,1 épi (Gîtes de France),,,-0.191907,44.57175
Meublés,Non classé,Gîte de Saint-Pierre-d'Aurillac n°63,3 route des Bords de Garonne,,,33490,SAINT-PIERRE-D'AURILLAC,+33 5 56 63 30 27,,Gîtes de France,1 épi (Gîtes de France),,,-0.191907,44.57175
Meublés,Non classé,Gîte de Saint-Pierre-d'Aurillac n°64,3 route des Bords de Garonne,,,33490,SAINT-PIERRE-D'AURILLAC,+33 5 56 63 30 27,,Gîtes de France,1 épi (Gîtes de France),,,-0.191907,44.57175
Meublés,Non classé,Gîte Les Arrocs,Les Arrocs,,,33490,SAINT-PIERRE-D'AURILLAC,+33 5 56 81 54 23,www.gites33.fr,Gîtes de France,3 épis (Gîtes de France),Gîtes Bébé;Gîtes et Vélo,,-0.1805219,44.569263
Meublés,Non classé,Gîte Cazadebat,7 chemin de Guiche Arnaud,,,33760,SAINT-PIERRE-DE-BAT,+33 5 56 81 54 23,www.gites33.fr,Gîtes de France,3 épis (Gîtes de France),Gîtes Bébé,,-0.2363496,44.671055
Meublés,Non classé,Gîte Les Rouqueys,6 route du Petit Luc,,,33760,SAINT-PIERRE-DE-BAT,+33 5 56 81 54 23,www.gites33.fr,Gîtes de France,3 épis (Gîtes de France),Gîtes Bébé;Gîtes et Vélo,,-0.2357557,44.676926
Meublés,3 étoiles,Gîte Le Papillon,7 Sauvage,,,33210,SAINT-PIERRE-DE-MONS,+ 33 5 57 31 07 12,http://www.gites-de-france-gironde.com/gite-location-saint-pierre-de-mons-3-epis-entre-deux-mers-yon-G3177.html,Gîtes de France,3 épis (Gîtes de France),Gîtes Bébé;Gîtes et Vélo,,-0.2100062,44.554363
Meublés,Non classé,Gîte Faure ,6 chemin de Niotet,,,33240,SAINT-ROMAIN-LA-VIRVEE,+33 5 57 58 21 52,,Gîtes de France,2 épis (Gîtes de France),,,-0.400853,44.96564
Meublés,Non classé,Gîte du château Liversan,1 route de Fontpiqueyre,,,33250,SAINT-SAUVEUR,+33 5 56 81 54 23,www.gites33.fr,Gîtes de France,3 épis (Gîtes de France),Gîte au Château,,-0.8129108,45.20169
Meublés,Non classé,Gîte de la Verrerie,3 La Verrerie,,,33920,SAINT-SAVIN,+33 5 56 81 54 23,www.gites33.fr,Gîtes de France,3 épis (Gîtes de France),Gîtes Bébé,,-0.413537,45.194805
Meublés,Non classé,Gîte de Margaux,route de Cavignac,Guérin,,33920,SAINT-SAVIN,+33 5 56 81 54 23,www.gites33.fr,Gîtes de France,3 épis (Gîtes de France),Gîtes Bébé,Handicap auditif;Handicap mental;Handicap moteur,-0.476497,45.139584
Meublés,Non classé,Gîte de Saint-Emilion,route de Cavignac,Guérin,,33920,SAINT-SAVIN,+33 5 56 81 54 23,www.gites33.fr,Gîtes de France,3 épis (Gîtes de France),Gîtes Bébé,,-0.476497,45.139584
Meublés,Non classé,Gîte de Saint-Savin,Brochet,,,33920,SAINT-SAVIN,+33 5 56 81 54 23,www.gites33.fr,Gîtes de France,2 épis (Gîtes de France),,,-0.476497,45.139584
Meublés,Non classé,Gîte au Canton,,,,33190,SAINT-SEVE,+33 5 56 81 54 23,www.gites33.fr,Gîtes de France,2 épis (Gîtes de France),,,-0.02528,44.610107
Meublés,Non classé,Gîte de l'Airial de Lous Crabeys,Les Crabeys,,,33113,SAINT-SYMPHORIEN,+33 5 56 81 54 23,www.gites33.fr,Gîtes de France,3 épis (Gîtes de France),Charme Gîtes de France;Gîtes Bébé,,-0.552203,44.46043
Meublés,Non classé,Les Jardins du Broy,Broy Sud 4,,,33113,SAINT-SYMPHORIEN,+33 5 56 25 74 46,www.jardins-de-broy.com,Gîtes de France,3 épis (Gîtes de France),Ecogîte;Gîte écocitoyen;Gîtes Bébé,,-0.56308,44.44603
Meublés,Non classé,Gîtes de Jouanhau,Jouanhau,,,33113,SAINT-SYMPHORIEN,+33 5 59 34 74 87,www.gites-de-jouanhau.fr,Gîtes de France,3 épis (Gîtes de France),Gîtes Bébé;Gîtes et Cheval,,-0.491023,44.409096
Meublés,Non classé,Gîte n°4235,Mercier,,,33710,SAINT-TROJAN,+33 5 56 81 54 23,www.gites33.fr,Gîtes de France,3 épis (Gîtes de France),Gîtes de France vignoble;Gîtes Bébé,,-0.5913334,45.09377
