TYPE,CATEGORIE,RAISON_SOCIALE,ADRESSE,ADRESSE_SUITE,CODE_POSTAL,COMMUNE,TEL__INFORMATIONS,SITE_WEB,CHAINES,CLASSEMENT_LOGIS,LABELS,TOURISME_ET_HANDICAP,LONGITUDE,LATITUDE
Hôtel - Restaurant,3 étoiles,Hôtel Campanile Bordeaux Saint-Jean,6-8 rue Charles Domercq,,33800,BORDEAUX,+33 5 56 02 00 02,www.campanile-bordeaux-centre-gare-saint-jean.fr,Campanile,,,Handicap auditif;Handicap mental;Handicap moteur;Handicap visuel,-0.5553309,44.828823
Hôtel - Restaurant,3 étoiles,Hôtel Ibis Bordeaux Centre Mériadeck,35 cours du Maréchal Juin,,33000,BORDEAUX,+33 5 56 90 74 00;+33 5 56 96 24 96,www.ibishotel.com/fr/hotel-0950-ibis-bordeaux-centre-meriadeck/index.shtml,Ibis,,,,-0.584894,44.83556
Hôtel - Restaurant,3 étoiles,Hôtel Ibis Bordeaux Centre Bastide,16 rue Serr,,33100,BORDEAUX,+33 5 57 30 00 90,www.ibishotel.com/fr/hotel-6177-ibis-bordeaux-centre-bastide/index.shtml,Ibis,,,Handicap auditif;Handicap mental;Handicap moteur;Handicap visuel,-0.559552,44.84272
Hôtel - Restaurant,3 étoiles,Inter-Hôtel Apolonia Bordeaux-Lac,Rue du Grand Barail,Quartier du Lac,33300,BORDEAUX,+33 5 56 50 50 00,www.hotelapolonia-bordeauxlac.com,Inter Hôtels,,,,-0.56446,44.889763
Hôtel - Restaurant,3 étoiles,Hôtel Ibis Bordeaux Le Lac,Rue du Grand Barail,Quartier du Lac,33300,BORDEAUX,+33 5 56 50 96 50,www.ibishotel.com/fr/hotel-0356-ibis-bordeaux-le-lac/index.shtml,Ibis,,Famille Plus;Qualité Tourisme,,-0.564512,44.89042
Hôtel - Restaurant,3 étoiles,Hôtel Le Provençal,Rue du Grand Barail,Quartier du Lac,33300,BORDEAUX,+33 5 56 50 39 73,www.leprovencal33.com,Logis,2 cheminées;1 cocotte,Qualité Tourisme,,-0.564512,44.89042
Hôtel - Restaurant,3 étoiles,All Seasons Bordeaux Mériadeck,Avenue du Général de Larminat,,33000,BORDEAUX,+33 5 56 24 01 39,www.all-seasons-hotels.com/fr/hotel-7368-all-seasons-bordeaux-meriadeck/index.shtml,All Seasons,,,,-0.593548,44.833393
Hôtel - Restaurant,3 étoiles,Hôtel Mercure Bordeaux-Lac,Rue du Grand Barail,Quartier du Lac,33300,BORDEAUX,+33 5 56 43 36 72,www.mercure.com/fr/hotel-0551-mercure-bordeaux-le-lac/index.shtml,Mercure,,Famille Plus,,-0.56446,44.889763
Hôtel - Restaurant,3 étoiles,Hôtel Alton,107 rue de la Pelouse de Douet,,33000,BORDEAUX,+33 5 56 99 55 55,www.hotel-alton.fr,Inter Hôtels,,Qualité Tourisme,,-0.608246,44.829422
Hôtel - Restaurant,4 étoiles,Hôtel Novotel Bordeaux-Lac,Avenue Jean-Gabriel Domergue,Quartier du Lac,33300,BORDEAUX,+33 5 56 43 65 00,www.novotel.com/fr/hotel-0403-novotel-bordeaux-le-lac/index.shtml,Novotel,,Famille Plus,,-0.567363,44.88897
Hôtel - Restaurant,4 étoiles,Hôtel Mercure Bordeaux Mériadeck,5 rue Robert Lateulade,,33000,BORDEAUX,+33 5 56 56 43 43,www.mercure.com/fr/hotel-1281-mercure-bordeaux-centre/index.shtml,Mercure,,Famille Plus;Qualité Tourisme,,-0.586146,44.838875
Hôtel - Restaurant,4 étoiles,Hôtel Mercure Cité Mondiale,18 parvis des Chartrons,,33000,BORDEAUX,+33 5 56 01 79 79,www.citemondiale.com,Mercure,,Famille Plus;Qualité Tourisme,,-0.570741,44.850105
Hôtel - Restaurant,4 étoiles,Hôtel Novotel Bordeaux Centre,45 cours du Maréchal Juin,,33000,BORDEAUX,+33 5 56 51 46 46,www.novotel.com/fr/hotel-1023-novotel-bordeaux-centre-meriadeck/index.sht,Novotel,,Famille Plus;Qualité Tourisme,Handicap mental;Handicap moteur,-0.584894,44.83556
Hôtel - Restaurant,4 étoiles,Hôtel Mercure Bordeaux Gare Saint-Jean,28-30 rue de Tauzia,,33800,BORDEAUX,+33 5 56 92 21 21,www.mercure.com/fr/hotel-7385-mercure-bordeaux-gare-saint-jean/index.shtml,Mercure,,,,-0.559601,44.829777
Hôtel - Restaurant,4 étoiles,Hôtel Pullman Bordeaux Aquitania,Avenue Jean-Gabriel Domergue,Quartier du Lac,33300,BORDEAUX,+33 5 56 69 66 66,www.pullmanhotels.com/fr/hotel-0669-pullman-bordeaux-aquitania/index.shtm,,,Famille Plus,,-0.567363,44.88897
Hôtel - Restaurant,4 étoiles,Hôtel Mercure Château Chartrons,81 cours Saint-Louis,,33300,BORDEAUX,+33 5 56 43 15 00,www.hotel-chateau-chartrons-bordeaux.fr,Mercure,,Famille Plus,,-0.569344,44.858955
Hôtel - Restaurant,5 étoiles,Grand Hôtel de Bordeaux & Spa,2-5 place de la Comédie,,33000,BORDEAUX,+33 5 57 30 44 44,www.theregentbordeaux.com,,,,,-0.5746,44.842506
Hôtel - Restaurant,5 étoiles,Hôtel Burdigala,115 rue Georges Bonnac,,33000,BORDEAUX,+33 5 56 90 16 16,www.burdigala.com,MGallery,,,,-0.58997,44.83851
Hôtel - Restaurant,Non classé,Hôtel Walien Chanterel,119-121 rue de la Benauge,,33100,BORDEAUX,+33 5 56 86 21 51,,,,,,-0.553496,44.84049
Hôtel - Restaurant,Non classé,Auberge Québécoise,93 rue Eugène Jacquet,,33000,BORDEAUX,+33 5 56 96 54 66,www.auberge-quebecoise-bordeaux.fr,,,,,-0.613559,44.825356
Hôtel - Restaurant,Non classé,Hôtel Les 3 Cardinaux,Avenue des Trois Cardinaux,,33300,BORDEAUX,+33 5 57 19 38 38,www.les-trois-cardinaux.com,,,,,-0.562499,44.876774
Hôtel,Non classé,Hôtel B & B Bordeaux Bruges,Z.A.C. de Fieusal,rue de Daugère,33520,BRUGES,+33 8 92 78 80 14,www.hotel-bb.com/detailhotels.phtml?hotelid=4403,B&B,,La Clef Verte,,-0.59436,44.88803
Hôtel - Restaurant,2 étoiles,Hôtel Detree,22 avenue du Pont,,33410,CADILLAC,+33 5 56 62 65 38,,,,,,-0.323163,44.63631
Hôtel - Restaurant,3 étoiles,Hôtel du Château de La Tour,Route Départementale 10,Béguey,33410,CADILLAC,+33 5 56 76 92 00,www.hotel-restaurant-chateaudelatour.com,Châteaux et Hôtels Collection,,,,-0.3222513,44.639072
Hôtel,2 étoiles,Hôtel Entre-Deux-Mers,56 avenue Austin Comte,,33560,CARBON-BLANC,+33 5 56 38 12 02,www.hotel-e2m.fr,,,,,-0.4987,44.896
Hôtel,Non classé,Hôtel La Bonne Auberge,6 rue du 8 Mai 1945,,33350,CASTILLON-LA-BATAILLE,+33 5 57 40 11 56,,,,,,-0.042158,44.854626
Hôtel,Non classé,L'Auberge de Cazaux,60 avenue Guynemer,,33260,CAZAUX,+33 5 56 22 90 62;+33 5 56 83 48 90,http://aubergedecazaux.free.fr,,,,,-1.159873,44.532158
Hôtel,2 étoiles,Hôtel Formule Club,5 rue Condorcet,Zac Jean Zay,33150,CENON,+33 5 56 32 16 68,www.hotel-formuleclub.com,,,,,-0.507283,44.854366
Hôtel,1 étoile,Hôtel Première Classe Bordeaux Sud,33 chemin de Canéjan,,33610,CESTAS,+33 5 57 26 89 68,www.premiere-classe-bordeaux-sud-cestas.fr,Première Classe,,,,-0.684151,44.75946
Hôtel - Restaurant,3 étoiles,Campanile Bordeaux Sud Cestas,Aire de repos de Bordeaux-Cestas,A 63,33610,CESTAS,+33 5 57 97 87 00,www.campanile-bordeaux-sud-cestas.fr/fr/index.aspx,Campanile,,Qualité Tourisme,,-0.6852,44.7468
Hôtel,3 étoiles,Hôtel Henri IV,2 place du 8 Mai 1945,,33230,COUTRAS,+33 5 57 49 34 34,www.hotelcoutras.com,,,,,-0.1399898,45.030773
Hôtel - Restaurant,2 étoiles,Hôtel Atena,Route de La Sauve,,33670,CREON,+33 5 57 34 45 35,,,,,,-0.3359413,44.771416
Hôtel - Restaurant,Non classé,Hostellerie Château Camiac,Route de la Forêt,D 121,33670,CREON,+33 5 56 23 20 85,www.chateaucamiac.com,Relais du Silence;Châteaux et Hôtels Collection,,,,-0.333424,44.780746
Hôtel - Restaurant,2 étoiles,Hôtel Les Platanes,4 route de Saint-Savin,,33820,ETAULIERS,+33 5 57 64 70 42,www.les-platanes.com,Logis,2 cheminées;2 cocottes,,,-0.568123,45.2161
Hôtel,1 étoile,Hôtel Formule 1 Bordeaux Ouest,Avenue du Médoc,Lieu dit Cantinole,33320,EYSINES,08 91 70 51 91;05 56 28 73 78,www.accorhotels.com/fr/hotel-2360-formule-1-hotelf1-bordeaux-ouest-eysines/index.shtml,Formule 1,,,,-0.642889,44.887543
Hôtel,2 étoiles,Hôtel Balladins Bordeaux Eysines,11 allée du Champ de Course,,33320,EYSINES,+33 5 56 28 19 62,www.balladins-eysines.com,Balladins,,,,-0.6300866,44.880676
Hôtel,Non classé,Hôtel Quick Palace,Impasse du Paddock,,33320,EYSINES,+33 5 56 57 53 14,www.quickpalace-bordeaux.fr,Quick palace,,,,-0.6293336,44.87981
Hôtel,Non classé,Citôtel Les Alizés,11-15 avenue de Saint-Médard,,33320,EYSINES,+33 5 56 28 36 52,www.hotel-alizes-bordeaux.com,Citotel,,Qualité Tourisme,,-0.6369495,44.860813
Hôtel,Non classé,Hôtel Première Classe Bordeaux Ouest,74 avenue du Médoc,,33320,EYSINES,+33 5 56 16 00 85,www.premiere-classe-bordeaux-ouest-eysines.fr,Première Classe,,,,-0.620991,44.875977
Hôtel,2 étoiles,Hôtel Altica Floirac,2 chemin de Gabarre,,33270,FLOIRAC,+33 5 57 97 70 70,www.altica.fr/fiche-hotel-altica.php?hotel=bordeaux-floirac,Altica,,,,-0.522771,44.81852
Hôtel - Restaurant,Non classé,Château Beau Jardin,50 route de Soulac,,33340,GAILLAN-EN-MEDOC,+33 5 56 41 26 83,www.chateaubeaujardin.com,,,,,-0.97511,45.333733
Hôtel - Restaurant,2 étoiles,Hôtel Les Remparts,16 rue du Château,,33890,GENSAC,+33 5 57 47 43 46,www.lesremparts.net,,,,,0.072168,44.807297
Hôtel,2 étoiles,Arena Bordeaux Sud,7 allée des Demoiselles,,33170,GRADIGNAN,+33 5 57 83 07 07,www.hotel-arena-bordeaux.com,Arena,,,,-0.599522,44.78873
Hôtel,3 étoiles,Hôtel Novalis,9 avenue de l'Hippodrome,,33170,GRADIGNAN,+33 5 57 35 37 80,www.novalishotel33.com,Logis,3 cheminées,,Handicap mental;Handicap moteur,-0.642848,44.775787
Hôtel - Restaurant,2 étoiles,Hôtel Au Comté d'Ornon,Allée de Mégevie,,33170,GRADIGNAN,+33 5 56 75 26 85,www.aucomtedornon.com,Logis,2 cheminées;2 cocottes,Qualité Tourisme,,-0.639908,44.77675
Hôtel - Restaurant,3 étoiles,Campanile Bordeaux Sud Gradignan,Allée des Demoiselles,Rocade sortie n°16,33170,GRADIGNAN,+33 5 56 80 63 33,www.campanile-bordeaux-sud-gradignan-talence.fr/fr/index.aspx,Campanile,,,,-0.602358,44.789825
Hôtel - Restaurant,3 étoiles,Hôtel Beausoleil,Chemin du Plantey,,33170,GRADIGNAN,+33 5 56 89 00 48,www.hotel-beausoleil33.com,,,,,-0.625444,44.75224
Hôtel - Restaurant,3 étoiles,Hôtel Le Chalet Lyrique,169 cours du Général de Gaulle,,33170,GRADIGNAN,+33 5 56 89 11 59,www.chalet-lyrique.fr,Citotel,,Qualité Tourisme,,-0.614208,44.772778
Hôtel - Restaurant,3 étoiles,Comfort Hôtel Bordeaux Gradignan,Avenue de l'Europe,,33170,GRADIGNAN,+33 5 56 75 20 00;+33 1 57 32 34 60,www.comfort-hotel-gradignan.com,Comfort Inn,,,,-0.6432809,44.773907
Hôtel - Restaurant,Non classé,Inter-Hôtel Amphitryon Cottage,3 rue Jean Monnet,Z.A. Bersol,33170,GRADIGNAN,+33 5 56 75 56 50,www.hotel-bordeaux-amphitryon.com,Inter Hôtels,,Qualité Tourisme,,-0.58176,44.771942
Hôtel,Non classé,Hôtel Bellevue,46 avenue de l'Isle,,33230,GUITRES,+33 5 57 69 12 81,www.otguitres.fr/hebergements/hotels.html,,,,,-0.1848471,45.040825
Hôtel - Restaurant,3 étoiles,Hôtel La Guérinière,18 cours de Verdun,,33470,GUJAN-MESTRAS,+33 5 56 66 08 78,www.lagueriniere.com,,,Tables et Auberges de France,,-1.074223,44.636097
Hôtel - Restaurant,Non classé,Le HBR Hourtin,17 place de l'Eglise,,33990,HOURTIN,+33 5 56 09 11 15,www.hbrhourtin.fr,,,,,-1.0590648,45.185894
Hôtel - Restaurant,3 étoiles,Akena Relais Bordeaux Sud,ZAC du Filleau,1 rue Viana,33650,LA BREDE,+33 5 57 71 32 65,www.hotels-akena.com/hotel-akena_relais_bordeaux_sud_la_brede.html,Akena,,,,-0.5274057,44.682156
Hôtel,2 étoiles,Hôtel Altica Arcachon Marines,75 avenue du Général Leclerc,,33260,LA TESTE-DE-BUCH,+33 5 57 52 06 50,www.altica.fr/fiche-hotel-altica.php?hotel=arcachon-marines,Altica,,,,-1.1357438,44.61666
Hôtel,2 étoiles,Hôtel Altica La Teste Sud,Route de Binghampton,,33260,LA TESTE-DE-BUCH,+33 5 57 52 52 17,www.altica.fr/fiche-hotel-altica.php?hotel=arcachon-la-teste,Altica,,,,-1.1357438,44.61666
Hôtel - Restaurant,3 étoiles,Hôtel Ibis Arcachon La Teste,1 impasse du Bosquet,,33260,LA TESTE-DE-BUCH,+33 5 57 15 20 00,www.ibishotel.com/fr/hotel-3576-ibis-arcachon-la-teste/index.shtml,Ibis,,,,-1.1400675,44.616913
Hôtel - Restaurant,Non classé,Hôtel Le Moutchico,Le Moutchic,,33680,LACANAU,+33 5 56 03 00 05,www.moutchico.fr,,,Tables et Auberges de France,,-1.1345958,45.00275
Hôtel - Restaurant,2 étoiles,Hôtel l'Oyat,Front de Mer,Allées Ortal,33680,LACANAU-OCEAN,+33 5 56 03 11 11,www.hotel-oyat.com,,,,,-1.2014257,45.000683
Hôtel - Restaurant,3 étoiles,Vitalparc,Route du Baganais,,33680,LACANAU-OCEAN,+33 5 56 03 91 00,www.vitalparc.com,,,Famille Plus;Accueil Vélo;Vélodyssée,,-1.1713528,44.99207
Hôtel - Restaurant,4 étoiles,Best Western Golf Hôtel Lacanau,Domaine de l'Ardilouse,,33680,LACANAU-OCEAN,+33 5 56 03 92 92,www.golf-hotel-lacanau.fr,Best Western,,Famille Plus,,-1.1710363,45.000755
Hôtel,2 étoiles,Hôtel Aliénor,Route de Fargues,,33210,LANGON,+33 5 56 62 15 15,www.hotel-alienorlangon.fr,Logis,3 cheminées,,Handicap mental;Handicap moteur,-0.2705725,44.537003
Hôtel - Restaurant,3 étoiles,Hôtel Horus,2 rue des Bruyères,,33210,LANGON,+33 5 56 62 36 37,www.hotel-restaurant-horus-langon.com,Logis,2 cheminées;2 cocottes,Qualité Tourisme,,-0.261448,44.545517
Hôtel - Restaurant,3 étoiles,Hôtel Claude Darroze,95 cours du Général Leclerc,,33210,LANGON,+33 5 56 63 00 48,www.darroze.com,,,Tables et Auberges de France,,-0.246597,44.552982
Hôtel - Restaurant,Non classé,Hôtel Atlantis,6 rue des Bruyères,,33210,LANGON,+33 5 57 98 21 65,www.hotel-atlantis.fr,,,,,-0.263909,44.545372
Hôtel,2 étoiles,Hôtel de la Plage,20 boulevard de la Plage,Taussat,33138,LANTON,+33 5 56 82 06 01,www.hotel-de-la-plage.fr,Logis,2 cheminées,,,-1.068429,44.71779
Hôtel - Restaurant,2 étoiles,Hôtel l'Océana,7 avenue Guy Célerier,Taussat,33138,LANTON,+33 5 56 82 06 20,www.oceana-hotel.fr,Logis,2 cheminées;2 cocottes,Qualité Tourisme,,-1.0710647,44.71957
Hôtel,2 étoiles,Hôtel d'Arcins,11 bis avenue de la Libération,,33360,LATRESNE,+33 5 56 20 15 27,,,,Accueil Vélo,,-0.49634,44.78432
Hôtel - Restaurant,2 étoiles,Hôtel Le Résinier,68 avenue des Pyrénées,,33114,LE BARP,+33 5 56 88 60 07,www.leresinier.com,Logis,3 cheminées;3 cocottes,,,-0.7686,44.6058
Hôtel - Restaurant,3 étoiles,Campanile Bordeaux Ouest Le Bouscat,128 route du Médoc,,33110,LE BOUSCAT,+33 5 56 28 33 84,www.campanile-bordeaux-ouest-le-bouscat.fr,Campanile,,,,-0.617673,44.873707
Hôtel - Restaurant,2 étoiles,Hôtel Bel-Air,1 allée Bel Air,,33185,LE HAILLAN,+33 5 56 04 08 50,www.hotel-lehaillan.com,,,,,-0.6715178,44.868805
Hôtel - Restaurant,3 étoiles,Hôtel Le Pont Bernet,1160 route de Soulac,Louens,33290,LE PIAN-MEDOC,+33 5 56 70 20 19,www.pont-bernet.fr,Logis,2 cheminées;3 cocottes,Qualité Tourisme,,-0.698042,44.947823
Hôtel - Restaurant,4 étoiles,Golf du Médoc Hôtel & Spa,Chemin de Courmateau,Louens,33290,LE PIAN-MEDOC,+33 5 56 70 31 31,www.hotelgolfdumedoc.com,MGallery,,,,-0.69256,44.944557
Hôtel - Restaurant,Non classé,Hôtel du Porge,30 avenue du Bassin d'Arcachon,,33680,LE PORGE,+33 5 57 70 92 92,www.hotel-du-porge.com,,,,,-1.0901892,44.868015
Hôtel,3 étoiles,Hôtel All Suites,Technoparc,7 rue Copernic,33470,LE TEICH,+33 5 56 22 08 08,www.allsuites-apparthotel.com,,,,,-1.0264062,44.61323
Hôtel,Non classé,Hôtel Les Terrasses,66 cours de la République,,33123,LE VERDON-SUR-MER,+33 5 56 09 65 59,http://hotel-des-terrasses.com,,,,,-1.072635,45.541855
Hôtel,4 étoiles,Hôtel Côté Sable,37 boulevard de la Plage,Cap Ferret,33970,LEGE-CAP FERRET,+33 5 57 17 07 27,www.cotesable.fr,,,,,-1.2429596,44.65212
Hôtel,Non classé,Hôtel du Cap,58 avenue de l'Océan,Cap Ferret,33970,LEGE-CAP FERRET,+33 5 56 60 60 60,www.hotelducapferret.com,,,,,-1.2502312,44.65498
Hôtel,2 étoiles,Hôtel La Frégate,34 avenue de l'Océan,Cap Ferret,33970,LEGE-CAP FERRET OCEAN,+33 5 56 60 41 62,www.hotel-la-fregate.net,,,,,-1.2449097,44.65614
Hôtel,3 étoiles,Hôtel des Dunes,119 avenue de Bordeaux,Cap Ferret,33970,LEGE-CAP FERRET OCEAN,+33 5 56 60 61 81,www.hoteldesdunes.com,,,,,-1.25404,44.64572
Hôtel,Non classé,Hôtel Le Sporting,48 avenue de la Vigne,Cap Ferret,33970,LEGE-CAP FERRET OCEAN,+33 5 56 60 55 18,www.sportingleferret.com,,,,,-1.2429356,44.664318
Hôtel - Restaurant,2 étoiles,Hôtel des Pins,23 rue des Fauvettes,Cap Ferret,33970,LEGE-CAP FERRET OCEAN,+33 5 56 60 60 11,www.hoteldespins.eu,,,,,-1.2440621,44.653053
Hôtel - Restaurant,2 étoiles,Hôtel Le Pavillon Bleu,75 avenue de l'Océan,Cap Ferret,33970,LEGE-CAP FERRET OCEAN,+33 5 56 60 65 48,www.hotel-pavillonbleu.com,,,,,-1.252377,44.655254
Hôtel - Restaurant,Non classé,La Maison du Bassin,5 rue des Pionniers,Cap Ferret,33970,LEGE-CAP FERRET OCEAN,+33 5 56 60 60 63,www.lamaisondubassin.com,,,,,-1.2470555,44.64432
Hôtel - Restaurant,2 étoiles,Hôtel Le Bon Duc,16 route de Paris,,33500,LES BILLAUX,+33 5 57 51 25 98,www.lebonduc.fr,Logis,2 cheminées;2 cocottes,,,-0.2323386,44.951427
Hôtel - Restaurant,2 étoiles,Tour Hôtel Médoc,Zac de Belloc,,33340,LESPARRE-MEDOC,+33 5 56 73 39 20,www.tourhotelmedoc.com,,,Qualité Tourisme,,-0.9211349,45.286785
Hôtel,2 étoiles,Etap Hôtel Libourne,Zone d'activités des Dagueys,,33500,LIBOURNE,+33 8 92 70 20 17,www.ibisbudget.com,Etap Hotel,,,,-0.235056,44.94618
Hôtel,3 étoiles,Hôtel de France,7 rue Chanzy,,33500,LIBOURNE,+33 5 57 51 01 66,www.hoteldefrancelibourne.com,,,Qualité Tourisme,,-0.239326,44.9164
Hôtel,4 étoiles,Hôtel Mercure Libourne-Saint Emilion,3 quai Souchet,,33500,LIBOURNE,+33 5 57 25 64 18,www.mercure.com/fr/hotel-6238-mercure-libourne-saint-emilion/index.shtml,Mercure,,,,-0.247549,44.915886
Hôtel,Non classé,Hôtel des Vignobles,35 rue André Nhévoit,,33500,LIBOURNE,+33 5 57 51 23 29,www.hotel-des-vignobles.fr,,,,,-0.2341997,44.909912
Hôtel,Non classé,Hôtel Duc de Libourne,9 rue des Treilles,,33500,LIBOURNE,+33 5 57 74 04 47,www.hotelducdelibourne.com,,,,,-0.238594,44.91566
Hôtel - Restaurant,2 étoiles,Hôtel La Tour du Vieux Port,23 quai Souchet,,33500,LIBOURNE,+33 5 57 25 75 56,http://latourduvieuxport.fr/,Logis,2 cheminées;2 cocottes,Qualité Tourisme,,-0.247159,44.91648
Hôtel,1 étoile,Hôtel Formule 1 Bordeaux Nord,Rue du Courant,,33310,LORMONT,+33 8 91 70 51 90,www.accorhotels.com/fr/hotel-2254-formule-1-hotelf1-bordeaux-nord-lormont/index.shtml,Formule 1,,,,-0.51747,44.8797
Hôtel,2 étoiles,P'tit Dej Hôtel,Allée l'Oiseau de France,,33310,LORMONT,+33 5 56 74 99 88,www.ptitdej-hotel-lormont.com,,,,,-0.5096,44.8823
Hôtel,3 étoiles,Hôtel Kyriad Bordeaux Lormont,1 avenue de Paris,,33310,LORMONT,+33 5 56 38 23 22,www.kyriadbordeauxlormont.com,Kyriad,,,,-0.510628,44.875923
Hôtel,Non classé,Hôtel B & B Bordeaux Lormont,Parc d'Activités de La Gardette,Rue Pierre Mendès France,33310,LORMONT,+33 8 92 78 80 16;+33 8 92 78 29 29,www.hotel-bb.com/detailhotels.phtml?hotelid=4080,B&B,,La Clef Verte,,-0.51404,44.87966
Hôtel,Non classé,Hôtel du Domaine Fontbelleau,Route nationale 10,Avenue de Paris,33310,LORMONT,+33 5 56 06 00 16,http://fontbelleau.free.fr,,,,,-0.5239,44.8761
Hôtel - Restaurant,4 étoiles,Hôtel Le Relais de Margaux,5 route de l'Ile Vincent,B.P. 9,33460,MARGAUX,+33 5 57 88 38 30,www.relais-margaux.fr,,,,,-0.6582784,45.054577
Hôtel - Restaurant,Non classé,Hôtel Le Pavillon de Margaux,3 rue Georges Mandel,,33460,MARGAUX,+33 5 57 88 77 54,www.pavillonmargaux.com,,,,,-0.674782,45.040916
Hôtel - Restaurant,5 étoiles,Les Sources de Caudalie,chemin de Smith Haut Lafitte,,33650,MARTILLAC-BORDEAUX,+33 5 57 83 83 83,www.sources-caudalie.com,Small Luxury Hotel;Châteaux et Hôtels Collection,,Qualité Tourisme,,-0.5560541,44.73073
Hôtel,1 étoile,Hôtel Formule 1 Bordeaux Aéroport,7 avenue Rudolf Diesel,,33700,MERIGNAC,08 91 70 51 88,www.accorhotels.com/fr/hotel-2234-formule-1-hotelf1-bordeaux-aeroport/index.shtml,Formule 1,,,,-0.6871,44.8364
Hôtel,2 étoiles,Ibis Budget Bordeaux Aéroport,2 avenue Charles Lindbergh,,33700,MERIGNAC,+33 8 92 70 09 79,www.ibisbudget.com/fr/hotel-7508-ibis-budget-bordeaux-aeroport/index.shtml#ancre5,Ibis,,,,-0.6918094,44.836075
Hôtel,2 étoiles,Hôtel Altica Mérignac Aéroport,Rue Hipparque,Domaine de Pelus,33700,MERIGNAC,+33 5 56 12 14 14,www.altica.fr/fiche-hotel-altica.php?hotel=bordeaux-merignac,Altica,,,,-0.6790461,44.82795
Hôtel,Non classé,Hôtel B & B Bordeaux Mérignac,Parc d'Activités Marron Ouest,45 rue Jacques Prévert,33700,MERIGNAC,+33 8 92 78 80 15,www.hotel-bb.com/reservation-hotel-bordeaux-merignac-france.html/?hotelId=4182,B&B,,La Clef Verte,,-0.6708,44.8434
Hôtel - Restaurant,2 étoiles,Hôtel l'Etoile Bleue,51 route Jean Briaud,Sortie rocade n°12,33700,MERIGNAC,+33 5 56 47 65 96,www.letoilebleue.com,,,,,-0.6728267,44.82404
Hôtel - Restaurant,2 étoiles,Comfort Hôtel Bordeaux Mérignac,99 avenue J.F. Kennedy,,33700,MERIGNAC,+33 5 56 55 93 66,www.choicehotels.fr/bordeaux_-_merignac-hotel-comfort-FR296-fr?cid=6836,Choice Hotel,,,,-0.6881046,44.83521
Hôtel - Restaurant,2 étoiles,P'tit Dej Hôtel Bordeaux Aéroport,91 avenue J.F. Kennedy,,33700,MERIGNAC,+33 5 56 34 49 88,www.ptitdej-hotelbordeauxaeroport.com,,,,,-0.6877362,44.835865
Hôtel - Restaurant,3 étoiles,Hôtel Balladins Bordeaux Mérignac,3 rue Euler,Parc d'Activités du Château Rouquey,33700,MERIGNAC,+33 5 56 34 43 62,www.balladins.com,Balladins,,,,-0.671479,44.832344
Hôtel - Restaurant,3 étoiles,Best Western Bordeaux Aéroport,Aéroport de Mérignac,3 avenue Roland Garros,33700,MERIGNAC,+33 5 57 78 26 29,www.hotelbordeauxaeroport.com,Best Western,,,,-0.6263,44.8388
Hôtel - Restaurant,3 étoiles,Hôtel Ibis Bordeaux Aéroport,78 avenue J.F. Kennedy,Parc Cadéra Sud,33700,MERIGNAC,+33 5 56 34 10 19,www.ibishotel.com/fr/hotel-0600-ibis-bordeaux-aeroport/index.shtml,Ibis,,Qualité Tourisme,,-0.6802511,44.83504
Hôtel - Restaurant,3 étoiles,Inter-Hôtel du Phare,3 rue des Châtaigniers,,33700,MERIGNAC,+33 5 56 47 89 50,www.interhotel-merignac.com,Inter Hôtels,,Qualité Tourisme,,-0.672124,44.84181
Hôtel - Restaurant,3 étoiles,Ibis Styles Bordeaux Aéroport,95 avenue J.F. Kennedy,,33700,MERIGNAC,+33 5 56 55 93 42,http://ibisstyleshotel.ibis.com/fr/hotel-2079-ibis-styles-bordeaux-aeroport-ex-all-seasons/index.shtml,Ibis,,,,-0.6897354,44.835117
Hôtel - Restaurant,3 étoiles,Brit Hôtel Soretel,97 avenue J.F. Kennedy,,33700,MERIGNAC,+33 5 56 34 33 08,http://soretel.brithotel.fr,Brit Hôtel,,Qualité Tourisme,,-0.6906795,44.834995
Hôtel - Restaurant,4 étoiles,Hôtel Kyriad Prestige Bordeaux Mérignac,116 avenue de Magudas,Rocade sortie n°9,33700,MERIGNAC,+33 5 57 92 00 00,www.kyriad-prestige-bordeaux-ouest-merignac.fr,Kyriad,,,,-0.6642007,44.85727
Hôtel - Restaurant,4 étoiles,Hôtel Mercure Bordeaux Aéroport,1 avenue Charles Lindbergh,,33700,MERIGNAC,+33 5 56 34 74 74,www.mercure.com/fr/hotel-1508-mercure-bordeaux-aeroport/index.shtml;www.hotels-bordeaux-ouest.fr,Mercure,,,,-0.691809,44.836075
Hôtel - Restaurant,4 étoiles,Hôtel Novotel Bordeaux Aéroport,80 avenue J.F. Kennedy,,33700,MERIGNAC,+33 5 57 53 13 30,www.novotel.com/fr/hotel-0402-novotel-bordeaux-aeroport/index.shtml,Novotel,,Qualité Tourisme,,-0.6820803,44.835293
Hôtel - Restaurant,Non classé,Hôtel Atlantis,1 rue Euler,Parc Château Rouquey,33700,MERIGNAC,+33 5 56 34 39 99,www.atlantis-hotel.fr,,,,,-0.686794,44.839134
Hôtel - Restaurant,Non classé,Hôtel Aérogril,101 avenue J.F. Kennedy,,33700,MERIGNAC,+33 5 56 47 60 52,www.aerogril.com,,,,,-0.671675,44.8345
Hôtel,Non classé,Château Pey Berland,5 route de la Fontaine,,33480,MOULIS-EN-MEDOC,+33 5 57 88 57 30,www.peyberland.com,,,,,-0.7734,45.0592
Hôtel - Restaurant,Non classé,Hôtel 3B,66 avenue de la Libération,,33440,AMBARES-ET-LAGRAVE,+33 5 57 30 63 63,,,,,,-0.47403,44.929672
Hôtel,2 étoiles,Hôtel La Belle Vie,20 avenue Thiers,,33510,ANDERNOS-LES-BAINS,+33 5 56 82 02 10,www.la-belle-vie-hotel.com,,,,,-1.095265,44.741154
Hôtel,Non classé,Hôtel de la Côte d'Argent,180 boulevard de la République,,33510,ANDERNOS-LES-BAINS,+33 5 56 03 98 58,www.hoteldelacotedargent.com,,,,,-1.0957429,44.740677
Hôtel - Restaurant,2 étoiles,Hôtel l'Océane,Avenue Franck Cazenave,,33510,ANDERNOS-LES-BAINS,+33 5 56 26 12 12;+33 4 92 28 38 48,www.franceloc.fr,,,,,-1.0894473,44.73184
Hôtel - Restaurant,Non classé,Hôtel de l'Etoile,13 place de l'Etoile,,33510,ANDERNOS-LES-BAINS,+33 5 56 82 00 29,http://tourisme.andernoslesbains.fr/hebergement/302-ou-dormir/1-hotels/4-hotaqu03301v3e8d.html,,,,,-1.0819162,44.73022
Hôtel,2 étoiles,Hôtel La Pergola,40 cours Lamarque de Plaisance,,33120,ARCACHON,+33 5 56 83 07 89,www.hotel-lapergola.net,,,,,-1.17202,44.661224
Hôtel,2 étoiles,Hôtel Le Novel,24 avenue du Général de Gaulle,,33120,ARCACHON,+33 5 56 83 40 11,www.hotel-lenovel.com,,,,,-1.164866,44.660446
Hôtel,2 étoiles,Hôtel Les Mimosas,77 avenue de la République,,33120,ARCACHON,+33 5 56 83 45 86,www.mimosas-hotel.com,,,,,-1.155583,44.658157
Hôtel,2 étoiles,Hôtel Marinette,15 allée José Maria de Hérédia,,33120,ARCACHON,+33 5 56 83 06 67,www.hotel-marinette.com,,,,,-1.169087,44.655315
Hôtel,2 étoiles,Le Yatt-Hôtel,253 boulevard de la Côte d'Argent,Le Moulleau,33120,ARCACHON,+33 5 57 72 03 72,www.yatt-hotel.com,,,Qualité Tourisme,,-1.201618,44.641315
Hôtel,3 étoiles,Hôtel de la Plage,10 avenue Nelly Deganne,,33120,ARCACHON,+33 5 56 83 06 23,www.hotelarcachon.com,,,,,-1.163495,44.66172
Hôtel,3 étoiles,Hôtel de Lamartine,28 avenue de Lamartine,,33120,ARCACHON,+33 5 56 83 95 77,www.hotel-lamartine.com,,,,,-1.16721,44.66141
Hôtel,3 étoiles,Hôtel Les Buissonnets,12 avenue Louis Garros,Le Moulleau,33120,ARCACHON,+33 5 56 54 00 83,www.hotel-buissonnets.com,,,,,-1.200407,44.640602
Hôtel,3 étoiles,Hôtel Le Nautic,20 boulevard de la Plage,,33120,ARCACHON,+33 5 56 83 01 48,www.lenautic.fr,Inter Hôtels,,Qualité Tourisme,,-1.148723,44.65733
Hôtel,3 étoiles,Grand Hôtel Richelieu,185 boulevard de la Plage,,33120,ARCACHON,+33 5 56 83 16 50,www.grand-hotel-richelieu.com,,,,,-1.168292,44.6625
Hôtel,3 étoiles,Hôtel du Parc,5-7 avenue du Parc,,33120,ARCACHON,+33 5 56 83 10 58,www.hotelduparc-arcachon.com,,,,,-1.189559,44.650906
Hôtel,3 étoiles,Hôtel Le Dauphin,7 avenue Gounod,,33120,ARCACHON,+33 5 56 83 02 89,www.dauphin-arcachon.com,,,,,-1.159993,44.65928
Hôtel,3 étoiles,Roc Hôtel,200-202 boulevard de la Plage,,33120,ARCACHON,+33 5 57 72 48 48,www.roc-hotel.fr/,,,,,-1.164562,44.6627
Hôtel,3 étoiles,Le B d'Arcachon,4 rue du Professeur Jolyet,,33120,ARCACHON,+33 5 56 83 99 91,www.parkinn.fr,,,La Clef Verte,,-1.163772,44.663177
Hôtel,3 étoiles,Hôtel Aquamarina,82 boulevard de la Plage,,33120,ARCACHON,+33 5 56 83 67 70,www.aquamarina.fr,Choice Hotel,,Qualité Tourisme,,-1.153784,44.660133
Hôtel,4 étoiles,Hôtel Point France,1 rue Grenier,,33120,ARCACHON,+33 5 56 83 46 74,www.hotel-point-france.com,,,Qualité Tourisme,,-1.166914,44.66284
Hôtel,4 étoiles,Arc-Hôtel sur Mer,89 boulevard de la Plage,,33120,ARCACHON,+33 5 56 83 06 85,www.arc-hotel-sur-mer.com,Les Pieds dans l'Eau,,,,-1.156259,44.661285
Hôtel,Non classé,Hôtel Le Provence,106 boulevard de la Plage,,33120,ARCACHON,+33 5 56 83 10 78,,,,,,-1.15616,44.66124
Hôtel - Restaurant,2 étoiles,Hôtel Orange Marine,35-37 boulevard Chanzy,,33120,ARCACHON,+33 5 57 52 00 80,www.hotel-orange-marine.fr/,,,,,-1.143573,44.655396
Hôtel - Restaurant,2 étoiles,L'Ostréi,22 avenue de la République,,33120,ARCACHON,+33 5 56 54 05 32,www.ostrei.fr,,,,,-1.1541736,44.657978
Hôtel - Restaurant,3 étoiles,Hôtel Les Vagues,9 boulevard de l'Océan,,33120,ARCACHON,+33 5 56 83 03 75,www.lesvagues.fr,Logis,2 cheminées;2 cocottes,Qualité Tourisme,,-1.18222,44.662838
Hôtel - Restaurant,4 étoiles,Hôtel Les Bains d'Arguin,9 avenue du Parc,,33120,ARCACHON,+33 5 57 72 06 72,www.hotel-bainsdarguin-arcachon.com,,,,,-1.19351,44.650654
Hôtel,2 étoiles,Hôtel La Petite Auberge,21 bis avenue du Port,,33740,ARES,+33 5 56 60 37 81,www.hotel-petite-auberge.com,,,,,-1.1371707,44.764805
Hôtel,3 étoiles,Hôtel Le Grain de Sable,37 avenue de la Libération,,33740,ARES,+33 5 56 60 04 50,www.hotelgraindesable.com,,,,,-1.1340916,44.763844
Hôtel - Restaurant,Non classé,Hôtel Saint-Eloi,11 boulevard de l'Aérium,,33740,ARES,+33 5 56 60 20 46,www.le-saint-eloi.com,,,,,-1.1331689,44.758316
Hôtel,1 étoile,Fasthôtel Bordeaux-Artigues,Avenue de la Prairie,,33370,ARTIGUES-PRES-BORDEAUX,+33 5 56 40 13 30,http://bordeaux.fasthotel.info,Fasthôtel,,,,-0.493587,44.867092
Hôtel,1 étoile,Hôtel Formule 1 Bordeaux Est,Avenue de la Prairie,,33370,ARTIGUES-PRES-BORDEAUX,+33 8 91 70 51 89,www.accorhotels.com/fr/hotel-2471-formule-1-hotelf1-bordeaux-est-artigues/index.shtml,Formule 1,,,,-0.494364,44.867264
Hôtel,Non classé,Hôtel Quick Palace,1 rue de la Blancherie,,33370,ARTIGUES-PRES-BORDEAUX,+33 5 56 32 01 49,www.quickpalace-artigues.com,Quick palace,,,,-0.5031224,44.852932
Hôtel - Restaurant,3 étoiles,Campanile Bordeaux Est Artigues,Avenue de la Prairie,,33370,ARTIGUES-PRES-BORDEAUX,+33 5 56 32 73 32,www.campanile-bordeaux-est-artigues.fr,Campanile,,,,-0.494364,44.867264
Hôtel - Restaurant,3 étoiles,Hôtel Kyriad Libourne Saint-Emilion,Le Port du Noyer,8 route de Jourdan,33500,ARVEYRES,+33 5 57 51 41 41,www.kyriad-libourne-saint-emilion.fr/fr/index.aspx,Kyriad,,Qualité Tourisme,,-0.231506,44.918026
Hôtel,3 étoiles,Hôtel Le Clos de Meyre,16 route de Castelnau,,33480,AVENSAN,+33 5 56 58 22 84,www.chateaumeyre.com,Châteaux et Hôtels Collection,,,,-0.771113,45.032257
Hôtel - Restaurant,Non classé,Hôtel Orland,11 rue Chateaubriand,,33530,BASSENS,+33 5 56 06 27 15,,,,,,-0.5122,44.9022
Hôtel - Restaurant,3 étoiles,Domaine de Fompeyre,Route de Mont de Marsan,,33430,BAZAS,+33 5 56 25 98 00,www.cerise-hotels-resorts.com,Châteaux Demeures de Tradition et Grandes Etapes des Vignobles,,,,-0.2145767,44.425873
Hôtel,Non classé,Hôtel Rollan de By,3 rue du Haut Condissas,,33340,BEGADAN,+33 5 56 41 27 75,www.hotelrollandeby.com,Logis,3 cheminées,,,-0.8785066,45.3746
Hôtel - Restaurant,3 étoiles,Hôtel Wilson,Quai du Président Wilson,3 rue Marcel Sembat,33130,BEGLES,+33 5 56 49 43 00,www.hotel-wilson-begles.com,,,,,-0.536554,44.816017
Hôtel - Restaurant,Non classé,Hôtel La Cabane,42 route de Bordeaux,,33830,BELIN-BELIET,+33 5 56 88 82 56,www.hotel-restaurant-lacabane.fr,,,,,-0.792097,44.534237
Hôtel,2 étoiles,Hôtel du Delta,25 bis avenue de la Côte d'Argent,,33380,BIGANOS,+33 5 56 82 62 84,www.hoteldudelta.com,Logis,2 cheminées,Qualité Tourisme,,-0.966768,44.63841
Hôtel - Restaurant,Non classé,Hôtel de France,99 avenue de la Libération,,33380,BIGANOS,+33 5 56 82 61 08,,,,,,-0.9786361,44.64416
Hôtel,4 étoiles,Hôtel Château Grattequina,Avenue de Labarde,,33290,BLANQUEFORT,+33 5 56 35 76 76,www.grattequina.com,,,,,-0.562584,44.92361
Hôtel - Restaurant,3 étoiles,Hostellerie Les Criquets,130 avenue du 11 Novembre,,33290,BLANQUEFORT,+33 5 56 35 09 24,www.lescriquets.com,,,,,-0.626836,44.91546
Hôtel,1 étoile,Au Bon Accueil,77 cours Bacalan,,33390,BLAYE,+33 5 57 42 12 98,www.hotel-au-bon-accueil.fr,,,,,-0.6586372,45.119488
Hôtel - Restaurant,3 étoiles,Hôtel La Citadelle,Place d'Armes,,33390,BLAYE,+33 5 57 42 17 10,www.hotellacitadelle.com,Logis,3 cheminées;3 cocottes,,,-0.666897,45.12793
Hôtel - Restaurant,Non classé,Auberge du Porche,5 rue Ernest Regnier,,33390,BLAYE,+33 5 57 42 22 69,www.auberge-du-porche.fr,,,Tables et Auberges de France,,-0.6615829,45.122837
Hôtel,1 étoile,Hôtel Saint-Rémi,34 rue Saint-Rémi,,33000,BORDEAUX,+33 5 56 48 55 48,http://hotelsaintremi.fr,,,,,-0.572021,44.841328
Hôtel,1 étoile,Hôtel Formule 1 Bordeaux Ville,50 rue Emile Henriot,Quai de la Souys,33100,BORDEAUX,+33 8 91 70 51 93,www.accorhotels.com/fr/hotel-2419-formule-1-hotelf1-bordeaux-ville/index.shtml,Formule 1,,,,-0.540071,44.833153
Hôtel,2 étoiles,Acanthe Hôtel,12 rue Saint-Rémi,,33000,BORDEAUX,+33 5 56 81 66 58,www.acanthe-hotel-bordeaux.com,,,,,-0.571136,44.841408
Hôtel,2 étoiles,Aquitain Hôtel,47 rue Eugène Le Roy,,33800,BORDEAUX,+33 5 56 33 60 00,www.aquitain-hotel.com,,,,,-0.5588762,44.82626
Hôtel,2 étoiles,Hôtel de France,7 rue Franklin,,33000,BORDEAUX,+33 5 56 48 24 11,www.hotel-france-bordeaux.fr,,,,,-0.578231,44.842247
Hôtel,2 étoiles,Hôtel de l'Opéra,35 rue Esprit des Lois,,33000,BORDEAUX,+33 5 56 81 41 27,www.hotel-bordeaux-centre.com/hotel-opera.php,,,,,-0.573166,44.843033
Hôtel,2 étoiles,Hôtel des Voyageurs,3 bis avenue Thiers,,33100,BORDEAUX,+33 5 56 86 18 00,www.hoteldesvoyageurs.net,,,,,-0.558942,44.840725
Hôtel,2 étoiles,Hôtel du Faisan,28 rue Charles Domerq,,33800,BORDEAUX,+33 5 56 91 54 52,www.hoteldufaisan.fr,,,,,-0.555472,44.829002
Hôtel,2 étoiles,Hôtel du Théâtre,10 rue de la Maison-Daurade,,33000,BORDEAUX,+33 5 56 79 05 26,www.hotel-du-theatre.com,,,,,-0.574289,44.841805
Hôtel,2 étoiles,Hôtel Gambetta,66 rue Porte Dijeaux,,33000,BORDEAUX,+33 5 56 51 21 83,www.hotel-gambetta.com,,,,,-0.578657,44.840775
Hôtel,2 étoiles,Hôtel La Porte Dijeaux,4 rue Bouffard,,33000,BORDEAUX,+33 5 56 81 85 01,www.hotel-porte-dijeaux.com,,,,,-0.580174,44.841
Hôtel,2 étoiles,Hôtel Le Dauphin,82 rue du Palais Gallien,,33000,BORDEAUX,+33 5 56 52 24 62,www.coalachr.com,,,,,-0.581713,44.84442
Hôtel,2 étoiles,Hôtel Régina,34 rue Charles Domercq,,33800,BORDEAUX,+33 5 56 91 66 07,www.hotelreginabordeaux.com,,,,,-0.555472,44.829002
Hôtel,2 étoiles,Hôtel Stars Bordeaux Gare,34 rue de Tauzia,,33800,BORDEAUX,+33 5 56 94 59 00,http://bordeauxgare.starshotels.fr,Hôtel Star,,,,-0.558949,44.829384
Hôtel,2 étoiles,Hôtel Notre Dame,36 rue Notre Dame,,33000,BORDEAUX,+33 5 56 52 88 24,www.hotelnotredame.free.fr,,,Famille Plus,,-0.571583,44.851357
Hôtel,2 étoiles,Citôtel Le Chantry,155 rue Georges Bonnac,,33000,BORDEAUX,+33 5 56 24 08 88,www.chantry-bordeaux.com,Citotel,,Famille Plus;Qualité Tourisme,Handicap auditif;Handicap mental;Handicap moteur,-0.58997,44.83851
Hôtel,2 étoiles,Etap Hôtel Bordeaux Bastide,26 allée Serr,,33100,BORDEAUX,+33 8 92 70 02 61,www.etaphotel.com/fr/hotel-6312-etap-hotel-etap-hotel-bordeaux-centre/index.shtm,Etap Hotel,,,,-0.559552,44.84272
Hôtel,2 étoiles,Etap Hôtel Bordeaux Saint-Jean,60 rue Eugène le Roy,,33800,BORDEAUX,+33 8 92 70 02 39,www.etaphotel.com/fr/hotel-5067-etap-hotel-bordeaux-gare-saint-jean/index.shtml,Etap Hotel,,,,-0.559515,44.82665
Hôtel,2 étoiles,Etap Hôtel Bordeaux-Lac,Rue du Petit Barail,Quartier du Lac,33300,BORDEAUX,+33 5 56 39 06 42,www.etaphotel.com/fr/hotel-3085-etap-hotel-bordeaux-le-lac/index.shtml,Etap Hotel,,,,-0.564512,44.89042
Hôtel,3 étoiles,Hôtel Clémenceau,4 cours Georges Clémenceau,,33000,BORDEAUX,+33 5 56 52 98 98,www.hotel-bordeaux-clemenceau.com,,,,,-0.579825,44.84207
Hôtel,3 étoiles,Hôtel Continental,10 rue Montesquieu,,33000,BORDEAUX,+33 5 56 52 66 00,www.hotel-le-continental.com,,,,,-0.578615,44.84242
Hôtel,3 étoiles,All Seasons Bordeaux Saint-Jean,68-78 rue de Tauzia,,33800,BORDEAUX,+33 5 56 91 55 50,www.all-seasons-hotels.com/fr/hotel-7576-all-seasons-bordeaux-saint-jean/index.shtml,All Seasons,,,,-0.558841,44.829315
Hôtel,3 étoiles,La Maison du Lierre,57 rue Huguerie,,33000,BORDEAUX,+33 5 56 51 92 71,www.maisondulierre.com,Logis,2 cheminées,,,-0.580984,44.844433
Hôtel,3 étoiles,Hôtel de la Tour Intendance,14/16 rue de la Vieille Tour,,33000,BORDEAUX,+33 5 56 44 56 56,www.hotel-tour-intendance.com,Qualys Hôtel,,,,-0.579735,44.841152
Hôtel,3 étoiles,Hôtel Ibis Bordeaux Centre Gare Saint-Jean,19 quai de Paludate,,33800,BORDEAUX,+33 5 56 94 25 25,www.ibishotel.com/fr/hotel-1561-ibis-bordeaux-centre-gare-saint-jean/index.shtml,Ibis,,Qualité Tourisme,Handicap mental;Handicap moteur,-0.551768,44.82778
Hôtel,3 étoiles,Hôtel Majestic,2 rue de Condé,,33000,BORDEAUX,+33 5 56 52 60 44,www.hotel-majestic.com,,,,,-0.573183,44.843136
Hôtel,3 étoiles,Best Western Bordeaux "Bayonne Etche-Ona",15 cours de l'Intendance,4 rue Martignac et 11 rue Mautrec,33000,BORDEAUX,+33 5 56 48 00 88,www.bordeaux-hotel.com,Best Western,,,,-0.575833,44.842014
Hôtel,3 étoiles,Hôtel des Quatre Soeurs,6 cours du XXX Juillet,,33000,BORDEAUX,+33 5 57 81 19 20,www.hotel-bordeaux-centre.com/hotel-quatre-soeurs.php,,,Famille Plus,,-0.5745,44.8435
Hôtel,3 étoiles,Best Western Royal Saint-Jean,15 rue Charles Domercq,,33800,BORDEAUX,+33 5 56 91 72 16,www.amarys-bordeaux.com,Best Western,,Famille Plus,,-0.555472,44.829002
Hôtel,3 étoiles,Best Western Grand Hôtel Français,12 rue du Temple,,33000,BORDEAUX,+33 5 56 48 10 35,www.bestwestern.fr/fr/hotel-Bordeaux,Best-Western-Grand-Hotel-Francais,93281,Best Western,,Famille Plus;Eco-label Européen,,-0.577999,44.841293
Hôtel,3 étoiles,Quality Hôtel Sainte-Catherine,27 rue du Parlement Sainte-Catherine,,33000,BORDEAUX,+33 5 56 81 95 12,www.choicehotels.fr/bordeaux-hotel-quality-FR160-fr?cid=469328,Choice Hotel,,Qualité Tourisme,,-0.57407,44.840515
Hôtel,3 étoiles,Hôtel l'Avant-Scène,36 rue Borie,,33300,BORDEAUX,+33 5 57 29 25 39,www.lavantscene.fr,,,,,-0.5693543,44.854378
Hôtel,4 étoiles,Hôtel de Normandie,7/9 cours du XXX Juillet,,33000,BORDEAUX,+33 5 56 52 16 80,www.hotel-de-normandie-bordeaux.com,,,,,-0.5746,44.8441
Hôtel,4 étoiles,Hôtel de Sèze,23 allées de Tourny,,33000,BORDEAUX,+33 5 56 14 16 16,www.hotel-de-seze.com,,,Famille Plus,,-0.5763,44.8447
Hôtel,4 étoiles,Hôtel Seeko'o,54 quai de Bacalan,,33300,BORDEAUX,+33 5 56 39 07 07,www.seekoo-hotel.com,,,,Handicap mental;Handicap moteur,-0.557036,44.85879
Hôtel,Non classé,Hôtel Balzac,14 rue Lafaurie Monbadon,,33000,BORDEAUX,+33 5 56 81 85 12,,,,,,-0.58,44.8453
Hôtel,Non classé,Hôtel Choiseul,13 rue Huguerie,,33000,BORDEAUX,+33 5 56 52 71 24,www.hotelchoiseul.com,,,,,-0.579024,44.844738
Hôtel,Non classé,Hôtel La Cour Carrée,5 rue de Lurbe,,33000,BORDEAUX,+33 5 57 35 00 00,www.lacourcarree.fr,,,,,-0.579864,44.843338
Hôtel,Non classé,Touring Hôtel,16 rue Huguerie,,33000,BORDEAUX,+33 5 56 81 56 73,www.hoteltouring.fr,,,,,-0.579271,44.844696
Hôtel,Non classé,Hôtel de la Presse,6 rue Porte Dijeaux,,33000,BORDEAUX,+33 5 56 48 53 88,www.hoteldelapresse.com,,,,,-0.577196,44.840885
Hôtel - Restaurant,2 étoiles,Etap Hôtel Bordeaux Centre,37 cours du Maréchal Juin,,33000,BORDEAUX,+33 5 56 90 10 00,www.etaphotel.com/fr/hotel-2576-etap-hotel-etap-hotel-bordeaux-centre/index.shtm,Etap Hotel,,,,-0.584894,44.83556
Hôtel - Restaurant,3 étoiles,Hôtel California,22 rue Charles Domercq,,33800,BORDEAUX,+33 5 56 91 17 25,www.hotelcalifornia-bordeaux.com,,,,,-0.575,44.8431
Hôtel - Restaurant,3 étoiles,Campanile Bordeaux Nord Le Lac,Cours Charles Bricaud,Quartier du Lac,33300,BORDEAUX,+33 5 56 39 54 54,www.campanile-bordeaux-lelac.com,Campanile,,,,-0.56363,44.891167
Hôtel,3 étoiles,Hôtel Le Vignoble,3 quai Albert Pichon,,33250,PAUILLAC,+33 5 56 59 01 20,www.hoteldefrance-angleterre.com,Logis,3 cheminées;2 cocottes,,,-0.745115,45.19711
Hôtel - Restaurant,2 étoiles,Hôtel de France & d'Angleterre,3 quai Albert Pichon,,33250,PAUILLAC,+33 5 56 59 01 20,www.hoteldefrance-angleterre.com,Logis,2 cheminées;2 cocottes,,,-0.7453421,45.197784
Hôtel - Restaurant,4 étoiles,Château Cordeillan-Bages,Route des Châteaux,B.P. 79,33250,PAUILLAC,+33 5 56 59 24 24,www.cordeillanbages.com,Relais et Châteaux,,,,-0.7512331,45.18869
Hôtel - Restaurant,Non classé,Hôtel Le Yachting,12 quai Léon Perrier,Port de Plaisance,33250,PAUILLAC,05 56 59 06 43,,,,,,-0.745679,45.19858
Hôtel,1 étoile,Hôtel Première Classe Bordeaux Sud Pessac Becquerel,4 bis avenue Antoine Becquerel,,33600,PESSAC,+33 5 56 36 83 34,www.premiere-classe-bordeaux-sud-pessac-becquerel.fr,Première Classe,,,,-0.6463086,44.78809
Hôtel,2 étoiles,Hôtel Chantafred,263 avenue Pasteur,,33600,PESSAC,+33 5 56 36 27 38,www.hotel-chantafred.com,,,,,-0.6626129,44.798767
Hôtel - Restaurant,1 étoile,Hôtel Première Classe Bordeaux Sud Pessac Bersol,7 rue Thomas Edison,Zone industrielle Bersol 2,33600,PESSAC,+33 8 92 70 71 41,www.premiere-classe-bordeaux-sud-pessac-bersol.fr,Première Classe,,,,-0.630386,44.80583
Hôtel - Restaurant,3 étoiles,Campanile Bordeaux Sud Pessac,1 avenue Marcel Dassault,Zone Industrielle,33600,PESSAC,+33 5 56 36 18 56,www.campanile-bordeaux-sud-pessac.fr,Campanile,,Qualité Tourisme,,-0.653192,44.78459
Hôtel - Restaurant,3 étoiles,Hôtel Ibis Bordeaux Pessac,8 avenue Antoine Becquerel,Parc Industriel,33600,PESSAC,+33 5 56 07 27 84,www.ibishotel.com/fr/hotel-0850-ibis-bordeaux-pessac/index.shtml,Ibis,,Qualité Tourisme,,-0.646042,44.787918
Hôtel - Restaurant,4 étoiles,Holiday Inn Bordeaux Sud Pessac,10 avenue Antoine Becquerel,,33600,PESSAC,+33 5 56 07 59 59,www.holiday-inn.com/pessac,Holiday Inn,,,,-0.6465625,44.7884
Hôtel - Restaurant,3 étoiles,Hostellerie du Château de Roques,Roques,,33570,PUISSEGUIN,+33 5 57 74 55 69,www.hostelleriederoques.com,Logis,2 cheminées;2 cocottes,Qualité Tourisme,,-0.069709,44.94638
Hôtel,2 étoiles,Hôtel Ttiki Etchea,2 place Louis-Gaume,,33115,PYLA-SUR-MER,+33 5 56 22 71 15,www.hotel-ttiki-etchea.com,,,,,-1.2071764,44.606373
Hôtel - Restaurant,Non classé,Hôtel Côte du Sud,4 avenue du Figuier,,33115,PYLA-SUR-MER,+33 5 56 83 25 00,www.cote-du-sud.fr,,,,,-1.2035232,44.632435
Hôtel - Restaurant,Non classé,Hôtel La Co(o)rniche,46 avenue Louis Gaume,,33115,PYLA-SUR-MER,+33 5 56 22 72 11,www.lacoorniche-pyla.com,,,,,-1.210062,44.602036
Hôtel - Restaurant,Non classé,Hôtel La Guitoune,95 boulevard de l'Océan,,33115,PYLA-SUR-MER,+33 5 56 22 20 00,www.laguitoune.com,,,,,-1.2022304,44.629818
Hôtel - Restaurant,Non classé,Hôtel des Vieux Acacias,Rue du Docteur Donèche,,33340,QUEYRAC,+33 5 56 59 80 63,www.hotel-vieuxacacias.com,,,,,-0.977955,45.361538
Hôtel - Restaurant,3 étoiles,Hôtel Pavillon de Saint-Aubin,Lieu-dit Le Hiou,Route de Picot,33160,SAINT-AUBIN-DE-MEDOC,+33 5 56 95 98 68,www.thierry-arbeau.com,,,,,-0.7432937,44.907257
Hôtel - Restaurant,2 étoiles,Hostellerie du Château Semens,3 Semens,,33540,SAINT-BRICE,+33 5 56 61 73 74,www.hostellerie-semens.com,,,,Handicap mental;Handicap moteur,-0.1435733,44.70289
Hôtel - Restaurant,Non classé,Hôtel La Closerie des Vignes,Village des Arnauds,,33710,SAINT-CIERS-DE-CANESSE,+33 5 57 64 81 90,www.hotel-restaurant-gironde.com,,,Tables et Auberges de France,,-0.603478,45.09914
Hôtel - Restaurant,2 étoiles,Le Grand Hôtel,117-119 rue de la République,,33220,SAINTE-FOY-LA-GRANDE,+33 5 57 46 00 08,www.grandhotelstefoy.com,,,,,0.218868,44.84229
Hôtel,2 étoiles,Auberge de la Commanderie,2 rue Porte Brunet,,33330,SAINT-EMILION,+33 5 57 24 70 19,www.aubergedelacommanderie.com,,,,,-0.154883,44.892963
Hôtel,3 étoiles,Hôtel Ibis Saint-Emilion,Route de Castillon,,33330,SAINT-EMILION,+33 5 57 25 25 07,www.ibishotel.com/fr/hotel-8510-ibis-bordeaux-st-emilion/index.shtml,Ibis,,,,-0.1953506,44.89261
Hôtel,3 étoiles,Hôtel Le Logis des Remparts,18 rue Guadet,,33330,SAINT-EMILION,+33 5 57 24 70 43,www.logisdesremparts.com,,,,,-0.1550316,44.893692
Hôtel - Restaurant,3 étoiles,Hôtel Palais Cardinal,Place du 11 Novembre 1918,,33330,SAINT-EMILION,+33 5 57 24 72 39,www.palais-cardinal.com,,,,,-0.155282,44.895878
Hôtel - Restaurant,4 étoiles,Hôtel Château Grand Barrail,Route de Libourne,D 243,33330,SAINT-EMILION,+33 5 57 55 37 00,www.grand-barrail.com,Small Luxury Hotel,,,,-0.19241,44.909107
Hôtel - Restaurant,5 étoiles,Hostellerie de Plaisance,5 place du Clocher,,33330,SAINT-EMILION,+33 5 57 55 07 55,www.hostelleriedeplaisance.com,Relais et Châteaux,,,,-0.155808,44.893887
Hôtel - Restaurant,3 étoiles,Château de Sanse,,,33350,SAINTE-RADEGONDE,+33 5 57 56 41 10,www.chateaudesanse.com,,,,,0.05527496,44.799133
Hôtel - Restaurant,Non classé,Hôtel Château Pomys,Route de Poumeys-Leyssac,,33180,SAINT-ESTEPHE,+33 5 56 59 73 44,www.chateaupomys.com,,,,,-0.7854366,45.242622
Hôtel,Non classé,Hôtel Au Vieux Logis,92 avenue de la République,B.P. 21,33450,SAINT-LOUBES,+33 5 56 78 92 99,www.hotel-vieux-logis-33.fr,,,,,-0.426605,44.916927
Hôtel - Restaurant,2 étoiles,Hôtel Le Coq Sauvage,71 avenue du Port,Cavernes,33450,SAINT-LOUBES,+33 5 56 20 41 04,http://hotel-restaurant-coqsauvage.com,,,,,-0.438506,44.931206
Hôtel - Restaurant,Non classé,Hôtel Les Feuilles d'Acanthe,5 rue de l'Eglise,6 rue Carnot,33490,SAINT-MACAIRE,+33 5 56 62 33 75,www.feuilles-dacanthe.fr,,,,,-0.2268344,44.56487
Hôtel - Restaurant,2 étoiles,Hôtel Saint Clément,5 rue de la République,,33230,SAINT-MEDARD-DE-GUIZIERES,+33 5 57 69 60 14,http://hotel-restaurant-st-clement.com,Logis,1 cheminée;2 cocottes,,,-0.05373,45.014954
Hôtel,3 étoiles,Ibis Styles Bordeaux Saint-Médard,1 avenue de la Boétie,,33160,SAINT-MEDARD-EN-JALLES,+33 5 56 99 11 11,http://ibisstyleshotel.ibis.com/fr/hotel-7208-ibis-styles-bordeaux-saint-medard/index.shtml,Ibis,,,,-0.7076519,44.897896
Hôtel - Restaurant,2 étoiles,Hôtel Les Bruyères,85 avenue Blaise Pascal,Issac,33160,SAINT-MEDARD-EN-JALLES,+33 5 56 05 32 24,www.lesbruyeres.fr,,,,,-0.773711,44.895817
Hôtel - Restaurant,Non classé,Hôtel Napoléon,214 rue Georges Clémenceau,,33160,SAINT-MEDARD-EN-JALLES,+33 5 56 05 03 63,,,,,,-0.728898,44.887154
Hôtel - Restaurant,Non classé,Hôtel La Renaissance,67 route de Saint-Malo,,33390,SAINT-SEURIN-DE-CURSAC,+33 5 57 42 94 28,www.larenaissance33.com,Logis,1 cheminée;2 cocottes,,,-0.631634,45.15598
Hôtel - Restaurant,Non classé,Château Isabeau de Naujan,Domaine de Naujan,,33420,SAINT-VINCENT-DE-PERTIGNAS,+33 5 57 55 14 30,www.domaine-de-naujan.com,,,,,-0.111667,44.798653
Hôtel,Non classé,Château Pey la Tour,32 avenue de la Tour,,33370,SALLEBOEUF,+33 5 56 68 51 81,www.chateaupeylatour.com,,,,,-0.396612,44.850384
Hôtel - Restaurant,3 étoiles,Domaine du Pont de l'Eyre,2 route de Minoy,B.P. 8,33770,SALLES,+33 5 56 88 35 00,domainedupontdeleyre.eu,Logis,2 cheminées;2 cocottes,Qualité Tourisme,,-0.877956,44.54135
Hôtel,Non classé,Relais du Château d'Arche,,,33210,SAUTERNES,+33 5 56 76 67 67,www.chateaudarche-sauternes.com,Relais du Silence,,,,-0.342766,44.53745
Hôtel - Restaurant,Non classé,Hôtel Le Guyenne,Route de Libourne,,33540,SAUVETERRE-DE-GUYENNE,+33 5 56 71 54 92,www.hotel-de-guyenne.fr,,,,,-0.0888347,44.694893
Hôtel,2 étoiles,Hôtel Michelet,1 rue Bernard Baguenard,,33780,SOULAC-SUR-MER,+33 5 56 09 84 18,www.hotelmichelet.fr,,,,,-1.1271715,45.514385
Hôtel - Restaurant,3 étoiles,Hôtel des Pins,92 boulevard de l'Amélie,,33780,SOULAC-SUR-MER,+33 5 56 73 27 27,www.hotel-des-pins.com,Logis,2 cheminées;3 cocottes,Qualité Tourisme,,-1.148388,45.484894
Hôtel - Restaurant,3 étoiles,Océan Hôtel Amélie,L'Amélie,,33780,SOULAC-SUR-MER,+33 5 56 09 78 05,www.oceanhotelamelie.com,,,,,-1.1364626,45.482048
Hôtel - Restaurant,Non classé,Hôtel l'Arbousier,1 route de Grayan,,33780,SOULAC-SUR-MER,+33 5 56 09 74 89,www.hotel-arbousier.com,,,,,-1.118524,45.507896
Hôtel - Restaurant,Non classé,Hôtel Le Neptune,12 rue de la plage,,33780,SOULAC-SUR-MER,+33 5 56 73 32 50,www.hotelneptune.fr,,,,,-1.1266779,45.51585
Hôtel - Restaurant,Non classé,Hôtel l'Ecume des Jours,4 rue Périer de Larsan,,33780,SOULAC-SUR-MER,+33 5 56 09 81 34,www.ecumedesjours.fr,,,,,-1.1213135,45.512634
Hôtel - Restaurant,Non classé,Hôtel Le Cheyzin,Route de la Rivière,Lieu dit Le Cheyzin,33590,TALAIS,05 56 09 99 05,www.lecheyzin.com,,,,,-0.975,45.4192
Hôtel - Restaurant,Non classé,Hôtel Chez Philip,132 rue de la Médoquine,,33400,TALENCE,+33 5 56 80 46 46,www.hotel-restaurant-chez-philip.com,,,,,-0.596624,44.81514
Hôtel - Restaurant,Non classé,Hôtel de Guyenne,15 rue François Rabelais,,33405,TALENCE CEDEX,+33 5 56 84 48 60,www.lyceedegascogne.com,,,,,-0.590352,44.81292
Hôtel,3 étoiles,Girondotel,14 avenue du Périgord,,33370,TRESSES,+33 5 57 34 13 95,www.inter-hotel.com,Inter Hôtels,,,,-0.468073,44.865646
Hôtel - Restaurant,Non classé,Vatel-Gangloff Hôtel,Grand Cazeau,,33870,VAYRES,+33 5 57 74 80 79,www.gangloff-vatel-hotel.ic-sites.com,Logis,2 cheminées;1 cocotte,Qualité Tourisme,,-0.3125,44.8972
Hôtel,Non classé,Motel Les Acacias,64 route de Montalivet,,33930,VENDAYS-MONTALIVET,+33 5 56 41 73 23,www.acaciashotel.fr,,,,,-1.068803,45.357655
Hôtel - Restaurant,2 étoiles,Hôtel l'Arberet,32 route de Soulac,,33930,VENDAYS-MONTALIVET,+33 5 56 41 71 29,www.larberet.com,Logis,2 cheminées;2 cocottes,Qualité Tourisme,,-1.068803,45.357655
Hôtel - Restaurant,2 étoiles,Hôtel Le Marin,18 avenue de l'Océan,,33930,VENDAYS-MONTALIVET,+33 5 56 09 99 90,www.hotellemarin.com,,,,,-1.1560904,45.378147
Hôtel - Restaurant,Non classé,Hôtel de l'Europe,2 avenue de l'Océan,,33930,VENDAYS-MONTALIVET,+33 5 56 09 30 41,http://formaweb33.free.fr/soleileurope,,,,,-1.150843,45.378086
Hôtel,Non classé,Hôtel Le Casalet,Rue Jean Dupuy,,33730,VILLANDRAUT,+33 5 56 25 46 94,www.lecasalet.fr,,,,,-0.369772,44.459232
Hôtel - Restaurant,2 étoiles,Hôtel La Renaissance,6 place Gambetta,,33730,VILLANDRAUT,+33 5 56 25 31 25,www.logishotels.com/fr/hotel-Hotel-La-Renaissance-13132.html,Logis,2 cheminées;1 cocotte,,Handicap mental;Handicap moteur,-0.3714,44.4586
Hôtel - Restaurant,2 étoiles,Hôtel La Crémaillère,8 place du Général de Gaulle,,33730,VILLANDRAUT,+33 5 56 25 30 67,www.aubergelacremaillere.com,Logis,2 cheminées;2 cocottes,Qualité Tourisme;Tables et Auberges de France,,-0.372824,44.458717
Hôtel,1 étoile,Hôtel Première Classe Bordeaux Sud,2-4 rue Jean Fragonard,Haut Madere Ouest,33140,VILLENAVE-D'ORNON,+33 8 92 70 70 38,www.premiere-classe-bordeaux-sud-villenave-dornon.fr,Première Classe,,,,-0.5893278,44.78457
Hôtel,1 étoile,Hôtel Formule 1 Bordeaux Sud,2 rue Salvador Dali,Quartier Haut Madère,33140,VILLENAVE-D'ORNON,+33 8 91 70 51 92,www.accorhotels.com/fr/hotel-2472-formule-1-hotelf1-bordeaux-sud-villenave-d-ornon/index.shtml,Formule 1,,,,-0.587724,44.78429
Hôtel,2 étoiles,Hôtel Altica Villenave d'Ornon,Zone du Haut-Madère,3 rue Van Gogh,33140,VILLENAVE-D'ORNON,+33 5 56 04 64 64,www.altica.fr/fiche-hotel-altica.php?hotel=bordeaux-villenave-ornon,Altica,,,,-0.5822,44.7872
Hôtel,2 étoiles,Hôtel Stars Bordeaux Sud,6, rue Salvador Dali,Quartier Haut Madère,33140,VILLENAVE-D'ORNON,+33 5 56 37 90 00,http://bordeauxsud.starshotels.fr,Hôtel Star,,,,-0.588026,44.784393
Hôtel,2 étoiles,Etap Hôtel Bordeaux Sud,Centre d'ornon,Chemin de Sarcignan,33140,VILLENAVE-D'ORNON,+33 8 92 70 75 14,www.etaphotel.com/fr/hotel-6675-etap-hotel-bordeaux-sud-villenave-d-ornon-futur-ibis-budget/index.shtml,Etap Hotel,,,,-0.571914,44.777588
Hôtel,Non classé,Hôtel B & B Bordeaux Sud,Zone hôtelière,4 rue Salvador Dali,33140,VILLENAVE-D'ORNON,+33 8 92 78 80 17,www.hotel-bb.com/detailhotels.phtml?hotelid=0492,B&B,,La Clef Verte,,-0.5879831,44.78427
Hôtel - Restaurant,3 étoiles,All Seasons Bordeaux Sud,10 avenue du Maréchal Leclerc,,33140,VILLENAVE-D'ORNON,+33 5 56 87 82 86,www.all-seasons-hotels.com/fr/hotel-1996-all-seasons-bordeaux-sud-villenave-d-ornon-ex-mercure/index.shtml,All Seasons,,Qualité Tourisme,,-0.57298,44.778404
