ACTIVITES,PRESTATIONS,RAISON_SOCIALE,ADRESSE,ADRESSE_SUITE,CODE_POSTAL,COMMUNE,TELEPHONE,SITE_WEB,LABELS,LONGITUDE,LATITUDE
Cyclotourisme,Location de matériel,Westside,61, boulevard de la République,,33510,ANDERNOS-LES-BAINS,+33 5 56 26 32 86,http://westside-sports.com/westside.html,,-1.087479,44.736458
Cyclotourisme;VTT,Location de matériel,Delort Sport - Location de vélos,125, boulevard de la République,,33510,ANDERNOS-LES-BAINS,+33 5 56 82 11 45,http://delort-sport.fr/,,-1.096526,44.741096
Cyclotourisme;VTT,Location de matériel,Locabeach Le Moulleau,débarcadère du Moulleau,,33120,ARCACHON,+33 5 56 83 69 29,www.locabeach.com,,-1.202469,44.641064
Cyclotourisme;VTT,Location de matériel,Dingo vélos,1, rue Grenier,,33120,ARCACHON,+33 5 56 83 44 09,www.dingo-velo.com,,-1.166914,44.66284
Cyclotourisme;VTT,Location de matériel,Locabeach Arcachon Centre,326, boulevard de la Plage,,33120,ARCACHON,+33 5 56 83 39 64,www.locabeach.com,,-1.1650228,44.65965
Cyclotourisme;VTT,Location de matériel,Locabeach Arcachon Gare,34, avenue du Général de Gaulle,,33120,ARCACHON,+33 5 56 83 79 11,www.locabeach.com,,-1.1650228,44.65965
Cyclotourisme,Location de matériel,Camping Les Ecureuils,1, rue des Oyats,,33740,ARES,+33 5 56 26 09 47,http://lesecureuils.free.fr/,,-1.1250901,44.760754
Cyclotourisme,Location de matériel,Nice Bike,Résidence de Saint-Brice,,33740,ARES,+33 6 68 51 65 00,,,-1.1186099,44.75743
Cyclotourisme;VTT,Location de matériel,Roumégoux et Fils,53, avenue du Général de Gaulle,,33740,ARES,+33 5 56 60 20 88,,,-1.1413443,44.773052
Cyclotourisme,Location de matériel,Antenne d'Audenge - Office de Tourisme du Coeur du Bassin d'Arcachon,24 ter allées de Boissière,,33980,AUDENGE,+33 5 56 26 95 97,www.tourisme-coeurdubassin.com,,-1.0151839,44.68382
Cyclotourisme,Location de matériel,Nord Bassin Auto,garage Renault,rue Jean Mermoz,33980,AUDENGE,+33 5 56 26 84 29,,,-1.004806,44.675568
Cyclotourisme,Location de matériel,Location de vélos M. Clavé,13-15, cours du Maréchal Foch,,33430,BAZAS,+33 5 56 25 93 99,,,-0.2141368,44.43014
Cyclotourisme;VTT,Location de matériel,Centre d'animation du Graoux,31, route du Graoux,,33830,BELIN-BELIET,+33 5 57 71 99 29,www.parc-landes-de-gascogne.fr,,-0.800081,44.506523
Cyclotourisme;VTT,Location de matériel,Location ADA,485 B, rue Gustave Eiffel,,33380,BIGANOS,+33 5 57 70 86 51,,,-0.9559458,44.637325
Cyclotourisme,Location de matériel,Antenne de Biganos - Office de Tourisme du Coeur du Bassin d'Arcachon,rue Jean Zay,,33380,BIGANOS,+33 5 57 70 67 56,www.tourisme-coeurdubassin.com,,-1.059453,44.716873
Cyclotourisme,Location de matériel,Esprit Cycles,27 rue du Docteur Charles Nancel Pénard,,33000,BORDEAUX,+33 5 56 58 78 34,www.espritcyclesbordeaux.com ,,-0.5814654,44.839466
Cyclotourisme,Location de matériel,Le 63,63, cours Alsace Lorraine,,33000,BORDEAUX,+33 6 64 32 60 54,,,-0.576144,44.837368
Cyclotourisme,Location de matériel,Liberty Cycles,104, cours de l'Yser,,33000,BORDEAUX,+33 5 56 92 77 18,www.libertycycles.fr,,-0.5694809,44.825993
Cyclotourisme,Location de matériel,Vehrts Bleu Company,265, rue Judaïque,,33000,BORDEAUX,+33 5 56 69 72 93,www.vehicules-electriques-aquitaine.com ,,-0.5986442,44.840347
Cyclotourisme;VTT,Location de matériel,Bordeaux Scooters - Holland Bikes,47-49, rue de Tauzia,,33000,BORDEAUX,+33 5 57 59 10 18,www.hollandbikes.com/magasin-velo-bordeaux-holland-bikes-bordeaux.htm ,,-0.5584725,44.829082
Cyclotourisme,Location de matériel,Office de Tourisme Intercommunal de Saint-Ciers-sur-Gironde,Terres d'Oiseaux,2, les Nouvelles Possessions,33820,BRAUD-ET-SAINT-LOUIS,+33 5 57 32 88 80;+33 5 57 32 88 88,www.terresdoiseaux.fr,,-0.609164,45.29086
VTT,Location de matériel,Au Petit Mousse - Location vélos,81, boulevard du Lac,,33121,CARCANS,+33 5 56 03 31 91,www.petitmousse.fr,,-1.132998,45.063747
VTT,Location de matériel,UCPA - Location Vélos,Domaine de Bombannes,,33121,CARCANS-MAUBUISSON,+33 5 57 70 12 11,http://bombannes.ucpa.com,,-1.1466979,45.081642
Cyclotourisme;VTT,Location de matériel,Bicyc'loue,111, avenue Maubuisson,,33121,CARCANS-MAUBUISSON,+33 5 56 03 43 23,www.bicycloue.fr,,-1.134118,45.063503
Cyclotourisme;VTT,Location de matériel,Fun Bike,109, avenue de Maubuisson,,33121,CARCANS-MAUBUISSON,+33 5 56 82 96 74,www.funbike.fr,Famille Plus;Accueil Vélo;Vélodyssée,-1.1430931,45.070004
Cyclotourisme;VTT,Location de matériel,Nice Bike,rond Point du Mail,,33121,CARCANS-MAUBUISSON,+33 5 56 03 42 76,http://pagesperso-orange.fr/bateco/nb/nicebike.htm,,-1.1417198,45.068672
Cyclotourisme;VTT,Location de matériel,He'enalu Surf Shop - Location Vélos,5 bis, place Marcel Prévôt,,33121,CARCANS-OCEAN,+33 5 56 03 42 72,www.he-enalu.com,,-1.187242,45.082993
Cyclotourisme;VTT,Location de matériel,Gauthier SP 33,15, avenue de l'Europe,,33350,CASTILLON-LA-BATAILLE,+33 5 57 40 12 27;+33 5 57 40 12 96,www.gauthiersp33.com,,-0.065946,44.854893
Cyclotourisme,Location de matériel,Caverne o Services,29 bis avenue de Verdun,,33260,CAZAUX,+33 5 56 22 22 22,,,-1.1536582,44.536278
Cyclotourisme;VTT,Location de matériel,Point Relais Vélo de Créon,62 boulevard Victor Hugo,,33670,CREON,+33 5 57 34 30 95,http://creonstationvelos.free.fr,,-0.346121,44.77524
Cyclotourisme;VTT,Location de matériel,Cocci'Vélos,47, avenue de Lattre de Tassigny,,33470,GUJAN-MESTRAS,+33 5 56 54 17 36,www.coccivelos.com,,-1.1110568,44.63794
Cyclotourisme;VTT,Location de matériel,Le Garage à Vélos,108 avenue du Lac,,33990,HOURTIN,+33 5 56 09 69 60,,Accueil Vélo,-1.0607914,45.185204
Cyclotourisme,Location de matériel,Office de Tourisme de La Teste-de-Buch,13 bis, rue Victo Hugo,,33260,LA TESTE-DE-BUCH,+33 5 56 54 63 14,www.tourisme-latestedebuch.fr,,-1.1482161,44.632763
Cyclotourisme;VTT,Location de matériel,Nomade,6, avenue Plantey,,33680,LACANAU OCEAN,+33 5 56 03 06 99,www.nomade.lacanauocean.com ,Accueil Vélo;Vélodyssée,-1.1926742,45.00135
Cyclotourisme;VTT,Location de matériel,Locacycles,avenue de l'Europe,,33680,LACANAU OCEAN,+33 5 56 26 30 99,,Famille Plus,-1.1968767,45.001656
Cyclotourisme;VTT,Location de matériel,Central Garage,avenue de l'Europe,,33680,LACANAU OCEAN,+33 5 56 26 99 65,http://centralgarage-lacanau.fr ,Vélodyssée;Accueil Vélo,-1.1953371,45.001926
Cyclotourisme;VTT,Location de matériel,Moutchic Loisirs,Le Moutchic,,33680,LACANAU VILLE,+33 6 66 10 09 12,http://pagesperso-orange.fr/bateco/ml/moutchicloisirs.htm,,-1.1344617,45.002167
Cyclotourisme;VTT,Location de matériel,Office de Tourisme de Sauternes et Graves ,11 allées Jean Jaurès,,33210,LANGON,+33 5 56 63 68 00,www.sauternais-graves-langon.com,,-0.2452459,44.55328
Cyclotourisme,Location de matériel,Antenne de Lanton - Office de Tourisme du Coeur du Bassin d'Arcachon,1, route du Stade,Cassy,33138,LANTON,+33 5 57 70 26 55,www.tourisme-coeurdubassin.com,,-1.059453,44.716873
Cyclotourisme;VTT,Location de matériel,Relais de Latresne,9, avenue de la libération,,33360,LATRESNE,+33 5 56 20 00 96,,,-0.4963338,44.78422
Cyclotourisme,Location de matériel,Villetorte Loisirs,30, rue du Pont Neuf,,33470,LE TEICH,+33 5 56 22 66 80,www.loisirs-arcachon.com,,-1.0140895,44.637756
Cyclotourisme;VTT,Location de matériel,Parc de Loisirs du Four,Le Four,,33950,LEGE-CAP FERRET,+33 5 57 70 34 06,www.parcdeloisirsdufour.fr,,-1.196351,44.73182
Cyclotourisme,Location de matériel,Cool Bike,6, avenue du Général de Gaulle,Claouey,33950,LEGE-CAP FERRET,+33 6 50 77 78 18,https://sites.google.com/site/sarlcoolbikeclaouey/,,-1.1808616,44.748123
Cyclotourisme;VTT,Location de matériel,Auto Loc Cap Ferret,44, avenue de l'Océan,Cap Ferret,33970,LEGE-CAP FERRET,+33 5 56 03 72 34;+33 5 56 60 70 86,www.auto-loc.fr,,-1.2477636,44.65501
Cyclotourisme;VTT,Location de matériel,Auto Loc Claouey,4, route des Pastourelles,Claouey,33950,LEGE-CAP FERRET,+33 5 56 60 70 86,www.auto-loc.fr,,-1.1791205,44.750786
Cyclotourisme;VTT,Location de matériel,Auto Loc Le Canon,route du Cap Ferret,Le Canon,33950,LEGE-CAP FERRET,+33 5 56 03 72 34,www.auto-loc.fr,,-1.225943,44.70477
Cyclotourisme,Location de matériel,Office de tourisme de Mios,1 allée Val de San Vincente,,33380,MIOS,+33 5 56 26 63 00;+33 5 56 26 63 01,www.ville-mios.fr/tourisme-et-loisirs/office-du-tourisme-et-halte-nautique/,,-0.9394907,44.6059
Cyclotourisme;VTT,Location de matériel,Club de Canoë / Foyer des Jeunes,Les quais,,33890,PESSAC-SUR-DORDOGNE,+33 5 57 47 49 46,www.canoe-fjep.org,,0.090033,44.811104
Cyclotourisme;VTT,Location de matériel,Oxy'Jeune,17, rue Armand Berlan,,33160,SAINT-MEDARD-EN-JALLES,+33 5 56 95 75 05,www.oxyjeune.com,,-0.721278,44.89377
Cyclotourisme,Location de matériel,Parc Nat & a,lieu dit Naudon,Chemin de Froumy,33920,SAINT-SAVIN,+33 5 57 58 40 33,www.nat-et-a.com,,-0.4699391,45.14352
Cyclotourisme,Location de matériel,Office de tourisme du Val de Leyre,4 allées du Champ de Foire,,33770,SALLES,+33 5 56 88 30 11,www.salles-valdeleyre.com,,-0.867826,44.549942
Cyclotourisme,Location de matériel,Point Relais Vélo de Sauveterre-de-Guyenne,Office de Tourisme,2, rue Saint-Romain,33540,SAUVETERRE-DE-GUYENNE,+33 5 56 71 53 45,www.entredeuxmers.com,,-0.0872683,44.690273
Cyclotourisme,Location de matériel,La Bricaillerie,21, rue Guy Célérier,,33148,TAUSSAT,+33 5 56 26 04 69,,,-1.072075,44.72078
Cyclotourisme,Location de matériel,Station du Médoc,1 place du 11 Novembre,,33930,VENDAYS-MONTALIVET,+33 5 56 41 71 27,,,-1.0615939,45.35576
Cyclotourisme;VTT,Location de matériel,Locvélos,6, rue du Colonel Duchez,,33930,VENDAYS-MONTALIVET,+33 5 56 09 37 66,,,-1.156062,45.379116
Cyclotourisme;VTT,Location de matériel,Multibikes,1 avenue de l'Europe,,33930,VENDAYS-MONTALIVET,+33 5 56 09 33 37,www.multibikes.fr,,-1.144098,45.374958
